[{"ID":1,"Postcode":"2000","State":"NSW","Urban Type":"Major Urban"},{"ID":2,"Postcode":"2006","State":"NSW","Urban Type":"Major Urban"},{"ID":3,"Postcode":"2007","State":"NSW","Urban Type":"Major Urban"},{"ID":4,"Postcode":"2008","State":"NSW","Urban Type":"Major Urban"},{"ID":5,"Postcode":"2009","State":"NSW","Urban Type":"Major Urban"},{"ID":6,"Postcode":"2010","State":"NSW","Urban Type":"Major Urban"},{"ID":7,"Postcode":"2011","State":"NSW","Urban Type":"Major Urban"},{"ID":8,"Postcode":"2015","State":"NSW","Urban Type":"Major Urban"},{"ID":9,"Postcode":"2016","State":"NSW","Urban Type":"Major Urban"},{"ID":10,"Postcode":"2017","State":"NSW","Urban Type":"Major Urban"},{"ID":11,"Postcode":"2018","State":"NSW","Urban Type":"Major Urban"},{"ID":12,"Postcode":"2019","State":"NSW","Urban Type":"Major Urban"},{"ID":13,"Postcode":"2020","State":"NSW","Urban Type":"Major Urban"},{"ID":14,"Postcode":"2021","State":"NSW","Urban Type":"Major Urban"},{"ID":15,"Postcode":"2022","State":"NSW","Urban Type":"Major Urban"},{"ID":16,"Postcode":"2023","State":"NSW","Urban Type":"Major Urban"},{"ID":17,"Postcode":"2024","State":"NSW","Urban Type":"Major Urban"},{"ID":18,"Postcode":"2025","State":"NSW","Urban Type":"Major Urban"},{"ID":19,"Postcode":"2026","State":"NSW","Urban Type":"Major Urban"},{"ID":20,"Postcode":"2027","State":"NSW","Urban Type":"Major Urban"},{"ID":21,"Postcode":"2028","State":"NSW","Urban Type":"Major Urban"},{"ID":22,"Postcode":"2029","State":"NSW","Urban Type":"Major Urban"},{"ID":23,"Postcode":"2030","State":"NSW","Urban Type":"Major Urban"},{"ID":24,"Postcode":"2031","State":"NSW","Urban Type":"Major Urban"},{"ID":25,"Postcode":"2032","State":"NSW","Urban Type":"Major Urban"},{"ID":26,"Postcode":"2033","State":"NSW","Urban Type":"Major Urban"},{"ID":27,"Postcode":"2034","State":"NSW","Urban Type":"Major Urban"},{"ID":28,"Postcode":"2035","State":"NSW","Urban Type":"Major Urban"},{"ID":29,"Postcode":"2036","State":"NSW","Urban Type":"Major Urban"},{"ID":30,"Postcode":"2037","State":"NSW","Urban Type":"Major Urban"},{"ID":31,"Postcode":"2038","State":"NSW","Urban Type":"Major Urban"},{"ID":32,"Postcode":"2039","State":"NSW","Urban Type":"Major Urban"},{"ID":33,"Postcode":"2040","State":"NSW","Urban Type":"Major Urban"},{"ID":34,"Postcode":"2041","State":"NSW","Urban Type":"Major Urban"},{"ID":35,"Postcode":"2042","State":"NSW","Urban Type":"Major Urban"},{"ID":36,"Postcode":"2043","State":"NSW","Urban Type":"Major Urban"},{"ID":37,"Postcode":"2044","State":"NSW","Urban Type":"Major Urban"},{"ID":38,"Postcode":"2045","State":"NSW","Urban Type":"Major Urban"},{"ID":39,"Postcode":"2046","State":"NSW","Urban Type":"Major Urban"},{"ID":40,"Postcode":"2047","State":"NSW","Urban Type":"Major Urban"},{"ID":41,"Postcode":"2048","State":"NSW","Urban Type":"Major Urban"},{"ID":42,"Postcode":"2049","State":"NSW","Urban Type":"Major Urban"},{"ID":43,"Postcode":"2050","State":"NSW","Urban Type":"Major Urban"},{"ID":44,"Postcode":"2060","State":"NSW","Urban Type":"Major Urban"},{"ID":45,"Postcode":"2061","State":"NSW","Urban Type":"Major Urban"},{"ID":46,"Postcode":"2062","State":"NSW","Urban Type":"Major Urban"},{"ID":47,"Postcode":"2063","State":"NSW","Urban Type":"Major Urban"},{"ID":48,"Postcode":"2064","State":"NSW","Urban Type":"Major Urban"},{"ID":49,"Postcode":"2065","State":"NSW","Urban Type":"Major Urban"},{"ID":50,"Postcode":"2066","State":"NSW","Urban Type":"Major Urban"},{"ID":51,"Postcode":"2067","State":"NSW","Urban Type":"Major Urban"},{"ID":52,"Postcode":"2068","State":"NSW","Urban Type":"Major Urban"},{"ID":53,"Postcode":"2069","State":"NSW","Urban Type":"Major Urban"},{"ID":54,"Postcode":"2070","State":"NSW","Urban Type":"Major Urban"},{"ID":55,"Postcode":"2071","State":"NSW","Urban Type":"Major Urban"},{"ID":56,"Postcode":"2072","State":"NSW","Urban Type":"Major Urban"},{"ID":57,"Postcode":"2073","State":"NSW","Urban Type":"Major Urban"},{"ID":58,"Postcode":"2074","State":"NSW","Urban Type":"Major Urban"},{"ID":59,"Postcode":"2075","State":"NSW","Urban Type":"Major Urban"},{"ID":60,"Postcode":"2076","State":"NSW","Urban Type":"Major Urban"},{"ID":61,"Postcode":"2077","State":"NSW","Urban Type":"Major Urban"},{"ID":62,"Postcode":"2079","State":"NSW","Urban Type":"Major Urban"},{"ID":63,"Postcode":"2080","State":"NSW","Urban Type":"Major Urban"},{"ID":64,"Postcode":"2081","State":"NSW","Urban Type":"Major Urban"},{"ID":65,"Postcode":"2082","State":"NSW","Urban Type":"Major Urban"},{"ID":66,"Postcode":"2084","State":"NSW","Urban Type":"Major Urban"},{"ID":67,"Postcode":"2085","State":"NSW","Urban Type":"Major Urban"},{"ID":68,"Postcode":"2086","State":"NSW","Urban Type":"Major Urban"},{"ID":69,"Postcode":"2087","State":"NSW","Urban Type":"Major Urban"},{"ID":70,"Postcode":"2088","State":"NSW","Urban Type":"Major Urban"},{"ID":71,"Postcode":"2089","State":"NSW","Urban Type":"Major Urban"},{"ID":72,"Postcode":"2090","State":"NSW","Urban Type":"Major Urban"},{"ID":73,"Postcode":"2092","State":"NSW","Urban Type":"Major Urban"},{"ID":74,"Postcode":"2093","State":"NSW","Urban Type":"Major Urban"},{"ID":75,"Postcode":"2094","State":"NSW","Urban Type":"Major Urban"},{"ID":76,"Postcode":"2095","State":"NSW","Urban Type":"Major Urban"},{"ID":77,"Postcode":"2096","State":"NSW","Urban Type":"Major Urban"},{"ID":78,"Postcode":"2097","State":"NSW","Urban Type":"Major Urban"},{"ID":79,"Postcode":"2099","State":"NSW","Urban Type":"Major Urban"},{"ID":80,"Postcode":"2100","State":"NSW","Urban Type":"Major Urban"},{"ID":81,"Postcode":"2101","State":"NSW","Urban Type":"Major Urban"},{"ID":82,"Postcode":"2102","State":"NSW","Urban Type":"Major Urban"},{"ID":83,"Postcode":"2103","State":"NSW","Urban Type":"Major Urban"},{"ID":84,"Postcode":"2104","State":"NSW","Urban Type":"Major Urban"},{"ID":85,"Postcode":"2105","State":"NSW","Urban Type":"Major Urban"},{"ID":86,"Postcode":"2106","State":"NSW","Urban Type":"Major Urban"},{"ID":87,"Postcode":"2107","State":"NSW","Urban Type":"Major Urban"},{"ID":88,"Postcode":"2108","State":"NSW","Urban Type":"Major Urban"},{"ID":89,"Postcode":"2110","State":"NSW","Urban Type":"Major Urban"},{"ID":90,"Postcode":"2111","State":"NSW","Urban Type":"Major Urban"},{"ID":91,"Postcode":"2112","State":"NSW","Urban Type":"Major Urban"},{"ID":92,"Postcode":"2113","State":"NSW","Urban Type":"Major Urban"},{"ID":93,"Postcode":"2114","State":"NSW","Urban Type":"Major Urban"},{"ID":94,"Postcode":"2115","State":"NSW","Urban Type":"Major Urban"},{"ID":95,"Postcode":"2116","State":"NSW","Urban Type":"Major Urban"},{"ID":96,"Postcode":"2117","State":"NSW","Urban Type":"Major Urban"},{"ID":97,"Postcode":"2118","State":"NSW","Urban Type":"Major Urban"},{"ID":98,"Postcode":"2119","State":"NSW","Urban Type":"Major Urban"},{"ID":99,"Postcode":"2120","State":"NSW","Urban Type":"Major Urban"},{"ID":100,"Postcode":"2121","State":"NSW","Urban Type":"Major Urban"},{"ID":101,"Postcode":"2122","State":"NSW","Urban Type":"Major Urban"},{"ID":102,"Postcode":"2125","State":"NSW","Urban Type":"Major Urban"},{"ID":103,"Postcode":"2126","State":"NSW","Urban Type":"Major Urban"},{"ID":104,"Postcode":"2127","State":"NSW","Urban Type":"Major Urban"},{"ID":105,"Postcode":"2128","State":"NSW","Urban Type":"Major Urban"},{"ID":106,"Postcode":"2130","State":"NSW","Urban Type":"Major Urban"},{"ID":107,"Postcode":"2131","State":"NSW","Urban Type":"Major Urban"},{"ID":108,"Postcode":"2132","State":"NSW","Urban Type":"Major Urban"},{"ID":109,"Postcode":"2133","State":"NSW","Urban Type":"Major Urban"},{"ID":110,"Postcode":"2134","State":"NSW","Urban Type":"Major Urban"},{"ID":111,"Postcode":"2135","State":"NSW","Urban Type":"Major Urban"},{"ID":112,"Postcode":"2136","State":"NSW","Urban Type":"Major Urban"},{"ID":113,"Postcode":"2137","State":"NSW","Urban Type":"Major Urban"},{"ID":114,"Postcode":"2138","State":"NSW","Urban Type":"Major Urban"},{"ID":115,"Postcode":"2140","State":"NSW","Urban Type":"Major Urban"},{"ID":116,"Postcode":"2141","State":"NSW","Urban Type":"Major Urban"},{"ID":117,"Postcode":"2142","State":"NSW","Urban Type":"Major Urban"},{"ID":118,"Postcode":"2143","State":"NSW","Urban Type":"Major Urban"},{"ID":119,"Postcode":"2144","State":"NSW","Urban Type":"Major Urban"},{"ID":120,"Postcode":"2145","State":"NSW","Urban Type":"Major Urban"},{"ID":121,"Postcode":"2146","State":"NSW","Urban Type":"Major Urban"},{"ID":122,"Postcode":"2147","State":"NSW","Urban Type":"Major Urban"},{"ID":123,"Postcode":"2148","State":"NSW","Urban Type":"Major Urban"},{"ID":124,"Postcode":"2150","State":"NSW","Urban Type":"Major Urban"},{"ID":125,"Postcode":"2151","State":"NSW","Urban Type":"Major Urban"},{"ID":126,"Postcode":"2152","State":"NSW","Urban Type":"Major Urban"},{"ID":127,"Postcode":"2153","State":"NSW","Urban Type":"Major Urban"},{"ID":128,"Postcode":"2154","State":"NSW","Urban Type":"Major Urban"},{"ID":129,"Postcode":"2155","State":"NSW","Urban Type":"Major Urban"},{"ID":130,"Postcode":"2160","State":"NSW","Urban Type":"Major Urban"},{"ID":131,"Postcode":"2161","State":"NSW","Urban Type":"Major Urban"},{"ID":132,"Postcode":"2162","State":"NSW","Urban Type":"Major Urban"},{"ID":133,"Postcode":"2163","State":"NSW","Urban Type":"Major Urban"},{"ID":134,"Postcode":"2164","State":"NSW","Urban Type":"Major Urban"},{"ID":135,"Postcode":"2165","State":"NSW","Urban Type":"Major Urban"},{"ID":136,"Postcode":"2166","State":"NSW","Urban Type":"Major Urban"},{"ID":137,"Postcode":"2167","State":"NSW","Urban Type":"Major Urban"},{"ID":138,"Postcode":"2168","State":"NSW","Urban Type":"Major Urban"},{"ID":139,"Postcode":"2170","State":"NSW","Urban Type":"Major Urban"},{"ID":140,"Postcode":"2171","State":"NSW","Urban Type":"Major Urban"},{"ID":141,"Postcode":"2172","State":"NSW","Urban Type":"Major Urban"},{"ID":142,"Postcode":"2173","State":"NSW","Urban Type":"Major Urban"},{"ID":143,"Postcode":"2174","State":"NSW","Urban Type":"Major Urban"},{"ID":144,"Postcode":"2175","State":"NSW","Urban Type":"Major Urban"},{"ID":145,"Postcode":"2176","State":"NSW","Urban Type":"Major Urban"},{"ID":146,"Postcode":"2177","State":"NSW","Urban Type":"Major Urban"},{"ID":147,"Postcode":"2178","State":"NSW","Urban Type":"Major Urban"},{"ID":148,"Postcode":"2179","State":"NSW","Urban Type":"Major Urban"},{"ID":149,"Postcode":"2190","State":"NSW","Urban Type":"Major Urban"},{"ID":150,"Postcode":"2191","State":"NSW","Urban Type":"Major Urban"},{"ID":151,"Postcode":"2192","State":"NSW","Urban Type":"Major Urban"},{"ID":152,"Postcode":"2193","State":"NSW","Urban Type":"Major Urban"},{"ID":153,"Postcode":"2194","State":"NSW","Urban Type":"Major Urban"},{"ID":154,"Postcode":"2195","State":"NSW","Urban Type":"Major Urban"},{"ID":155,"Postcode":"2196","State":"NSW","Urban Type":"Major Urban"},{"ID":156,"Postcode":"2197","State":"NSW","Urban Type":"Major Urban"},{"ID":157,"Postcode":"2198","State":"NSW","Urban Type":"Major Urban"},{"ID":158,"Postcode":"2199","State":"NSW","Urban Type":"Major Urban"},{"ID":159,"Postcode":"2200","State":"NSW","Urban Type":"Major Urban"},{"ID":160,"Postcode":"2203","State":"NSW","Urban Type":"Major Urban"},{"ID":161,"Postcode":"2204","State":"NSW","Urban Type":"Major Urban"},{"ID":162,"Postcode":"2205","State":"NSW","Urban Type":"Major Urban"},{"ID":163,"Postcode":"2206","State":"NSW","Urban Type":"Major Urban"},{"ID":164,"Postcode":"2207","State":"NSW","Urban Type":"Major Urban"},{"ID":165,"Postcode":"2208","State":"NSW","Urban Type":"Major Urban"},{"ID":166,"Postcode":"2209","State":"NSW","Urban Type":"Major Urban"},{"ID":167,"Postcode":"2210","State":"NSW","Urban Type":"Major Urban"},{"ID":168,"Postcode":"2211","State":"NSW","Urban Type":"Major Urban"},{"ID":169,"Postcode":"2212","State":"NSW","Urban Type":"Major Urban"},{"ID":170,"Postcode":"2213","State":"NSW","Urban Type":"Major Urban"},{"ID":171,"Postcode":"2214","State":"NSW","Urban Type":"Major Urban"},{"ID":172,"Postcode":"2216","State":"NSW","Urban Type":"Major Urban"},{"ID":173,"Postcode":"2217","State":"NSW","Urban Type":"Major Urban"},{"ID":174,"Postcode":"2218","State":"NSW","Urban Type":"Major Urban"},{"ID":175,"Postcode":"2219","State":"NSW","Urban Type":"Major Urban"},{"ID":176,"Postcode":"2220","State":"NSW","Urban Type":"Major Urban"},{"ID":177,"Postcode":"2221","State":"NSW","Urban Type":"Major Urban"},{"ID":178,"Postcode":"2222","State":"NSW","Urban Type":"Major Urban"},{"ID":179,"Postcode":"2223","State":"NSW","Urban Type":"Major Urban"},{"ID":180,"Postcode":"2224","State":"NSW","Urban Type":"Major Urban"},{"ID":181,"Postcode":"2225","State":"NSW","Urban Type":"Major Urban"},{"ID":182,"Postcode":"2226","State":"NSW","Urban Type":"Major Urban"},{"ID":183,"Postcode":"2227","State":"NSW","Urban Type":"Major Urban"},{"ID":184,"Postcode":"2228","State":"NSW","Urban Type":"Major Urban"},{"ID":185,"Postcode":"2229","State":"NSW","Urban Type":"Major Urban"},{"ID":186,"Postcode":"2230","State":"NSW","Urban Type":"Major Urban"},{"ID":187,"Postcode":"2231","State":"NSW","Urban Type":"Major Urban"},{"ID":188,"Postcode":"2232","State":"NSW","Urban Type":"Major Urban"},{"ID":189,"Postcode":"2233","State":"NSW","Urban Type":"Major Urban"},{"ID":190,"Postcode":"2234","State":"NSW","Urban Type":"Major Urban"},{"ID":191,"Postcode":"2555","State":"NSW","Urban Type":"Major Urban"},{"ID":192,"Postcode":"2556","State":"NSW","Urban Type":"Major Urban"},{"ID":193,"Postcode":"2557","State":"NSW","Urban Type":"Major Urban"},{"ID":194,"Postcode":"2558","State":"NSW","Urban Type":"Major Urban"},{"ID":195,"Postcode":"2559","State":"NSW","Urban Type":"Major Urban"},{"ID":196,"Postcode":"2560","State":"NSW","Urban Type":"Major Urban"},{"ID":197,"Postcode":"2564","State":"NSW","Urban Type":"Major Urban"},{"ID":198,"Postcode":"2565","State":"NSW","Urban Type":"Major Urban"},{"ID":199,"Postcode":"2566","State":"NSW","Urban Type":"Major Urban"},{"ID":200,"Postcode":"2567","State":"NSW","Urban Type":"Major Urban"},{"ID":201,"Postcode":"2745","State":"NSW","Urban Type":"Major Urban"},{"ID":202,"Postcode":"2747","State":"NSW","Urban Type":"Major Urban"},{"ID":203,"Postcode":"2749","State":"NSW","Urban Type":"Major Urban"},{"ID":204,"Postcode":"2750","State":"NSW","Urban Type":"Major Urban"},{"ID":205,"Postcode":"2759","State":"NSW","Urban Type":"Major Urban"},{"ID":206,"Postcode":"2760","State":"NSW","Urban Type":"Major Urban"},{"ID":207,"Postcode":"2761","State":"NSW","Urban Type":"Major Urban"},{"ID":208,"Postcode":"2762","State":"NSW","Urban Type":"Major Urban"},{"ID":209,"Postcode":"2763","State":"NSW","Urban Type":"Major Urban"},{"ID":210,"Postcode":"2766","State":"NSW","Urban Type":"Major Urban"},{"ID":211,"Postcode":"2767","State":"NSW","Urban Type":"Major Urban"},{"ID":212,"Postcode":"2768","State":"NSW","Urban Type":"Major Urban"},{"ID":213,"Postcode":"2769","State":"NSW","Urban Type":"Major Urban"},{"ID":214,"Postcode":"2770","State":"NSW","Urban Type":"Major Urban"},{"ID":215,"Postcode":"2773","State":"NSW","Urban Type":"Major Urban"},{"ID":216,"Postcode":"2774","State":"NSW","Urban Type":"Major Urban"},{"ID":217,"Postcode":"2776","State":"NSW","Urban Type":"Major Urban"},{"ID":218,"Postcode":"2777","State":"NSW","Urban Type":"Major Urban"},{"ID":219,"Postcode":"2250","State":"NSW","Urban Type":"Minor Urban"},{"ID":220,"Postcode":"2251","State":"NSW","Urban Type":"Minor Urban"},{"ID":221,"Postcode":"2256","State":"NSW","Urban Type":"Minor Urban"},{"ID":222,"Postcode":"2257","State":"NSW","Urban Type":"Minor Urban"},{"ID":223,"Postcode":"2258","State":"NSW","Urban Type":"Minor Urban"},{"ID":224,"Postcode":"2259","State":"NSW","Urban Type":"Minor Urban"},{"ID":225,"Postcode":"2260","State":"NSW","Urban Type":"Minor Urban"},{"ID":226,"Postcode":"2261","State":"NSW","Urban Type":"Minor Urban"},{"ID":227,"Postcode":"2262","State":"NSW","Urban Type":"Minor Urban"},{"ID":228,"Postcode":"2263","State":"NSW","Urban Type":"Minor Urban"},{"ID":229,"Postcode":"2278","State":"NSW","Urban Type":"Minor Urban"},{"ID":230,"Postcode":"2280","State":"NSW","Urban Type":"Minor Urban"},{"ID":231,"Postcode":"2281","State":"NSW","Urban Type":"Minor Urban"},{"ID":232,"Postcode":"2282","State":"NSW","Urban Type":"Minor Urban"},{"ID":233,"Postcode":"2283","State":"NSW","Urban Type":"Minor Urban"},{"ID":234,"Postcode":"2284","State":"NSW","Urban Type":"Minor Urban"},{"ID":235,"Postcode":"2285","State":"NSW","Urban Type":"Minor Urban"},{"ID":236,"Postcode":"2286","State":"NSW","Urban Type":"Minor Urban"},{"ID":237,"Postcode":"2287","State":"NSW","Urban Type":"Minor Urban"},{"ID":238,"Postcode":"2289","State":"NSW","Urban Type":"Minor Urban"},{"ID":239,"Postcode":"2290","State":"NSW","Urban Type":"Minor Urban"},{"ID":240,"Postcode":"2291","State":"NSW","Urban Type":"Minor Urban"},{"ID":241,"Postcode":"2292","State":"NSW","Urban Type":"Minor Urban"},{"ID":242,"Postcode":"2293","State":"NSW","Urban Type":"Minor Urban"},{"ID":243,"Postcode":"2294","State":"NSW","Urban Type":"Minor Urban"},{"ID":244,"Postcode":"2295","State":"NSW","Urban Type":"Minor Urban"},{"ID":245,"Postcode":"2296","State":"NSW","Urban Type":"Minor Urban"},{"ID":246,"Postcode":"2297","State":"NSW","Urban Type":"Minor Urban"},{"ID":247,"Postcode":"2298","State":"NSW","Urban Type":"Minor Urban"},{"ID":248,"Postcode":"2299","State":"NSW","Urban Type":"Minor Urban"},{"ID":249,"Postcode":"2300","State":"NSW","Urban Type":"Minor Urban"},{"ID":250,"Postcode":"2302","State":"NSW","Urban Type":"Minor Urban"},{"ID":251,"Postcode":"2303","State":"NSW","Urban Type":"Minor Urban"},{"ID":252,"Postcode":"2304","State":"NSW","Urban Type":"Minor Urban"},{"ID":253,"Postcode":"2305","State":"NSW","Urban Type":"Minor Urban"},{"ID":254,"Postcode":"2306","State":"NSW","Urban Type":"Minor Urban"},{"ID":255,"Postcode":"2307","State":"NSW","Urban Type":"Minor Urban"},{"ID":256,"Postcode":"2308","State":"NSW","Urban Type":"Minor Urban"},{"ID":257,"Postcode":"2309","State":"NSW","Urban Type":"Minor Urban"},{"ID":258,"Postcode":"2320","State":"NSW","Urban Type":"Minor Urban"},{"ID":259,"Postcode":"2322","State":"NSW","Urban Type":"Minor Urban"},{"ID":260,"Postcode":"2323","State":"NSW","Urban Type":"Minor Urban"},{"ID":261,"Postcode":"2500","State":"NSW","Urban Type":"Minor Urban"},{"ID":262,"Postcode":"2502","State":"NSW","Urban Type":"Minor Urban"},{"ID":263,"Postcode":"2505","State":"NSW","Urban Type":"Minor Urban"},{"ID":264,"Postcode":"2506","State":"NSW","Urban Type":"Minor Urban"},{"ID":265,"Postcode":"2515","State":"NSW","Urban Type":"Minor Urban"},{"ID":266,"Postcode":"2516","State":"NSW","Urban Type":"Minor Urban"},{"ID":267,"Postcode":"2517","State":"NSW","Urban Type":"Minor Urban"},{"ID":268,"Postcode":"2518","State":"NSW","Urban Type":"Minor Urban"},{"ID":269,"Postcode":"2519","State":"NSW","Urban Type":"Minor Urban"},{"ID":270,"Postcode":"2525","State":"NSW","Urban Type":"Minor Urban"},{"ID":271,"Postcode":"2526","State":"NSW","Urban Type":"Minor Urban"},{"ID":272,"Postcode":"2527","State":"NSW","Urban Type":"Minor Urban"},{"ID":273,"Postcode":"2528","State":"NSW","Urban Type":"Minor Urban"},{"ID":274,"Postcode":"2529","State":"NSW","Urban Type":"Minor Urban"},{"ID":275,"Postcode":"2530","State":"NSW","Urban Type":"Minor Urban"},{"ID":276,"Postcode":"2324","State":"NSW","Urban Type":"Large Regional"},{"ID":277,"Postcode":"2325","State":"NSW","Urban Type":"Large Regional"},{"ID":278,"Postcode":"2326","State":"NSW","Urban Type":"Large Regional"},{"ID":279,"Postcode":"2327","State":"NSW","Urban Type":"Large Regional"},{"ID":280,"Postcode":"2330","State":"NSW","Urban Type":"Large Regional"},{"ID":281,"Postcode":"2333","State":"NSW","Urban Type":"Large Regional"},{"ID":282,"Postcode":"2340","State":"NSW","Urban Type":"Large Regional"},{"ID":283,"Postcode":"2350","State":"NSW","Urban Type":"Large Regional"},{"ID":284,"Postcode":"2428","State":"NSW","Urban Type":"Large Regional"},{"ID":285,"Postcode":"2430","State":"NSW","Urban Type":"Large Regional"},{"ID":286,"Postcode":"2444","State":"NSW","Urban Type":"Large Regional"},{"ID":287,"Postcode":"2450","State":"NSW","Urban Type":"Large Regional"},{"ID":288,"Postcode":"2452","State":"NSW","Urban Type":"Large Regional"},{"ID":289,"Postcode":"2460","State":"NSW","Urban Type":"Large Regional"},{"ID":290,"Postcode":"2478","State":"NSW","Urban Type":"Large Regional"},{"ID":291,"Postcode":"2480","State":"NSW","Urban Type":"Large Regional"},{"ID":292,"Postcode":"2485","State":"NSW","Urban Type":"Large Regional"},{"ID":293,"Postcode":"2486","State":"NSW","Urban Type":"Large Regional"},{"ID":294,"Postcode":"2487","State":"NSW","Urban Type":"Large Regional"},{"ID":295,"Postcode":"2533","State":"NSW","Urban Type":"Large Regional"},{"ID":296,"Postcode":"2536","State":"NSW","Urban Type":"Large Regional"},{"ID":297,"Postcode":"2541","State":"NSW","Urban Type":"Large Regional"},{"ID":298,"Postcode":"2576","State":"NSW","Urban Type":"Large Regional"},{"ID":299,"Postcode":"2580","State":"NSW","Urban Type":"Large Regional"},{"ID":300,"Postcode":"2619","State":"NSW","Urban Type":"Large Regional"},{"ID":301,"Postcode":"2620","State":"NSW","Urban Type":"Large Regional"},{"ID":302,"Postcode":"2640","State":"NSW","Urban Type":"Large Regional"},{"ID":303,"Postcode":"2641","State":"NSW","Urban Type":"Large Regional"},{"ID":304,"Postcode":"2650","State":"NSW","Urban Type":"Large Regional"},{"ID":305,"Postcode":"2680","State":"NSW","Urban Type":"Large Regional"},{"ID":306,"Postcode":"2756","State":"NSW","Urban Type":"Large Regional"},{"ID":307,"Postcode":"2778","State":"NSW","Urban Type":"Large Regional"},{"ID":308,"Postcode":"2779","State":"NSW","Urban Type":"Large Regional"},{"ID":309,"Postcode":"2780","State":"NSW","Urban Type":"Large Regional"},{"ID":310,"Postcode":"2782","State":"NSW","Urban Type":"Large Regional"},{"ID":311,"Postcode":"2783","State":"NSW","Urban Type":"Large Regional"},{"ID":312,"Postcode":"2784","State":"NSW","Urban Type":"Large Regional"},{"ID":313,"Postcode":"2790","State":"NSW","Urban Type":"Large Regional"},{"ID":314,"Postcode":"2795","State":"NSW","Urban Type":"Large Regional"},{"ID":315,"Postcode":"2800","State":"NSW","Urban Type":"Large Regional"},{"ID":316,"Postcode":"2830","State":"NSW","Urban Type":"Large Regional"},{"ID":317,"Postcode":"2880","State":"NSW","Urban Type":"Large Regional"},{"ID":318,"Postcode":"2267","State":"NSW","Urban Type":"Small Regional"},{"ID":319,"Postcode":"2315","State":"NSW","Urban Type":"Small Regional"},{"ID":320,"Postcode":"2317","State":"NSW","Urban Type":"Small Regional"},{"ID":321,"Postcode":"2318","State":"NSW","Urban Type":"Small Regional"},{"ID":322,"Postcode":"2319","State":"NSW","Urban Type":"Small Regional"},{"ID":323,"Postcode":"2335","State":"NSW","Urban Type":"Small Regional"},{"ID":324,"Postcode":"2337","State":"NSW","Urban Type":"Small Regional"},{"ID":325,"Postcode":"2360","State":"NSW","Urban Type":"Small Regional"},{"ID":326,"Postcode":"2370","State":"NSW","Urban Type":"Small Regional"},{"ID":327,"Postcode":"2372","State":"NSW","Urban Type":"Small Regional"},{"ID":328,"Postcode":"2380","State":"NSW","Urban Type":"Small Regional"},{"ID":329,"Postcode":"2390","State":"NSW","Urban Type":"Small Regional"},{"ID":330,"Postcode":"2400","State":"NSW","Urban Type":"Small Regional"},{"ID":331,"Postcode":"2429","State":"NSW","Urban Type":"Small Regional"},{"ID":332,"Postcode":"2431","State":"NSW","Urban Type":"Small Regional"},{"ID":333,"Postcode":"2443","State":"NSW","Urban Type":"Small Regional"},{"ID":334,"Postcode":"2448","State":"NSW","Urban Type":"Small Regional"},{"ID":335,"Postcode":"2464","State":"NSW","Urban Type":"Small Regional"},{"ID":336,"Postcode":"2470","State":"NSW","Urban Type":"Small Regional"},{"ID":337,"Postcode":"2481","State":"NSW","Urban Type":"Small Regional"},{"ID":338,"Postcode":"2482","State":"NSW","Urban Type":"Small Regional"},{"ID":339,"Postcode":"2488","State":"NSW","Urban Type":"Small Regional"},{"ID":340,"Postcode":"2508","State":"NSW","Urban Type":"Small Regional"},{"ID":341,"Postcode":"2534","State":"NSW","Urban Type":"Small Regional"},{"ID":342,"Postcode":"2539","State":"NSW","Urban Type":"Small Regional"},{"ID":343,"Postcode":"2540","State":"NSW","Urban Type":"Small Regional"},{"ID":344,"Postcode":"2548","State":"NSW","Urban Type":"Small Regional"},{"ID":345,"Postcode":"2551","State":"NSW","Urban Type":"Small Regional"},{"ID":346,"Postcode":"2573","State":"NSW","Urban Type":"Small Regional"},{"ID":347,"Postcode":"2574","State":"NSW","Urban Type":"Small Regional"},{"ID":348,"Postcode":"2582","State":"NSW","Urban Type":"Small Regional"},{"ID":349,"Postcode":"2590","State":"NSW","Urban Type":"Small Regional"},{"ID":350,"Postcode":"2594","State":"NSW","Urban Type":"Small Regional"},{"ID":351,"Postcode":"2627","State":"NSW","Urban Type":"Small Regional"},{"ID":352,"Postcode":"2630","State":"NSW","Urban Type":"Small Regional"},{"ID":353,"Postcode":"2646","State":"NSW","Urban Type":"Small Regional"},{"ID":354,"Postcode":"2663","State":"NSW","Urban Type":"Small Regional"},{"ID":355,"Postcode":"2666","State":"NSW","Urban Type":"Small Regional"},{"ID":356,"Postcode":"2671","State":"NSW","Urban Type":"Small Regional"},{"ID":357,"Postcode":"2700","State":"NSW","Urban Type":"Small Regional"},{"ID":358,"Postcode":"2705","State":"NSW","Urban Type":"Small Regional"},{"ID":359,"Postcode":"2710","State":"NSW","Urban Type":"Small Regional"},{"ID":360,"Postcode":"2720","State":"NSW","Urban Type":"Small Regional"},{"ID":361,"Postcode":"2752","State":"NSW","Urban Type":"Small Regional"},{"ID":362,"Postcode":"2754","State":"NSW","Urban Type":"Small Regional"},{"ID":363,"Postcode":"2785","State":"NSW","Urban Type":"Small Regional"},{"ID":364,"Postcode":"2794","State":"NSW","Urban Type":"Small Regional"},{"ID":365,"Postcode":"2820","State":"NSW","Urban Type":"Small Regional"},{"ID":366,"Postcode":"2821","State":"NSW","Urban Type":"Small Regional"},{"ID":367,"Postcode":"2835","State":"NSW","Urban Type":"Small Regional"},{"ID":368,"Postcode":"2850","State":"NSW","Urban Type":"Small Regional"},{"ID":369,"Postcode":"2870","State":"NSW","Urban Type":"Small Regional"},{"ID":370,"Postcode":"2871","State":"NSW","Urban Type":"Small Regional"},{"ID":371,"Postcode":"2877","State":"NSW","Urban Type":"Small Regional"},{"ID":372,"Postcode":"2083","State":"NSW","Urban Type":"Rural"},{"ID":373,"Postcode":"2156","State":"NSW","Urban Type":"Rural"},{"ID":374,"Postcode":"2157","State":"NSW","Urban Type":"Rural"},{"ID":375,"Postcode":"2158","State":"NSW","Urban Type":"Rural"},{"ID":376,"Postcode":"2159","State":"NSW","Urban Type":"Rural"},{"ID":377,"Postcode":"2264","State":"NSW","Urban Type":"Rural"},{"ID":378,"Postcode":"2265","State":"NSW","Urban Type":"Rural"},{"ID":379,"Postcode":"2311","State":"NSW","Urban Type":"Rural"},{"ID":380,"Postcode":"2312","State":"NSW","Urban Type":"Rural"},{"ID":381,"Postcode":"2316","State":"NSW","Urban Type":"Rural"},{"ID":382,"Postcode":"2321","State":"NSW","Urban Type":"Rural"},{"ID":383,"Postcode":"2328","State":"NSW","Urban Type":"Rural"},{"ID":384,"Postcode":"2329","State":"NSW","Urban Type":"Rural"},{"ID":385,"Postcode":"2334","State":"NSW","Urban Type":"Rural"},{"ID":386,"Postcode":"2336","State":"NSW","Urban Type":"Rural"},{"ID":387,"Postcode":"2338","State":"NSW","Urban Type":"Rural"},{"ID":388,"Postcode":"2339","State":"NSW","Urban Type":"Rural"},{"ID":389,"Postcode":"2341","State":"NSW","Urban Type":"Rural"},{"ID":390,"Postcode":"2342","State":"NSW","Urban Type":"Rural"},{"ID":391,"Postcode":"2343","State":"NSW","Urban Type":"Rural"},{"ID":392,"Postcode":"2344","State":"NSW","Urban Type":"Rural"},{"ID":393,"Postcode":"2345","State":"NSW","Urban Type":"Rural"},{"ID":394,"Postcode":"2346","State":"NSW","Urban Type":"Rural"},{"ID":395,"Postcode":"2347","State":"NSW","Urban Type":"Rural"},{"ID":396,"Postcode":"2352","State":"NSW","Urban Type":"Rural"},{"ID":397,"Postcode":"2353","State":"NSW","Urban Type":"Rural"},{"ID":398,"Postcode":"2354","State":"NSW","Urban Type":"Rural"},{"ID":399,"Postcode":"2355","State":"NSW","Urban Type":"Rural"},{"ID":400,"Postcode":"2356","State":"NSW","Urban Type":"Rural"},{"ID":401,"Postcode":"2357","State":"NSW","Urban Type":"Rural"},{"ID":402,"Postcode":"2358","State":"NSW","Urban Type":"Rural"},{"ID":403,"Postcode":"2359","State":"NSW","Urban Type":"Rural"},{"ID":404,"Postcode":"2361","State":"NSW","Urban Type":"Rural"},{"ID":405,"Postcode":"2365","State":"NSW","Urban Type":"Rural"},{"ID":406,"Postcode":"2369","State":"NSW","Urban Type":"Rural"},{"ID":407,"Postcode":"2371","State":"NSW","Urban Type":"Rural"},{"ID":408,"Postcode":"2379","State":"NSW","Urban Type":"Rural"},{"ID":409,"Postcode":"2381","State":"NSW","Urban Type":"Rural"},{"ID":410,"Postcode":"2382","State":"NSW","Urban Type":"Rural"},{"ID":411,"Postcode":"2386","State":"NSW","Urban Type":"Rural"},{"ID":412,"Postcode":"2387","State":"NSW","Urban Type":"Rural"},{"ID":413,"Postcode":"2388","State":"NSW","Urban Type":"Rural"},{"ID":414,"Postcode":"2395","State":"NSW","Urban Type":"Rural"},{"ID":415,"Postcode":"2396","State":"NSW","Urban Type":"Rural"},{"ID":416,"Postcode":"2397","State":"NSW","Urban Type":"Rural"},{"ID":417,"Postcode":"2398","State":"NSW","Urban Type":"Rural"},{"ID":418,"Postcode":"2399","State":"NSW","Urban Type":"Rural"},{"ID":419,"Postcode":"2401","State":"NSW","Urban Type":"Rural"},{"ID":420,"Postcode":"2402","State":"NSW","Urban Type":"Rural"},{"ID":421,"Postcode":"2403","State":"NSW","Urban Type":"Rural"},{"ID":422,"Postcode":"2404","State":"NSW","Urban Type":"Rural"},{"ID":423,"Postcode":"2405","State":"NSW","Urban Type":"Rural"},{"ID":424,"Postcode":"2406","State":"NSW","Urban Type":"Rural"},{"ID":425,"Postcode":"2408","State":"NSW","Urban Type":"Rural"},{"ID":426,"Postcode":"2409","State":"NSW","Urban Type":"Rural"},{"ID":427,"Postcode":"2410","State":"NSW","Urban Type":"Rural"},{"ID":428,"Postcode":"2411","State":"NSW","Urban Type":"Rural"},{"ID":429,"Postcode":"2415","State":"NSW","Urban Type":"Rural"},{"ID":430,"Postcode":"2420","State":"NSW","Urban Type":"Rural"},{"ID":431,"Postcode":"2421","State":"NSW","Urban Type":"Rural"},{"ID":432,"Postcode":"2422","State":"NSW","Urban Type":"Rural"},{"ID":433,"Postcode":"2424","State":"NSW","Urban Type":"Rural"},{"ID":434,"Postcode":"2425","State":"NSW","Urban Type":"Rural"},{"ID":435,"Postcode":"2426","State":"NSW","Urban Type":"Rural"},{"ID":436,"Postcode":"2427","State":"NSW","Urban Type":"Rural"},{"ID":437,"Postcode":"2439","State":"NSW","Urban Type":"Rural"},{"ID":438,"Postcode":"2440","State":"NSW","Urban Type":"Rural"},{"ID":439,"Postcode":"2441","State":"NSW","Urban Type":"Rural"},{"ID":440,"Postcode":"2445","State":"NSW","Urban Type":"Rural"},{"ID":441,"Postcode":"2446","State":"NSW","Urban Type":"Rural"},{"ID":442,"Postcode":"2447","State":"NSW","Urban Type":"Rural"},{"ID":443,"Postcode":"2449","State":"NSW","Urban Type":"Rural"},{"ID":444,"Postcode":"2453","State":"NSW","Urban Type":"Rural"},{"ID":445,"Postcode":"2454","State":"NSW","Urban Type":"Rural"},{"ID":446,"Postcode":"2455","State":"NSW","Urban Type":"Rural"},{"ID":447,"Postcode":"2456","State":"NSW","Urban Type":"Rural"},{"ID":448,"Postcode":"2462","State":"NSW","Urban Type":"Rural"},{"ID":449,"Postcode":"2463","State":"NSW","Urban Type":"Rural"},{"ID":450,"Postcode":"2465","State":"NSW","Urban Type":"Rural"},{"ID":451,"Postcode":"2466","State":"NSW","Urban Type":"Rural"},{"ID":452,"Postcode":"2469","State":"NSW","Urban Type":"Rural"},{"ID":453,"Postcode":"2471","State":"NSW","Urban Type":"Rural"},{"ID":454,"Postcode":"2472","State":"NSW","Urban Type":"Rural"},{"ID":455,"Postcode":"2473","State":"NSW","Urban Type":"Rural"},{"ID":456,"Postcode":"2474","State":"NSW","Urban Type":"Rural"},{"ID":457,"Postcode":"2475","State":"NSW","Urban Type":"Rural"},{"ID":458,"Postcode":"2476","State":"NSW","Urban Type":"Rural"},{"ID":459,"Postcode":"2477","State":"NSW","Urban Type":"Rural"},{"ID":460,"Postcode":"2479","State":"NSW","Urban Type":"Rural"},{"ID":461,"Postcode":"2483","State":"NSW","Urban Type":"Rural"},{"ID":462,"Postcode":"2484","State":"NSW","Urban Type":"Rural"},{"ID":463,"Postcode":"2489","State":"NSW","Urban Type":"Rural"},{"ID":464,"Postcode":"2490","State":"NSW","Urban Type":"Rural"},{"ID":465,"Postcode":"2535","State":"NSW","Urban Type":"Rural"},{"ID":466,"Postcode":"2537","State":"NSW","Urban Type":"Rural"},{"ID":467,"Postcode":"2538","State":"NSW","Urban Type":"Rural"},{"ID":468,"Postcode":"2545","State":"NSW","Urban Type":"Rural"},{"ID":469,"Postcode":"2546","State":"NSW","Urban Type":"Rural"},{"ID":470,"Postcode":"2549","State":"NSW","Urban Type":"Rural"},{"ID":471,"Postcode":"2550","State":"NSW","Urban Type":"Rural"},{"ID":472,"Postcode":"2563","State":"NSW","Urban Type":"Rural"},{"ID":473,"Postcode":"2568","State":"NSW","Urban Type":"Rural"},{"ID":474,"Postcode":"2569","State":"NSW","Urban Type":"Rural"},{"ID":475,"Postcode":"2570","State":"NSW","Urban Type":"Rural"},{"ID":476,"Postcode":"2571","State":"NSW","Urban Type":"Rural"},{"ID":477,"Postcode":"2572","State":"NSW","Urban Type":"Rural"},{"ID":478,"Postcode":"2575","State":"NSW","Urban Type":"Rural"},{"ID":479,"Postcode":"2577","State":"NSW","Urban Type":"Rural"},{"ID":480,"Postcode":"2578","State":"NSW","Urban Type":"Rural"},{"ID":481,"Postcode":"2579","State":"NSW","Urban Type":"Rural"},{"ID":482,"Postcode":"2581","State":"NSW","Urban Type":"Rural"},{"ID":483,"Postcode":"2583","State":"NSW","Urban Type":"Rural"},{"ID":484,"Postcode":"2584","State":"NSW","Urban Type":"Rural"},{"ID":485,"Postcode":"2585","State":"NSW","Urban Type":"Rural"},{"ID":486,"Postcode":"2586","State":"NSW","Urban Type":"Rural"},{"ID":487,"Postcode":"2587","State":"NSW","Urban Type":"Rural"},{"ID":488,"Postcode":"2588","State":"NSW","Urban Type":"Rural"},{"ID":489,"Postcode":"2621","State":"NSW","Urban Type":"Rural"},{"ID":490,"Postcode":"2622","State":"NSW","Urban Type":"Rural"},{"ID":491,"Postcode":"2625","State":"NSW","Urban Type":"Rural"},{"ID":492,"Postcode":"2626","State":"NSW","Urban Type":"Rural"},{"ID":493,"Postcode":"2628","State":"NSW","Urban Type":"Rural"},{"ID":494,"Postcode":"2629","State":"NSW","Urban Type":"Rural"},{"ID":495,"Postcode":"2631","State":"NSW","Urban Type":"Rural"},{"ID":496,"Postcode":"2632","State":"NSW","Urban Type":"Rural"},{"ID":497,"Postcode":"2633","State":"NSW","Urban Type":"Rural"},{"ID":498,"Postcode":"2642","State":"NSW","Urban Type":"Rural"},{"ID":499,"Postcode":"2643","State":"NSW","Urban Type":"Rural"},{"ID":500,"Postcode":"2644","State":"NSW","Urban Type":"Rural"},{"ID":501,"Postcode":"2645","State":"NSW","Urban Type":"Rural"},{"ID":502,"Postcode":"2647","State":"NSW","Urban Type":"Rural"},{"ID":503,"Postcode":"2648","State":"NSW","Urban Type":"Rural"},{"ID":504,"Postcode":"2649","State":"NSW","Urban Type":"Rural"},{"ID":505,"Postcode":"2651","State":"NSW","Urban Type":"Rural"},{"ID":506,"Postcode":"2652","State":"NSW","Urban Type":"Rural"},{"ID":507,"Postcode":"2653","State":"NSW","Urban Type":"Rural"},{"ID":508,"Postcode":"2655","State":"NSW","Urban Type":"Rural"},{"ID":509,"Postcode":"2656","State":"NSW","Urban Type":"Rural"},{"ID":510,"Postcode":"2658","State":"NSW","Urban Type":"Rural"},{"ID":511,"Postcode":"2659","State":"NSW","Urban Type":"Rural"},{"ID":512,"Postcode":"2660","State":"NSW","Urban Type":"Rural"},{"ID":513,"Postcode":"2665","State":"NSW","Urban Type":"Rural"},{"ID":514,"Postcode":"2668","State":"NSW","Urban Type":"Rural"},{"ID":515,"Postcode":"2669","State":"NSW","Urban Type":"Rural"},{"ID":516,"Postcode":"2672","State":"NSW","Urban Type":"Rural"},{"ID":517,"Postcode":"2675","State":"NSW","Urban Type":"Rural"},{"ID":518,"Postcode":"2681","State":"NSW","Urban Type":"Rural"},{"ID":519,"Postcode":"2701","State":"NSW","Urban Type":"Rural"},{"ID":520,"Postcode":"2702","State":"NSW","Urban Type":"Rural"},{"ID":521,"Postcode":"2703","State":"NSW","Urban Type":"Rural"},{"ID":522,"Postcode":"2706","State":"NSW","Urban Type":"Rural"},{"ID":523,"Postcode":"2707","State":"NSW","Urban Type":"Rural"},{"ID":524,"Postcode":"2711","State":"NSW","Urban Type":"Rural"},{"ID":525,"Postcode":"2712","State":"NSW","Urban Type":"Rural"},{"ID":526,"Postcode":"2713","State":"NSW","Urban Type":"Rural"},{"ID":527,"Postcode":"2714","State":"NSW","Urban Type":"Rural"},{"ID":528,"Postcode":"2715","State":"NSW","Urban Type":"Rural"},{"ID":529,"Postcode":"2716","State":"NSW","Urban Type":"Rural"},{"ID":530,"Postcode":"2717","State":"NSW","Urban Type":"Rural"},{"ID":531,"Postcode":"2721","State":"NSW","Urban Type":"Rural"},{"ID":532,"Postcode":"2722","State":"NSW","Urban Type":"Rural"},{"ID":533,"Postcode":"2725","State":"NSW","Urban Type":"Rural"},{"ID":534,"Postcode":"2726","State":"NSW","Urban Type":"Rural"},{"ID":535,"Postcode":"2727","State":"NSW","Urban Type":"Rural"},{"ID":536,"Postcode":"2729","State":"NSW","Urban Type":"Rural"},{"ID":537,"Postcode":"2730","State":"NSW","Urban Type":"Rural"},{"ID":538,"Postcode":"2731","State":"NSW","Urban Type":"Rural"},{"ID":539,"Postcode":"2732","State":"NSW","Urban Type":"Rural"},{"ID":540,"Postcode":"2733","State":"NSW","Urban Type":"Rural"},{"ID":541,"Postcode":"2734","State":"NSW","Urban Type":"Rural"},{"ID":542,"Postcode":"2735","State":"NSW","Urban Type":"Rural"},{"ID":543,"Postcode":"2736","State":"NSW","Urban Type":"Rural"},{"ID":544,"Postcode":"2737","State":"NSW","Urban Type":"Rural"},{"ID":545,"Postcode":"2738","State":"NSW","Urban Type":"Rural"},{"ID":546,"Postcode":"2739","State":"NSW","Urban Type":"Rural"},{"ID":547,"Postcode":"2748","State":"NSW","Urban Type":"Rural"},{"ID":548,"Postcode":"2753","State":"NSW","Urban Type":"Rural"},{"ID":549,"Postcode":"2765","State":"NSW","Urban Type":"Rural"},{"ID":550,"Postcode":"2775","State":"NSW","Urban Type":"Rural"},{"ID":551,"Postcode":"2786","State":"NSW","Urban Type":"Rural"},{"ID":552,"Postcode":"2787","State":"NSW","Urban Type":"Rural"},{"ID":553,"Postcode":"2791","State":"NSW","Urban Type":"Rural"},{"ID":554,"Postcode":"2792","State":"NSW","Urban Type":"Rural"},{"ID":555,"Postcode":"2793","State":"NSW","Urban Type":"Rural"},{"ID":556,"Postcode":"2797","State":"NSW","Urban Type":"Rural"},{"ID":557,"Postcode":"2798","State":"NSW","Urban Type":"Rural"},{"ID":558,"Postcode":"2799","State":"NSW","Urban Type":"Rural"},{"ID":559,"Postcode":"2803","State":"NSW","Urban Type":"Rural"},{"ID":560,"Postcode":"2804","State":"NSW","Urban Type":"Rural"},{"ID":561,"Postcode":"2805","State":"NSW","Urban Type":"Rural"},{"ID":562,"Postcode":"2806","State":"NSW","Urban Type":"Rural"},{"ID":563,"Postcode":"2807","State":"NSW","Urban Type":"Rural"},{"ID":564,"Postcode":"2808","State":"NSW","Urban Type":"Rural"},{"ID":565,"Postcode":"2809","State":"NSW","Urban Type":"Rural"},{"ID":566,"Postcode":"2810","State":"NSW","Urban Type":"Rural"},{"ID":567,"Postcode":"2823","State":"NSW","Urban Type":"Rural"},{"ID":568,"Postcode":"2824","State":"NSW","Urban Type":"Rural"},{"ID":569,"Postcode":"2825","State":"NSW","Urban Type":"Rural"},{"ID":570,"Postcode":"2827","State":"NSW","Urban Type":"Rural"},{"ID":571,"Postcode":"2828","State":"NSW","Urban Type":"Rural"},{"ID":572,"Postcode":"2829","State":"NSW","Urban Type":"Rural"},{"ID":573,"Postcode":"2831","State":"NSW","Urban Type":"Rural"},{"ID":574,"Postcode":"2832","State":"NSW","Urban Type":"Rural"},{"ID":575,"Postcode":"2833","State":"NSW","Urban Type":"Rural"},{"ID":576,"Postcode":"2834","State":"NSW","Urban Type":"Rural"},{"ID":577,"Postcode":"2836","State":"NSW","Urban Type":"Rural"},{"ID":578,"Postcode":"2839","State":"NSW","Urban Type":"Rural"},{"ID":579,"Postcode":"2840","State":"NSW","Urban Type":"Rural"},{"ID":580,"Postcode":"2842","State":"NSW","Urban Type":"Rural"},{"ID":581,"Postcode":"2843","State":"NSW","Urban Type":"Rural"},{"ID":582,"Postcode":"2844","State":"NSW","Urban Type":"Rural"},{"ID":583,"Postcode":"2845","State":"NSW","Urban Type":"Rural"},{"ID":584,"Postcode":"2846","State":"NSW","Urban Type":"Rural"},{"ID":585,"Postcode":"2847","State":"NSW","Urban Type":"Rural"},{"ID":586,"Postcode":"2848","State":"NSW","Urban Type":"Rural"},{"ID":587,"Postcode":"2849","State":"NSW","Urban Type":"Rural"},{"ID":588,"Postcode":"2852","State":"NSW","Urban Type":"Rural"},{"ID":589,"Postcode":"2864","State":"NSW","Urban Type":"Rural"},{"ID":590,"Postcode":"2865","State":"NSW","Urban Type":"Rural"},{"ID":591,"Postcode":"2866","State":"NSW","Urban Type":"Rural"},{"ID":592,"Postcode":"2867","State":"NSW","Urban Type":"Rural"},{"ID":593,"Postcode":"2868","State":"NSW","Urban Type":"Rural"},{"ID":594,"Postcode":"2869","State":"NSW","Urban Type":"Rural"},{"ID":595,"Postcode":"2873","State":"NSW","Urban Type":"Rural"},{"ID":596,"Postcode":"2874","State":"NSW","Urban Type":"Rural"},{"ID":597,"Postcode":"2875","State":"NSW","Urban Type":"Rural"},{"ID":598,"Postcode":"2876","State":"NSW","Urban Type":"Rural"},{"ID":599,"Postcode":"2878","State":"NSW","Urban Type":"Rural"},{"ID":600,"Postcode":"2879","State":"NSW","Urban Type":"Rural"},{"ID":601,"Postcode":"2898","State":"NSW","Urban Type":"Rural"},{"ID":602,"Postcode":"2899","State":"NSW","Urban Type":"Rural"},{"ID":603,"Postcode":"3000","State":"VIC","Urban Type":"Major Urban"},{"ID":604,"Postcode":"3002","State":"VIC","Urban Type":"Major Urban"},{"ID":605,"Postcode":"3003","State":"VIC","Urban Type":"Major Urban"},{"ID":606,"Postcode":"3004","State":"VIC","Urban Type":"Major Urban"},{"ID":607,"Postcode":"3005","State":"VIC","Urban Type":"Major Urban"},{"ID":608,"Postcode":"3006","State":"VIC","Urban Type":"Major Urban"},{"ID":609,"Postcode":"3008","State":"VIC","Urban Type":"Major Urban"},{"ID":610,"Postcode":"3010","State":"VIC","Urban Type":"Major Urban"},{"ID":611,"Postcode":"3011","State":"VIC","Urban Type":"Major Urban"},{"ID":612,"Postcode":"3012","State":"VIC","Urban Type":"Major Urban"},{"ID":613,"Postcode":"3013","State":"VIC","Urban Type":"Major Urban"},{"ID":614,"Postcode":"3015","State":"VIC","Urban Type":"Major Urban"},{"ID":615,"Postcode":"3016","State":"VIC","Urban Type":"Major Urban"},{"ID":616,"Postcode":"3018","State":"VIC","Urban Type":"Major Urban"},{"ID":617,"Postcode":"3019","State":"VIC","Urban Type":"Major Urban"},{"ID":618,"Postcode":"3020","State":"VIC","Urban Type":"Major Urban"},{"ID":619,"Postcode":"3021","State":"VIC","Urban Type":"Major Urban"},{"ID":620,"Postcode":"3022","State":"VIC","Urban Type":"Major Urban"},{"ID":621,"Postcode":"3023","State":"VIC","Urban Type":"Major Urban"},{"ID":622,"Postcode":"3024","State":"VIC","Urban Type":"Major Urban"},{"ID":623,"Postcode":"3025","State":"VIC","Urban Type":"Major Urban"},{"ID":624,"Postcode":"3026","State":"VIC","Urban Type":"Major Urban"},{"ID":625,"Postcode":"3028","State":"VIC","Urban Type":"Major Urban"},{"ID":626,"Postcode":"3029","State":"VIC","Urban Type":"Major Urban"},{"ID":627,"Postcode":"3030","State":"VIC","Urban Type":"Major Urban"},{"ID":628,"Postcode":"3031","State":"VIC","Urban Type":"Major Urban"},{"ID":629,"Postcode":"3032","State":"VIC","Urban Type":"Major Urban"},{"ID":630,"Postcode":"3033","State":"VIC","Urban Type":"Major Urban"},{"ID":631,"Postcode":"3034","State":"VIC","Urban Type":"Major Urban"},{"ID":632,"Postcode":"3036","State":"VIC","Urban Type":"Major Urban"},{"ID":633,"Postcode":"3037","State":"VIC","Urban Type":"Major Urban"},{"ID":634,"Postcode":"3038","State":"VIC","Urban Type":"Major Urban"},{"ID":635,"Postcode":"3039","State":"VIC","Urban Type":"Major Urban"},{"ID":636,"Postcode":"3040","State":"VIC","Urban Type":"Major Urban"},{"ID":637,"Postcode":"3041","State":"VIC","Urban Type":"Major Urban"},{"ID":638,"Postcode":"3042","State":"VIC","Urban Type":"Major Urban"},{"ID":639,"Postcode":"3043","State":"VIC","Urban Type":"Major Urban"},{"ID":640,"Postcode":"3044","State":"VIC","Urban Type":"Major Urban"},{"ID":641,"Postcode":"3045","State":"VIC","Urban Type":"Major Urban"},{"ID":642,"Postcode":"3046","State":"VIC","Urban Type":"Major Urban"},{"ID":643,"Postcode":"3047","State":"VIC","Urban Type":"Major Urban"},{"ID":644,"Postcode":"3048","State":"VIC","Urban Type":"Major Urban"},{"ID":645,"Postcode":"3049","State":"VIC","Urban Type":"Major Urban"},{"ID":646,"Postcode":"3050","State":"VIC","Urban Type":"Major Urban"},{"ID":647,"Postcode":"3051","State":"VIC","Urban Type":"Major Urban"},{"ID":648,"Postcode":"3052","State":"VIC","Urban Type":"Major Urban"},{"ID":649,"Postcode":"3053","State":"VIC","Urban Type":"Major Urban"},{"ID":650,"Postcode":"3054","State":"VIC","Urban Type":"Major Urban"},{"ID":651,"Postcode":"3055","State":"VIC","Urban Type":"Major Urban"},{"ID":652,"Postcode":"3056","State":"VIC","Urban Type":"Major Urban"},{"ID":653,"Postcode":"3057","State":"VIC","Urban Type":"Major Urban"},{"ID":654,"Postcode":"3058","State":"VIC","Urban Type":"Major Urban"},{"ID":655,"Postcode":"3059","State":"VIC","Urban Type":"Major Urban"},{"ID":656,"Postcode":"3060","State":"VIC","Urban Type":"Major Urban"},{"ID":657,"Postcode":"3061","State":"VIC","Urban Type":"Major Urban"},{"ID":658,"Postcode":"3062","State":"VIC","Urban Type":"Major Urban"},{"ID":659,"Postcode":"3064","State":"VIC","Urban Type":"Major Urban"},{"ID":660,"Postcode":"3065","State":"VIC","Urban Type":"Major Urban"},{"ID":661,"Postcode":"3066","State":"VIC","Urban Type":"Major Urban"},{"ID":662,"Postcode":"3067","State":"VIC","Urban Type":"Major Urban"},{"ID":663,"Postcode":"3068","State":"VIC","Urban Type":"Major Urban"},{"ID":664,"Postcode":"3070","State":"VIC","Urban Type":"Major Urban"},{"ID":665,"Postcode":"3071","State":"VIC","Urban Type":"Major Urban"},{"ID":666,"Postcode":"3072","State":"VIC","Urban Type":"Major Urban"},{"ID":667,"Postcode":"3073","State":"VIC","Urban Type":"Major Urban"},{"ID":668,"Postcode":"3074","State":"VIC","Urban Type":"Major Urban"},{"ID":669,"Postcode":"3075","State":"VIC","Urban Type":"Major Urban"},{"ID":670,"Postcode":"3076","State":"VIC","Urban Type":"Major Urban"},{"ID":671,"Postcode":"3078","State":"VIC","Urban Type":"Major Urban"},{"ID":672,"Postcode":"3079","State":"VIC","Urban Type":"Major Urban"},{"ID":673,"Postcode":"3081","State":"VIC","Urban Type":"Major Urban"},{"ID":674,"Postcode":"3082","State":"VIC","Urban Type":"Major Urban"},{"ID":675,"Postcode":"3083","State":"VIC","Urban Type":"Major Urban"},{"ID":676,"Postcode":"3084","State":"VIC","Urban Type":"Major Urban"},{"ID":677,"Postcode":"3085","State":"VIC","Urban Type":"Major Urban"},{"ID":678,"Postcode":"3086","State":"VIC","Urban Type":"Major Urban"},{"ID":679,"Postcode":"3087","State":"VIC","Urban Type":"Major Urban"},{"ID":680,"Postcode":"3088","State":"VIC","Urban Type":"Major Urban"},{"ID":681,"Postcode":"3089","State":"VIC","Urban Type":"Major Urban"},{"ID":682,"Postcode":"3093","State":"VIC","Urban Type":"Major Urban"},{"ID":683,"Postcode":"3094","State":"VIC","Urban Type":"Major Urban"},{"ID":684,"Postcode":"3095","State":"VIC","Urban Type":"Major Urban"},{"ID":685,"Postcode":"3096","State":"VIC","Urban Type":"Major Urban"},{"ID":686,"Postcode":"3101","State":"VIC","Urban Type":"Major Urban"},{"ID":687,"Postcode":"3102","State":"VIC","Urban Type":"Major Urban"},{"ID":688,"Postcode":"3103","State":"VIC","Urban Type":"Major Urban"},{"ID":689,"Postcode":"3104","State":"VIC","Urban Type":"Major Urban"},{"ID":690,"Postcode":"3105","State":"VIC","Urban Type":"Major Urban"},{"ID":691,"Postcode":"3106","State":"VIC","Urban Type":"Major Urban"},{"ID":692,"Postcode":"3107","State":"VIC","Urban Type":"Major Urban"},{"ID":693,"Postcode":"3108","State":"VIC","Urban Type":"Major Urban"},{"ID":694,"Postcode":"3109","State":"VIC","Urban Type":"Major Urban"},{"ID":695,"Postcode":"3111","State":"VIC","Urban Type":"Major Urban"},{"ID":696,"Postcode":"3113","State":"VIC","Urban Type":"Major Urban"},{"ID":697,"Postcode":"3114","State":"VIC","Urban Type":"Major Urban"},{"ID":698,"Postcode":"3115","State":"VIC","Urban Type":"Major Urban"},{"ID":699,"Postcode":"3116","State":"VIC","Urban Type":"Major Urban"},{"ID":700,"Postcode":"3121","State":"VIC","Urban Type":"Major Urban"},{"ID":701,"Postcode":"3122","State":"VIC","Urban Type":"Major Urban"},{"ID":702,"Postcode":"3123","State":"VIC","Urban Type":"Major Urban"},{"ID":703,"Postcode":"3124","State":"VIC","Urban Type":"Major Urban"},{"ID":704,"Postcode":"3125","State":"VIC","Urban Type":"Major Urban"},{"ID":705,"Postcode":"3126","State":"VIC","Urban Type":"Major Urban"},{"ID":706,"Postcode":"3127","State":"VIC","Urban Type":"Major Urban"},{"ID":707,"Postcode":"3128","State":"VIC","Urban Type":"Major Urban"},{"ID":708,"Postcode":"3129","State":"VIC","Urban Type":"Major Urban"},{"ID":709,"Postcode":"3130","State":"VIC","Urban Type":"Major Urban"},{"ID":710,"Postcode":"3131","State":"VIC","Urban Type":"Major Urban"},{"ID":711,"Postcode":"3132","State":"VIC","Urban Type":"Major Urban"},{"ID":712,"Postcode":"3133","State":"VIC","Urban Type":"Major Urban"},{"ID":713,"Postcode":"3134","State":"VIC","Urban Type":"Major Urban"},{"ID":714,"Postcode":"3135","State":"VIC","Urban Type":"Major Urban"},{"ID":715,"Postcode":"3136","State":"VIC","Urban Type":"Major Urban"},{"ID":716,"Postcode":"3137","State":"VIC","Urban Type":"Major Urban"},{"ID":717,"Postcode":"3138","State":"VIC","Urban Type":"Major Urban"},{"ID":718,"Postcode":"3140","State":"VIC","Urban Type":"Major Urban"},{"ID":719,"Postcode":"3141","State":"VIC","Urban Type":"Major Urban"},{"ID":720,"Postcode":"3142","State":"VIC","Urban Type":"Major Urban"},{"ID":721,"Postcode":"3143","State":"VIC","Urban Type":"Major Urban"},{"ID":722,"Postcode":"3144","State":"VIC","Urban Type":"Major Urban"},{"ID":723,"Postcode":"3145","State":"VIC","Urban Type":"Major Urban"},{"ID":724,"Postcode":"3146","State":"VIC","Urban Type":"Major Urban"},{"ID":725,"Postcode":"3147","State":"VIC","Urban Type":"Major Urban"},{"ID":726,"Postcode":"3148","State":"VIC","Urban Type":"Major Urban"},{"ID":727,"Postcode":"3149","State":"VIC","Urban Type":"Major Urban"},{"ID":728,"Postcode":"3150","State":"VIC","Urban Type":"Major Urban"},{"ID":729,"Postcode":"3151","State":"VIC","Urban Type":"Major Urban"},{"ID":730,"Postcode":"3152","State":"VIC","Urban Type":"Major Urban"},{"ID":731,"Postcode":"3153","State":"VIC","Urban Type":"Major Urban"},{"ID":732,"Postcode":"3154","State":"VIC","Urban Type":"Major Urban"},{"ID":733,"Postcode":"3155","State":"VIC","Urban Type":"Major Urban"},{"ID":734,"Postcode":"3156","State":"VIC","Urban Type":"Major Urban"},{"ID":735,"Postcode":"3158","State":"VIC","Urban Type":"Major Urban"},{"ID":736,"Postcode":"3159","State":"VIC","Urban Type":"Major Urban"},{"ID":737,"Postcode":"3160","State":"VIC","Urban Type":"Major Urban"},{"ID":738,"Postcode":"3161","State":"VIC","Urban Type":"Major Urban"},{"ID":739,"Postcode":"3162","State":"VIC","Urban Type":"Major Urban"},{"ID":740,"Postcode":"3163","State":"VIC","Urban Type":"Major Urban"},{"ID":741,"Postcode":"3165","State":"VIC","Urban Type":"Major Urban"},{"ID":742,"Postcode":"3166","State":"VIC","Urban Type":"Major Urban"},{"ID":743,"Postcode":"3167","State":"VIC","Urban Type":"Major Urban"},{"ID":744,"Postcode":"3168","State":"VIC","Urban Type":"Major Urban"},{"ID":745,"Postcode":"3169","State":"VIC","Urban Type":"Major Urban"},{"ID":746,"Postcode":"3170","State":"VIC","Urban Type":"Major Urban"},{"ID":747,"Postcode":"3171","State":"VIC","Urban Type":"Major Urban"},{"ID":748,"Postcode":"3172","State":"VIC","Urban Type":"Major Urban"},{"ID":749,"Postcode":"3173","State":"VIC","Urban Type":"Major Urban"},{"ID":750,"Postcode":"3174","State":"VIC","Urban Type":"Major Urban"},{"ID":751,"Postcode":"3175","State":"VIC","Urban Type":"Major Urban"},{"ID":752,"Postcode":"3177","State":"VIC","Urban Type":"Major Urban"},{"ID":753,"Postcode":"3178","State":"VIC","Urban Type":"Major Urban"},{"ID":754,"Postcode":"3179","State":"VIC","Urban Type":"Major Urban"},{"ID":755,"Postcode":"3180","State":"VIC","Urban Type":"Major Urban"},{"ID":756,"Postcode":"3181","State":"VIC","Urban Type":"Major Urban"},{"ID":757,"Postcode":"3182","State":"VIC","Urban Type":"Major Urban"},{"ID":758,"Postcode":"3183","State":"VIC","Urban Type":"Major Urban"},{"ID":759,"Postcode":"3184","State":"VIC","Urban Type":"Major Urban"},{"ID":760,"Postcode":"3185","State":"VIC","Urban Type":"Major Urban"},{"ID":761,"Postcode":"3186","State":"VIC","Urban Type":"Major Urban"},{"ID":762,"Postcode":"3187","State":"VIC","Urban Type":"Major Urban"},{"ID":763,"Postcode":"3188","State":"VIC","Urban Type":"Major Urban"},{"ID":764,"Postcode":"3189","State":"VIC","Urban Type":"Major Urban"},{"ID":765,"Postcode":"3190","State":"VIC","Urban Type":"Major Urban"},{"ID":766,"Postcode":"3191","State":"VIC","Urban Type":"Major Urban"},{"ID":767,"Postcode":"3192","State":"VIC","Urban Type":"Major Urban"},{"ID":768,"Postcode":"3193","State":"VIC","Urban Type":"Major Urban"},{"ID":769,"Postcode":"3194","State":"VIC","Urban Type":"Major Urban"},{"ID":770,"Postcode":"3195","State":"VIC","Urban Type":"Major Urban"},{"ID":771,"Postcode":"3196","State":"VIC","Urban Type":"Major Urban"},{"ID":772,"Postcode":"3197","State":"VIC","Urban Type":"Major Urban"},{"ID":773,"Postcode":"3198","State":"VIC","Urban Type":"Major Urban"},{"ID":774,"Postcode":"3199","State":"VIC","Urban Type":"Major Urban"},{"ID":775,"Postcode":"3200","State":"VIC","Urban Type":"Major Urban"},{"ID":776,"Postcode":"3201","State":"VIC","Urban Type":"Major Urban"},{"ID":777,"Postcode":"3202","State":"VIC","Urban Type":"Major Urban"},{"ID":778,"Postcode":"3204","State":"VIC","Urban Type":"Major Urban"},{"ID":779,"Postcode":"3205","State":"VIC","Urban Type":"Major Urban"},{"ID":780,"Postcode":"3206","State":"VIC","Urban Type":"Major Urban"},{"ID":781,"Postcode":"3207","State":"VIC","Urban Type":"Major Urban"},{"ID":782,"Postcode":"3335","State":"VIC","Urban Type":"Major Urban"},{"ID":783,"Postcode":"3752","State":"VIC","Urban Type":"Major Urban"},{"ID":784,"Postcode":"3765","State":"VIC","Urban Type":"Major Urban"},{"ID":785,"Postcode":"3766","State":"VIC","Urban Type":"Major Urban"},{"ID":786,"Postcode":"3767","State":"VIC","Urban Type":"Major Urban"},{"ID":787,"Postcode":"3785","State":"VIC","Urban Type":"Major Urban"},{"ID":788,"Postcode":"3786","State":"VIC","Urban Type":"Major Urban"},{"ID":789,"Postcode":"3787","State":"VIC","Urban Type":"Major Urban"},{"ID":790,"Postcode":"3788","State":"VIC","Urban Type":"Major Urban"},{"ID":791,"Postcode":"3789","State":"VIC","Urban Type":"Major Urban"},{"ID":792,"Postcode":"3791","State":"VIC","Urban Type":"Major Urban"},{"ID":793,"Postcode":"3792","State":"VIC","Urban Type":"Major Urban"},{"ID":794,"Postcode":"3793","State":"VIC","Urban Type":"Major Urban"},{"ID":795,"Postcode":"3796","State":"VIC","Urban Type":"Major Urban"},{"ID":796,"Postcode":"3802","State":"VIC","Urban Type":"Major Urban"},{"ID":797,"Postcode":"3803","State":"VIC","Urban Type":"Major Urban"},{"ID":798,"Postcode":"3804","State":"VIC","Urban Type":"Major Urban"},{"ID":799,"Postcode":"3805","State":"VIC","Urban Type":"Major Urban"},{"ID":800,"Postcode":"3806","State":"VIC","Urban Type":"Major Urban"},{"ID":801,"Postcode":"3807","State":"VIC","Urban Type":"Major Urban"},{"ID":802,"Postcode":"3910","State":"VIC","Urban Type":"Major Urban"},{"ID":803,"Postcode":"3911","State":"VIC","Urban Type":"Major Urban"},{"ID":804,"Postcode":"3912","State":"VIC","Urban Type":"Major Urban"},{"ID":805,"Postcode":"3915","State":"VIC","Urban Type":"Major Urban"},{"ID":806,"Postcode":"3918","State":"VIC","Urban Type":"Major Urban"},{"ID":807,"Postcode":"3919","State":"VIC","Urban Type":"Major Urban"},{"ID":808,"Postcode":"3920","State":"VIC","Urban Type":"Major Urban"},{"ID":809,"Postcode":"3926","State":"VIC","Urban Type":"Major Urban"},{"ID":810,"Postcode":"3927","State":"VIC","Urban Type":"Major Urban"},{"ID":811,"Postcode":"3930","State":"VIC","Urban Type":"Major Urban"},{"ID":812,"Postcode":"3931","State":"VIC","Urban Type":"Major Urban"},{"ID":813,"Postcode":"3934","State":"VIC","Urban Type":"Major Urban"},{"ID":814,"Postcode":"3936","State":"VIC","Urban Type":"Major Urban"},{"ID":815,"Postcode":"3938","State":"VIC","Urban Type":"Major Urban"},{"ID":816,"Postcode":"3939","State":"VIC","Urban Type":"Major Urban"},{"ID":817,"Postcode":"3940","State":"VIC","Urban Type":"Major Urban"},{"ID":818,"Postcode":"3941","State":"VIC","Urban Type":"Major Urban"},{"ID":819,"Postcode":"3942","State":"VIC","Urban Type":"Major Urban"},{"ID":820,"Postcode":"3943","State":"VIC","Urban Type":"Major Urban"},{"ID":821,"Postcode":"3944","State":"VIC","Urban Type":"Major Urban"},{"ID":822,"Postcode":"3975","State":"VIC","Urban Type":"Major Urban"},{"ID":823,"Postcode":"3976","State":"VIC","Urban Type":"Major Urban"},{"ID":824,"Postcode":"3977","State":"VIC","Urban Type":"Major Urban"},{"ID":825,"Postcode":"3214","State":"VIC","Urban Type":"Minor Urban"},{"ID":826,"Postcode":"3215","State":"VIC","Urban Type":"Minor Urban"},{"ID":827,"Postcode":"3216","State":"VIC","Urban Type":"Minor Urban"},{"ID":828,"Postcode":"3217","State":"VIC","Urban Type":"Minor Urban"},{"ID":829,"Postcode":"3218","State":"VIC","Urban Type":"Minor Urban"},{"ID":830,"Postcode":"3219","State":"VIC","Urban Type":"Minor Urban"},{"ID":831,"Postcode":"3220","State":"VIC","Urban Type":"Minor Urban"},{"ID":832,"Postcode":"3350","State":"VIC","Urban Type":"Minor Urban"},{"ID":833,"Postcode":"3355","State":"VIC","Urban Type":"Minor Urban"},{"ID":834,"Postcode":"3356","State":"VIC","Urban Type":"Minor Urban"},{"ID":835,"Postcode":"3357","State":"VIC","Urban Type":"Minor Urban"},{"ID":836,"Postcode":"3550","State":"VIC","Urban Type":"Minor Urban"},{"ID":837,"Postcode":"3555","State":"VIC","Urban Type":"Minor Urban"},{"ID":838,"Postcode":"3556","State":"VIC","Urban Type":"Minor Urban"},{"ID":839,"Postcode":"3226","State":"VIC","Urban Type":"Large Regional"},{"ID":840,"Postcode":"3227","State":"VIC","Urban Type":"Large Regional"},{"ID":841,"Postcode":"3250","State":"VIC","Urban Type":"Large Regional"},{"ID":842,"Postcode":"3280","State":"VIC","Urban Type":"Large Regional"},{"ID":843,"Postcode":"3337","State":"VIC","Urban Type":"Large Regional"},{"ID":844,"Postcode":"3338","State":"VIC","Urban Type":"Large Regional"},{"ID":845,"Postcode":"3340","State":"VIC","Urban Type":"Large Regional"},{"ID":846,"Postcode":"3400","State":"VIC","Urban Type":"Large Regional"},{"ID":847,"Postcode":"3429","State":"VIC","Urban Type":"Large Regional"},{"ID":848,"Postcode":"3498","State":"VIC","Urban Type":"Large Regional"},{"ID":849,"Postcode":"3500","State":"VIC","Urban Type":"Large Regional"},{"ID":850,"Postcode":"3564","State":"VIC","Urban Type":"Large Regional"},{"ID":851,"Postcode":"3565","State":"VIC","Urban Type":"Large Regional"},{"ID":852,"Postcode":"3629","State":"VIC","Urban Type":"Large Regional"},{"ID":853,"Postcode":"3630","State":"VIC","Urban Type":"Large Regional"},{"ID":854,"Postcode":"3677","State":"VIC","Urban Type":"Large Regional"},{"ID":855,"Postcode":"3690","State":"VIC","Urban Type":"Large Regional"},{"ID":856,"Postcode":"3694","State":"VIC","Urban Type":"Large Regional"},{"ID":857,"Postcode":"3810","State":"VIC","Urban Type":"Large Regional"},{"ID":858,"Postcode":"3820","State":"VIC","Urban Type":"Large Regional"},{"ID":859,"Postcode":"3825","State":"VIC","Urban Type":"Large Regional"},{"ID":860,"Postcode":"3840","State":"VIC","Urban Type":"Large Regional"},{"ID":861,"Postcode":"3844","State":"VIC","Urban Type":"Large Regional"},{"ID":862,"Postcode":"3850","State":"VIC","Urban Type":"Large Regional"},{"ID":863,"Postcode":"3875","State":"VIC","Urban Type":"Large Regional"},{"ID":864,"Postcode":"3099","State":"VIC","Urban Type":"Small Regional"},{"ID":865,"Postcode":"3212","State":"VIC","Urban Type":"Small Regional"},{"ID":866,"Postcode":"3222","State":"VIC","Urban Type":"Small Regional"},{"ID":867,"Postcode":"3224","State":"VIC","Urban Type":"Small Regional"},{"ID":868,"Postcode":"3225","State":"VIC","Urban Type":"Small Regional"},{"ID":869,"Postcode":"3228","State":"VIC","Urban Type":"Small Regional"},{"ID":870,"Postcode":"3260","State":"VIC","Urban Type":"Small Regional"},{"ID":871,"Postcode":"3300","State":"VIC","Urban Type":"Small Regional"},{"ID":872,"Postcode":"3305","State":"VIC","Urban Type":"Small Regional"},{"ID":873,"Postcode":"3377","State":"VIC","Urban Type":"Small Regional"},{"ID":874,"Postcode":"3378","State":"VIC","Urban Type":"Small Regional"},{"ID":875,"Postcode":"3380","State":"VIC","Urban Type":"Small Regional"},{"ID":876,"Postcode":"3437","State":"VIC","Urban Type":"Small Regional"},{"ID":877,"Postcode":"3442","State":"VIC","Urban Type":"Small Regional"},{"ID":878,"Postcode":"3450","State":"VIC","Urban Type":"Small Regional"},{"ID":879,"Postcode":"3460","State":"VIC","Urban Type":"Small Regional"},{"ID":880,"Postcode":"3465","State":"VIC","Urban Type":"Small Regional"},{"ID":881,"Postcode":"3579","State":"VIC","Urban Type":"Small Regional"},{"ID":882,"Postcode":"3585","State":"VIC","Urban Type":"Small Regional"},{"ID":883,"Postcode":"3620","State":"VIC","Urban Type":"Small Regional"},{"ID":884,"Postcode":"3636","State":"VIC","Urban Type":"Small Regional"},{"ID":885,"Postcode":"3637","State":"VIC","Urban Type":"Small Regional"},{"ID":886,"Postcode":"3644","State":"VIC","Urban Type":"Small Regional"},{"ID":887,"Postcode":"3660","State":"VIC","Urban Type":"Small Regional"},{"ID":888,"Postcode":"3663","State":"VIC","Urban Type":"Small Regional"},{"ID":889,"Postcode":"3672","State":"VIC","Urban Type":"Small Regional"},{"ID":890,"Postcode":"3730","State":"VIC","Urban Type":"Small Regional"},{"ID":891,"Postcode":"3756","State":"VIC","Urban Type":"Small Regional"},{"ID":892,"Postcode":"3764","State":"VIC","Urban Type":"Small Regional"},{"ID":893,"Postcode":"3777","State":"VIC","Urban Type":"Small Regional"},{"ID":894,"Postcode":"3781","State":"VIC","Urban Type":"Small Regional"},{"ID":895,"Postcode":"3782","State":"VIC","Urban Type":"Small Regional"},{"ID":896,"Postcode":"3818","State":"VIC","Urban Type":"Small Regional"},{"ID":897,"Postcode":"3842","State":"VIC","Urban Type":"Small Regional"},{"ID":898,"Postcode":"3860","State":"VIC","Urban Type":"Small Regional"},{"ID":899,"Postcode":"3909","State":"VIC","Urban Type":"Small Regional"},{"ID":900,"Postcode":"3922","State":"VIC","Urban Type":"Small Regional"},{"ID":901,"Postcode":"3950","State":"VIC","Urban Type":"Small Regional"},{"ID":902,"Postcode":"3953","State":"VIC","Urban Type":"Small Regional"},{"ID":903,"Postcode":"3995","State":"VIC","Urban Type":"Small Regional"},{"ID":904,"Postcode":"3996","State":"VIC","Urban Type":"Small Regional"},{"ID":905,"Postcode":"3027","State":"VIC","Urban Type":"Rural"},{"ID":906,"Postcode":"3063","State":"VIC","Urban Type":"Rural"},{"ID":907,"Postcode":"3090","State":"VIC","Urban Type":"Rural"},{"ID":908,"Postcode":"3091","State":"VIC","Urban Type":"Rural"},{"ID":909,"Postcode":"3097","State":"VIC","Urban Type":"Rural"},{"ID":910,"Postcode":"3139","State":"VIC","Urban Type":"Rural"},{"ID":911,"Postcode":"3211","State":"VIC","Urban Type":"Rural"},{"ID":912,"Postcode":"3221","State":"VIC","Urban Type":"Rural"},{"ID":913,"Postcode":"3223","State":"VIC","Urban Type":"Rural"},{"ID":914,"Postcode":"3230","State":"VIC","Urban Type":"Rural"},{"ID":915,"Postcode":"3231","State":"VIC","Urban Type":"Rural"},{"ID":916,"Postcode":"3232","State":"VIC","Urban Type":"Rural"},{"ID":917,"Postcode":"3233","State":"VIC","Urban Type":"Rural"},{"ID":918,"Postcode":"3235","State":"VIC","Urban Type":"Rural"},{"ID":919,"Postcode":"3236","State":"VIC","Urban Type":"Rural"},{"ID":920,"Postcode":"3237","State":"VIC","Urban Type":"Rural"},{"ID":921,"Postcode":"3238","State":"VIC","Urban Type":"Rural"},{"ID":922,"Postcode":"3239","State":"VIC","Urban Type":"Rural"},{"ID":923,"Postcode":"3240","State":"VIC","Urban Type":"Rural"},{"ID":924,"Postcode":"3241","State":"VIC","Urban Type":"Rural"},{"ID":925,"Postcode":"3242","State":"VIC","Urban Type":"Rural"},{"ID":926,"Postcode":"3243","State":"VIC","Urban Type":"Rural"},{"ID":927,"Postcode":"3249","State":"VIC","Urban Type":"Rural"},{"ID":928,"Postcode":"3251","State":"VIC","Urban Type":"Rural"},{"ID":929,"Postcode":"3254","State":"VIC","Urban Type":"Rural"},{"ID":930,"Postcode":"3264","State":"VIC","Urban Type":"Rural"},{"ID":931,"Postcode":"3265","State":"VIC","Urban Type":"Rural"},{"ID":932,"Postcode":"3266","State":"VIC","Urban Type":"Rural"},{"ID":933,"Postcode":"3267","State":"VIC","Urban Type":"Rural"},{"ID":934,"Postcode":"3268","State":"VIC","Urban Type":"Rural"},{"ID":935,"Postcode":"3269","State":"VIC","Urban Type":"Rural"},{"ID":936,"Postcode":"3270","State":"VIC","Urban Type":"Rural"},{"ID":937,"Postcode":"3271","State":"VIC","Urban Type":"Rural"},{"ID":938,"Postcode":"3272","State":"VIC","Urban Type":"Rural"},{"ID":939,"Postcode":"3273","State":"VIC","Urban Type":"Rural"},{"ID":940,"Postcode":"3274","State":"VIC","Urban Type":"Rural"},{"ID":941,"Postcode":"3275","State":"VIC","Urban Type":"Rural"},{"ID":942,"Postcode":"3276","State":"VIC","Urban Type":"Rural"},{"ID":943,"Postcode":"3277","State":"VIC","Urban Type":"Rural"},{"ID":944,"Postcode":"3278","State":"VIC","Urban Type":"Rural"},{"ID":945,"Postcode":"3279","State":"VIC","Urban Type":"Rural"},{"ID":946,"Postcode":"3281","State":"VIC","Urban Type":"Rural"},{"ID":947,"Postcode":"3282","State":"VIC","Urban Type":"Rural"},{"ID":948,"Postcode":"3283","State":"VIC","Urban Type":"Rural"},{"ID":949,"Postcode":"3284","State":"VIC","Urban Type":"Rural"},{"ID":950,"Postcode":"3285","State":"VIC","Urban Type":"Rural"},{"ID":951,"Postcode":"3286","State":"VIC","Urban Type":"Rural"},{"ID":952,"Postcode":"3287","State":"VIC","Urban Type":"Rural"},{"ID":953,"Postcode":"3289","State":"VIC","Urban Type":"Rural"},{"ID":954,"Postcode":"3292","State":"VIC","Urban Type":"Rural"},{"ID":955,"Postcode":"3293","State":"VIC","Urban Type":"Rural"},{"ID":956,"Postcode":"3294","State":"VIC","Urban Type":"Rural"},{"ID":957,"Postcode":"3301","State":"VIC","Urban Type":"Rural"},{"ID":958,"Postcode":"3302","State":"VIC","Urban Type":"Rural"},{"ID":959,"Postcode":"3303","State":"VIC","Urban Type":"Rural"},{"ID":960,"Postcode":"3304","State":"VIC","Urban Type":"Rural"},{"ID":961,"Postcode":"3309","State":"VIC","Urban Type":"Rural"},{"ID":962,"Postcode":"3310","State":"VIC","Urban Type":"Rural"},{"ID":963,"Postcode":"3311","State":"VIC","Urban Type":"Rural"},{"ID":964,"Postcode":"3312","State":"VIC","Urban Type":"Rural"},{"ID":965,"Postcode":"3314","State":"VIC","Urban Type":"Rural"},{"ID":966,"Postcode":"3315","State":"VIC","Urban Type":"Rural"},{"ID":967,"Postcode":"3317","State":"VIC","Urban Type":"Rural"},{"ID":968,"Postcode":"3318","State":"VIC","Urban Type":"Rural"},{"ID":969,"Postcode":"3319","State":"VIC","Urban Type":"Rural"},{"ID":970,"Postcode":"3321","State":"VIC","Urban Type":"Rural"},{"ID":971,"Postcode":"3322","State":"VIC","Urban Type":"Rural"},{"ID":972,"Postcode":"3323","State":"VIC","Urban Type":"Rural"},{"ID":973,"Postcode":"3324","State":"VIC","Urban Type":"Rural"},{"ID":974,"Postcode":"3325","State":"VIC","Urban Type":"Rural"},{"ID":975,"Postcode":"3328","State":"VIC","Urban Type":"Rural"},{"ID":976,"Postcode":"3329","State":"VIC","Urban Type":"Rural"},{"ID":977,"Postcode":"3330","State":"VIC","Urban Type":"Rural"},{"ID":978,"Postcode":"3331","State":"VIC","Urban Type":"Rural"},{"ID":979,"Postcode":"3332","State":"VIC","Urban Type":"Rural"},{"ID":980,"Postcode":"3333","State":"VIC","Urban Type":"Rural"},{"ID":981,"Postcode":"3334","State":"VIC","Urban Type":"Rural"},{"ID":982,"Postcode":"3341","State":"VIC","Urban Type":"Rural"},{"ID":983,"Postcode":"3342","State":"VIC","Urban Type":"Rural"},{"ID":984,"Postcode":"3345","State":"VIC","Urban Type":"Rural"},{"ID":985,"Postcode":"3351","State":"VIC","Urban Type":"Rural"},{"ID":986,"Postcode":"3352","State":"VIC","Urban Type":"Rural"},{"ID":987,"Postcode":"3360","State":"VIC","Urban Type":"Rural"},{"ID":988,"Postcode":"3361","State":"VIC","Urban Type":"Rural"},{"ID":989,"Postcode":"3363","State":"VIC","Urban Type":"Rural"},{"ID":990,"Postcode":"3364","State":"VIC","Urban Type":"Rural"},{"ID":991,"Postcode":"3370","State":"VIC","Urban Type":"Rural"},{"ID":992,"Postcode":"3371","State":"VIC","Urban Type":"Rural"},{"ID":993,"Postcode":"3373","State":"VIC","Urban Type":"Rural"},{"ID":994,"Postcode":"3375","State":"VIC","Urban Type":"Rural"},{"ID":995,"Postcode":"3379","State":"VIC","Urban Type":"Rural"},{"ID":996,"Postcode":"3381","State":"VIC","Urban Type":"Rural"},{"ID":997,"Postcode":"3384","State":"VIC","Urban Type":"Rural"},{"ID":998,"Postcode":"3385","State":"VIC","Urban Type":"Rural"},{"ID":999,"Postcode":"3387","State":"VIC","Urban Type":"Rural"},{"ID":1000,"Postcode":"3388","State":"VIC","Urban Type":"Rural"},{"ID":1001,"Postcode":"3390","State":"VIC","Urban Type":"Rural"},{"ID":1002,"Postcode":"3391","State":"VIC","Urban Type":"Rural"},{"ID":1003,"Postcode":"3392","State":"VIC","Urban Type":"Rural"},{"ID":1004,"Postcode":"3393","State":"VIC","Urban Type":"Rural"},{"ID":1005,"Postcode":"3395","State":"VIC","Urban Type":"Rural"},{"ID":1006,"Postcode":"3396","State":"VIC","Urban Type":"Rural"},{"ID":1007,"Postcode":"3401","State":"VIC","Urban Type":"Rural"},{"ID":1008,"Postcode":"3407","State":"VIC","Urban Type":"Rural"},{"ID":1009,"Postcode":"3409","State":"VIC","Urban Type":"Rural"},{"ID":1010,"Postcode":"3412","State":"VIC","Urban Type":"Rural"},{"ID":1011,"Postcode":"3413","State":"VIC","Urban Type":"Rural"},{"ID":1012,"Postcode":"3414","State":"VIC","Urban Type":"Rural"},{"ID":1013,"Postcode":"3415","State":"VIC","Urban Type":"Rural"},{"ID":1014,"Postcode":"3418","State":"VIC","Urban Type":"Rural"},{"ID":1015,"Postcode":"3419","State":"VIC","Urban Type":"Rural"},{"ID":1016,"Postcode":"3420","State":"VIC","Urban Type":"Rural"},{"ID":1017,"Postcode":"3423","State":"VIC","Urban Type":"Rural"},{"ID":1018,"Postcode":"3424","State":"VIC","Urban Type":"Rural"},{"ID":1019,"Postcode":"3427","State":"VIC","Urban Type":"Rural"},{"ID":1020,"Postcode":"3428","State":"VIC","Urban Type":"Rural"},{"ID":1021,"Postcode":"3430","State":"VIC","Urban Type":"Rural"},{"ID":1022,"Postcode":"3431","State":"VIC","Urban Type":"Rural"},{"ID":1023,"Postcode":"3432","State":"VIC","Urban Type":"Rural"},{"ID":1024,"Postcode":"3433","State":"VIC","Urban Type":"Rural"},{"ID":1025,"Postcode":"3434","State":"VIC","Urban Type":"Rural"},{"ID":1026,"Postcode":"3435","State":"VIC","Urban Type":"Rural"},{"ID":1027,"Postcode":"3438","State":"VIC","Urban Type":"Rural"},{"ID":1028,"Postcode":"3440","State":"VIC","Urban Type":"Rural"},{"ID":1029,"Postcode":"3441","State":"VIC","Urban Type":"Rural"},{"ID":1030,"Postcode":"3444","State":"VIC","Urban Type":"Rural"},{"ID":1031,"Postcode":"3446","State":"VIC","Urban Type":"Rural"},{"ID":1032,"Postcode":"3447","State":"VIC","Urban Type":"Rural"},{"ID":1033,"Postcode":"3448","State":"VIC","Urban Type":"Rural"},{"ID":1034,"Postcode":"3451","State":"VIC","Urban Type":"Rural"},{"ID":1035,"Postcode":"3453","State":"VIC","Urban Type":"Rural"},{"ID":1036,"Postcode":"3458","State":"VIC","Urban Type":"Rural"},{"ID":1037,"Postcode":"3461","State":"VIC","Urban Type":"Rural"},{"ID":1038,"Postcode":"3462","State":"VIC","Urban Type":"Rural"},{"ID":1039,"Postcode":"3463","State":"VIC","Urban Type":"Rural"},{"ID":1040,"Postcode":"3464","State":"VIC","Urban Type":"Rural"},{"ID":1041,"Postcode":"3467","State":"VIC","Urban Type":"Rural"},{"ID":1042,"Postcode":"3468","State":"VIC","Urban Type":"Rural"},{"ID":1043,"Postcode":"3469","State":"VIC","Urban Type":"Rural"},{"ID":1044,"Postcode":"3472","State":"VIC","Urban Type":"Rural"},{"ID":1045,"Postcode":"3475","State":"VIC","Urban Type":"Rural"},{"ID":1046,"Postcode":"3478","State":"VIC","Urban Type":"Rural"},{"ID":1047,"Postcode":"3480","State":"VIC","Urban Type":"Rural"},{"ID":1048,"Postcode":"3482","State":"VIC","Urban Type":"Rural"},{"ID":1049,"Postcode":"3483","State":"VIC","Urban Type":"Rural"},{"ID":1050,"Postcode":"3485","State":"VIC","Urban Type":"Rural"},{"ID":1051,"Postcode":"3487","State":"VIC","Urban Type":"Rural"},{"ID":1052,"Postcode":"3488","State":"VIC","Urban Type":"Rural"},{"ID":1053,"Postcode":"3489","State":"VIC","Urban Type":"Rural"},{"ID":1054,"Postcode":"3490","State":"VIC","Urban Type":"Rural"},{"ID":1055,"Postcode":"3491","State":"VIC","Urban Type":"Rural"},{"ID":1056,"Postcode":"3494","State":"VIC","Urban Type":"Rural"},{"ID":1057,"Postcode":"3496","State":"VIC","Urban Type":"Rural"},{"ID":1058,"Postcode":"3501","State":"VIC","Urban Type":"Rural"},{"ID":1059,"Postcode":"3505","State":"VIC","Urban Type":"Rural"},{"ID":1060,"Postcode":"3506","State":"VIC","Urban Type":"Rural"},{"ID":1061,"Postcode":"3507","State":"VIC","Urban Type":"Rural"},{"ID":1062,"Postcode":"3509","State":"VIC","Urban Type":"Rural"},{"ID":1063,"Postcode":"3512","State":"VIC","Urban Type":"Rural"},{"ID":1064,"Postcode":"3515","State":"VIC","Urban Type":"Rural"},{"ID":1065,"Postcode":"3516","State":"VIC","Urban Type":"Rural"},{"ID":1066,"Postcode":"3517","State":"VIC","Urban Type":"Rural"},{"ID":1067,"Postcode":"3518","State":"VIC","Urban Type":"Rural"},{"ID":1068,"Postcode":"3520","State":"VIC","Urban Type":"Rural"},{"ID":1069,"Postcode":"3521","State":"VIC","Urban Type":"Rural"},{"ID":1070,"Postcode":"3522","State":"VIC","Urban Type":"Rural"},{"ID":1071,"Postcode":"3523","State":"VIC","Urban Type":"Rural"},{"ID":1072,"Postcode":"3525","State":"VIC","Urban Type":"Rural"},{"ID":1073,"Postcode":"3527","State":"VIC","Urban Type":"Rural"},{"ID":1074,"Postcode":"3529","State":"VIC","Urban Type":"Rural"},{"ID":1075,"Postcode":"3530","State":"VIC","Urban Type":"Rural"},{"ID":1076,"Postcode":"3531","State":"VIC","Urban Type":"Rural"},{"ID":1077,"Postcode":"3533","State":"VIC","Urban Type":"Rural"},{"ID":1078,"Postcode":"3537","State":"VIC","Urban Type":"Rural"},{"ID":1079,"Postcode":"3540","State":"VIC","Urban Type":"Rural"},{"ID":1080,"Postcode":"3542","State":"VIC","Urban Type":"Rural"},{"ID":1081,"Postcode":"3544","State":"VIC","Urban Type":"Rural"},{"ID":1082,"Postcode":"3546","State":"VIC","Urban Type":"Rural"},{"ID":1083,"Postcode":"3549","State":"VIC","Urban Type":"Rural"},{"ID":1084,"Postcode":"3551","State":"VIC","Urban Type":"Rural"},{"ID":1085,"Postcode":"3557","State":"VIC","Urban Type":"Rural"},{"ID":1086,"Postcode":"3558","State":"VIC","Urban Type":"Rural"},{"ID":1087,"Postcode":"3559","State":"VIC","Urban Type":"Rural"},{"ID":1088,"Postcode":"3561","State":"VIC","Urban Type":"Rural"},{"ID":1089,"Postcode":"3562","State":"VIC","Urban Type":"Rural"},{"ID":1090,"Postcode":"3563","State":"VIC","Urban Type":"Rural"},{"ID":1091,"Postcode":"3566","State":"VIC","Urban Type":"Rural"},{"ID":1092,"Postcode":"3567","State":"VIC","Urban Type":"Rural"},{"ID":1093,"Postcode":"3568","State":"VIC","Urban Type":"Rural"},{"ID":1094,"Postcode":"3570","State":"VIC","Urban Type":"Rural"},{"ID":1095,"Postcode":"3571","State":"VIC","Urban Type":"Rural"},{"ID":1096,"Postcode":"3572","State":"VIC","Urban Type":"Rural"},{"ID":1097,"Postcode":"3573","State":"VIC","Urban Type":"Rural"},{"ID":1098,"Postcode":"3575","State":"VIC","Urban Type":"Rural"},{"ID":1099,"Postcode":"3576","State":"VIC","Urban Type":"Rural"},{"ID":1100,"Postcode":"3580","State":"VIC","Urban Type":"Rural"},{"ID":1101,"Postcode":"3581","State":"VIC","Urban Type":"Rural"},{"ID":1102,"Postcode":"3583","State":"VIC","Urban Type":"Rural"},{"ID":1103,"Postcode":"3584","State":"VIC","Urban Type":"Rural"},{"ID":1104,"Postcode":"3586","State":"VIC","Urban Type":"Rural"},{"ID":1105,"Postcode":"3588","State":"VIC","Urban Type":"Rural"},{"ID":1106,"Postcode":"3589","State":"VIC","Urban Type":"Rural"},{"ID":1107,"Postcode":"3590","State":"VIC","Urban Type":"Rural"},{"ID":1108,"Postcode":"3591","State":"VIC","Urban Type":"Rural"},{"ID":1109,"Postcode":"3594","State":"VIC","Urban Type":"Rural"},{"ID":1110,"Postcode":"3595","State":"VIC","Urban Type":"Rural"},{"ID":1111,"Postcode":"3596","State":"VIC","Urban Type":"Rural"},{"ID":1112,"Postcode":"3597","State":"VIC","Urban Type":"Rural"},{"ID":1113,"Postcode":"3599","State":"VIC","Urban Type":"Rural"},{"ID":1114,"Postcode":"3607","State":"VIC","Urban Type":"Rural"},{"ID":1115,"Postcode":"3608","State":"VIC","Urban Type":"Rural"},{"ID":1116,"Postcode":"3610","State":"VIC","Urban Type":"Rural"},{"ID":1117,"Postcode":"3612","State":"VIC","Urban Type":"Rural"},{"ID":1118,"Postcode":"3614","State":"VIC","Urban Type":"Rural"},{"ID":1119,"Postcode":"3616","State":"VIC","Urban Type":"Rural"},{"ID":1120,"Postcode":"3617","State":"VIC","Urban Type":"Rural"},{"ID":1121,"Postcode":"3618","State":"VIC","Urban Type":"Rural"},{"ID":1122,"Postcode":"3621","State":"VIC","Urban Type":"Rural"},{"ID":1123,"Postcode":"3622","State":"VIC","Urban Type":"Rural"},{"ID":1124,"Postcode":"3623","State":"VIC","Urban Type":"Rural"},{"ID":1125,"Postcode":"3624","State":"VIC","Urban Type":"Rural"},{"ID":1126,"Postcode":"3631","State":"VIC","Urban Type":"Rural"},{"ID":1127,"Postcode":"3633","State":"VIC","Urban Type":"Rural"},{"ID":1128,"Postcode":"3634","State":"VIC","Urban Type":"Rural"},{"ID":1129,"Postcode":"3635","State":"VIC","Urban Type":"Rural"},{"ID":1130,"Postcode":"3638","State":"VIC","Urban Type":"Rural"},{"ID":1131,"Postcode":"3639","State":"VIC","Urban Type":"Rural"},{"ID":1132,"Postcode":"3640","State":"VIC","Urban Type":"Rural"},{"ID":1133,"Postcode":"3641","State":"VIC","Urban Type":"Rural"},{"ID":1134,"Postcode":"3646","State":"VIC","Urban Type":"Rural"},{"ID":1135,"Postcode":"3649","State":"VIC","Urban Type":"Rural"},{"ID":1136,"Postcode":"3658","State":"VIC","Urban Type":"Rural"},{"ID":1137,"Postcode":"3659","State":"VIC","Urban Type":"Rural"},{"ID":1138,"Postcode":"3664","State":"VIC","Urban Type":"Rural"},{"ID":1139,"Postcode":"3665","State":"VIC","Urban Type":"Rural"},{"ID":1140,"Postcode":"3666","State":"VIC","Urban Type":"Rural"},{"ID":1141,"Postcode":"3669","State":"VIC","Urban Type":"Rural"},{"ID":1142,"Postcode":"3670","State":"VIC","Urban Type":"Rural"},{"ID":1143,"Postcode":"3673","State":"VIC","Urban Type":"Rural"},{"ID":1144,"Postcode":"3675","State":"VIC","Urban Type":"Rural"},{"ID":1145,"Postcode":"3678","State":"VIC","Urban Type":"Rural"},{"ID":1146,"Postcode":"3682","State":"VIC","Urban Type":"Rural"},{"ID":1147,"Postcode":"3683","State":"VIC","Urban Type":"Rural"},{"ID":1148,"Postcode":"3685","State":"VIC","Urban Type":"Rural"},{"ID":1149,"Postcode":"3687","State":"VIC","Urban Type":"Rural"},{"ID":1150,"Postcode":"3688","State":"VIC","Urban Type":"Rural"},{"ID":1151,"Postcode":"3691","State":"VIC","Urban Type":"Rural"},{"ID":1152,"Postcode":"3695","State":"VIC","Urban Type":"Rural"},{"ID":1153,"Postcode":"3697","State":"VIC","Urban Type":"Rural"},{"ID":1154,"Postcode":"3698","State":"VIC","Urban Type":"Rural"},{"ID":1155,"Postcode":"3699","State":"VIC","Urban Type":"Rural"},{"ID":1156,"Postcode":"3700","State":"VIC","Urban Type":"Rural"},{"ID":1157,"Postcode":"3701","State":"VIC","Urban Type":"Rural"},{"ID":1158,"Postcode":"3704","State":"VIC","Urban Type":"Rural"},{"ID":1159,"Postcode":"3705","State":"VIC","Urban Type":"Rural"},{"ID":1160,"Postcode":"3707","State":"VIC","Urban Type":"Rural"},{"ID":1161,"Postcode":"3708","State":"VIC","Urban Type":"Rural"},{"ID":1162,"Postcode":"3709","State":"VIC","Urban Type":"Rural"},{"ID":1163,"Postcode":"3711","State":"VIC","Urban Type":"Rural"},{"ID":1164,"Postcode":"3712","State":"VIC","Urban Type":"Rural"},{"ID":1165,"Postcode":"3713","State":"VIC","Urban Type":"Rural"},{"ID":1166,"Postcode":"3714","State":"VIC","Urban Type":"Rural"},{"ID":1167,"Postcode":"3715","State":"VIC","Urban Type":"Rural"},{"ID":1168,"Postcode":"3717","State":"VIC","Urban Type":"Rural"},{"ID":1169,"Postcode":"3718","State":"VIC","Urban Type":"Rural"},{"ID":1170,"Postcode":"3719","State":"VIC","Urban Type":"Rural"},{"ID":1171,"Postcode":"3720","State":"VIC","Urban Type":"Rural"},{"ID":1172,"Postcode":"3722","State":"VIC","Urban Type":"Rural"},{"ID":1173,"Postcode":"3723","State":"VIC","Urban Type":"Rural"},{"ID":1174,"Postcode":"3725","State":"VIC","Urban Type":"Rural"},{"ID":1175,"Postcode":"3726","State":"VIC","Urban Type":"Rural"},{"ID":1176,"Postcode":"3727","State":"VIC","Urban Type":"Rural"},{"ID":1177,"Postcode":"3728","State":"VIC","Urban Type":"Rural"},{"ID":1178,"Postcode":"3732","State":"VIC","Urban Type":"Rural"},{"ID":1179,"Postcode":"3733","State":"VIC","Urban Type":"Rural"},{"ID":1180,"Postcode":"3735","State":"VIC","Urban Type":"Rural"},{"ID":1181,"Postcode":"3737","State":"VIC","Urban Type":"Rural"},{"ID":1182,"Postcode":"3738","State":"VIC","Urban Type":"Rural"},{"ID":1183,"Postcode":"3739","State":"VIC","Urban Type":"Rural"},{"ID":1184,"Postcode":"3740","State":"VIC","Urban Type":"Rural"},{"ID":1185,"Postcode":"3741","State":"VIC","Urban Type":"Rural"},{"ID":1186,"Postcode":"3744","State":"VIC","Urban Type":"Rural"},{"ID":1187,"Postcode":"3746","State":"VIC","Urban Type":"Rural"},{"ID":1188,"Postcode":"3747","State":"VIC","Urban Type":"Rural"},{"ID":1189,"Postcode":"3749","State":"VIC","Urban Type":"Rural"},{"ID":1190,"Postcode":"3750","State":"VIC","Urban Type":"Rural"},{"ID":1191,"Postcode":"3751","State":"VIC","Urban Type":"Rural"},{"ID":1192,"Postcode":"3753","State":"VIC","Urban Type":"Rural"},{"ID":1193,"Postcode":"3754","State":"VIC","Urban Type":"Rural"},{"ID":1194,"Postcode":"3755","State":"VIC","Urban Type":"Rural"},{"ID":1195,"Postcode":"3757","State":"VIC","Urban Type":"Rural"},{"ID":1196,"Postcode":"3758","State":"VIC","Urban Type":"Rural"},{"ID":1197,"Postcode":"3759","State":"VIC","Urban Type":"Rural"},{"ID":1198,"Postcode":"3760","State":"VIC","Urban Type":"Rural"},{"ID":1199,"Postcode":"3761","State":"VIC","Urban Type":"Rural"},{"ID":1200,"Postcode":"3762","State":"VIC","Urban Type":"Rural"},{"ID":1201,"Postcode":"3763","State":"VIC","Urban Type":"Rural"},{"ID":1202,"Postcode":"3770","State":"VIC","Urban Type":"Rural"},{"ID":1203,"Postcode":"3775","State":"VIC","Urban Type":"Rural"},{"ID":1204,"Postcode":"3778","State":"VIC","Urban Type":"Rural"},{"ID":1205,"Postcode":"3779","State":"VIC","Urban Type":"Rural"},{"ID":1206,"Postcode":"3783","State":"VIC","Urban Type":"Rural"},{"ID":1207,"Postcode":"3795","State":"VIC","Urban Type":"Rural"},{"ID":1208,"Postcode":"3797","State":"VIC","Urban Type":"Rural"},{"ID":1209,"Postcode":"3799","State":"VIC","Urban Type":"Rural"},{"ID":1210,"Postcode":"3800","State":"VIC","Urban Type":"Rural"},{"ID":1211,"Postcode":"3808","State":"VIC","Urban Type":"Rural"},{"ID":1212,"Postcode":"3809","State":"VIC","Urban Type":"Rural"},{"ID":1213,"Postcode":"3812","State":"VIC","Urban Type":"Rural"},{"ID":1214,"Postcode":"3813","State":"VIC","Urban Type":"Rural"},{"ID":1215,"Postcode":"3814","State":"VIC","Urban Type":"Rural"},{"ID":1216,"Postcode":"3815","State":"VIC","Urban Type":"Rural"},{"ID":1217,"Postcode":"3816","State":"VIC","Urban Type":"Rural"},{"ID":1218,"Postcode":"3821","State":"VIC","Urban Type":"Rural"},{"ID":1219,"Postcode":"3822","State":"VIC","Urban Type":"Rural"},{"ID":1220,"Postcode":"3823","State":"VIC","Urban Type":"Rural"},{"ID":1221,"Postcode":"3824","State":"VIC","Urban Type":"Rural"},{"ID":1222,"Postcode":"3831","State":"VIC","Urban Type":"Rural"},{"ID":1223,"Postcode":"3833","State":"VIC","Urban Type":"Rural"},{"ID":1224,"Postcode":"3835","State":"VIC","Urban Type":"Rural"},{"ID":1225,"Postcode":"3847","State":"VIC","Urban Type":"Rural"},{"ID":1226,"Postcode":"3851","State":"VIC","Urban Type":"Rural"},{"ID":1227,"Postcode":"3852","State":"VIC","Urban Type":"Rural"},{"ID":1228,"Postcode":"3854","State":"VIC","Urban Type":"Rural"},{"ID":1229,"Postcode":"3856","State":"VIC","Urban Type":"Rural"},{"ID":1230,"Postcode":"3857","State":"VIC","Urban Type":"Rural"},{"ID":1231,"Postcode":"3858","State":"VIC","Urban Type":"Rural"},{"ID":1232,"Postcode":"3859","State":"VIC","Urban Type":"Rural"},{"ID":1233,"Postcode":"3862","State":"VIC","Urban Type":"Rural"},{"ID":1234,"Postcode":"3864","State":"VIC","Urban Type":"Rural"},{"ID":1235,"Postcode":"3865","State":"VIC","Urban Type":"Rural"},{"ID":1236,"Postcode":"3869","State":"VIC","Urban Type":"Rural"},{"ID":1237,"Postcode":"3870","State":"VIC","Urban Type":"Rural"},{"ID":1238,"Postcode":"3871","State":"VIC","Urban Type":"Rural"},{"ID":1239,"Postcode":"3873","State":"VIC","Urban Type":"Rural"},{"ID":1240,"Postcode":"3874","State":"VIC","Urban Type":"Rural"},{"ID":1241,"Postcode":"3878","State":"VIC","Urban Type":"Rural"},{"ID":1242,"Postcode":"3880","State":"VIC","Urban Type":"Rural"},{"ID":1243,"Postcode":"3882","State":"VIC","Urban Type":"Rural"},{"ID":1244,"Postcode":"3885","State":"VIC","Urban Type":"Rural"},{"ID":1245,"Postcode":"3886","State":"VIC","Urban Type":"Rural"},{"ID":1246,"Postcode":"3887","State":"VIC","Urban Type":"Rural"},{"ID":1247,"Postcode":"3888","State":"VIC","Urban Type":"Rural"},{"ID":1248,"Postcode":"3889","State":"VIC","Urban Type":"Rural"},{"ID":1249,"Postcode":"3890","State":"VIC","Urban Type":"Rural"},{"ID":1250,"Postcode":"3891","State":"VIC","Urban Type":"Rural"},{"ID":1251,"Postcode":"3892","State":"VIC","Urban Type":"Rural"},{"ID":1252,"Postcode":"3893","State":"VIC","Urban Type":"Rural"},{"ID":1253,"Postcode":"3895","State":"VIC","Urban Type":"Rural"},{"ID":1254,"Postcode":"3896","State":"VIC","Urban Type":"Rural"},{"ID":1255,"Postcode":"3898","State":"VIC","Urban Type":"Rural"},{"ID":1256,"Postcode":"3900","State":"VIC","Urban Type":"Rural"},{"ID":1257,"Postcode":"3902","State":"VIC","Urban Type":"Rural"},{"ID":1258,"Postcode":"3903","State":"VIC","Urban Type":"Rural"},{"ID":1259,"Postcode":"3904","State":"VIC","Urban Type":"Rural"},{"ID":1260,"Postcode":"3913","State":"VIC","Urban Type":"Rural"},{"ID":1261,"Postcode":"3916","State":"VIC","Urban Type":"Rural"},{"ID":1262,"Postcode":"3921","State":"VIC","Urban Type":"Rural"},{"ID":1263,"Postcode":"3923","State":"VIC","Urban Type":"Rural"},{"ID":1264,"Postcode":"3925","State":"VIC","Urban Type":"Rural"},{"ID":1265,"Postcode":"3928","State":"VIC","Urban Type":"Rural"},{"ID":1266,"Postcode":"3929","State":"VIC","Urban Type":"Rural"},{"ID":1267,"Postcode":"3933","State":"VIC","Urban Type":"Rural"},{"ID":1268,"Postcode":"3937","State":"VIC","Urban Type":"Rural"},{"ID":1269,"Postcode":"3945","State":"VIC","Urban Type":"Rural"},{"ID":1270,"Postcode":"3946","State":"VIC","Urban Type":"Rural"},{"ID":1271,"Postcode":"3951","State":"VIC","Urban Type":"Rural"},{"ID":1272,"Postcode":"3954","State":"VIC","Urban Type":"Rural"},{"ID":1273,"Postcode":"3956","State":"VIC","Urban Type":"Rural"},{"ID":1274,"Postcode":"3957","State":"VIC","Urban Type":"Rural"},{"ID":1275,"Postcode":"3958","State":"VIC","Urban Type":"Rural"},{"ID":1276,"Postcode":"3959","State":"VIC","Urban Type":"Rural"},{"ID":1277,"Postcode":"3960","State":"VIC","Urban Type":"Rural"},{"ID":1278,"Postcode":"3962","State":"VIC","Urban Type":"Rural"},{"ID":1279,"Postcode":"3964","State":"VIC","Urban Type":"Rural"},{"ID":1280,"Postcode":"3965","State":"VIC","Urban Type":"Rural"},{"ID":1281,"Postcode":"3966","State":"VIC","Urban Type":"Rural"},{"ID":1282,"Postcode":"3967","State":"VIC","Urban Type":"Rural"},{"ID":1283,"Postcode":"3971","State":"VIC","Urban Type":"Rural"},{"ID":1284,"Postcode":"3978","State":"VIC","Urban Type":"Rural"},{"ID":1285,"Postcode":"3979","State":"VIC","Urban Type":"Rural"},{"ID":1286,"Postcode":"3980","State":"VIC","Urban Type":"Rural"},{"ID":1287,"Postcode":"3981","State":"VIC","Urban Type":"Rural"},{"ID":1288,"Postcode":"3984","State":"VIC","Urban Type":"Rural"},{"ID":1289,"Postcode":"3987","State":"VIC","Urban Type":"Rural"},{"ID":1290,"Postcode":"3988","State":"VIC","Urban Type":"Rural"},{"ID":1291,"Postcode":"3990","State":"VIC","Urban Type":"Rural"},{"ID":1292,"Postcode":"3991","State":"VIC","Urban Type":"Rural"},{"ID":1293,"Postcode":"3992","State":"VIC","Urban Type":"Rural"},{"ID":1294,"Postcode":"4000","State":"QLD","Urban Type":"Major Urban"},{"ID":1295,"Postcode":"4005","State":"QLD","Urban Type":"Major Urban"},{"ID":1296,"Postcode":"4006","State":"QLD","Urban Type":"Major Urban"},{"ID":1297,"Postcode":"4007","State":"QLD","Urban Type":"Major Urban"},{"ID":1298,"Postcode":"4008","State":"QLD","Urban Type":"Major Urban"},{"ID":1299,"Postcode":"4009","State":"QLD","Urban Type":"Major Urban"},{"ID":1300,"Postcode":"4010","State":"QLD","Urban Type":"Major Urban"},{"ID":1301,"Postcode":"4011","State":"QLD","Urban Type":"Major Urban"},{"ID":1302,"Postcode":"4012","State":"QLD","Urban Type":"Major Urban"},{"ID":1303,"Postcode":"4013","State":"QLD","Urban Type":"Major Urban"},{"ID":1304,"Postcode":"4014","State":"QLD","Urban Type":"Major Urban"},{"ID":1305,"Postcode":"4017","State":"QLD","Urban Type":"Major Urban"},{"ID":1306,"Postcode":"4018","State":"QLD","Urban Type":"Major Urban"},{"ID":1307,"Postcode":"4019","State":"QLD","Urban Type":"Major Urban"},{"ID":1308,"Postcode":"4020","State":"QLD","Urban Type":"Major Urban"},{"ID":1309,"Postcode":"4021","State":"QLD","Urban Type":"Major Urban"},{"ID":1310,"Postcode":"4022","State":"QLD","Urban Type":"Major Urban"},{"ID":1311,"Postcode":"4030","State":"QLD","Urban Type":"Major Urban"},{"ID":1312,"Postcode":"4031","State":"QLD","Urban Type":"Major Urban"},{"ID":1313,"Postcode":"4032","State":"QLD","Urban Type":"Major Urban"},{"ID":1314,"Postcode":"4034","State":"QLD","Urban Type":"Major Urban"},{"ID":1315,"Postcode":"4035","State":"QLD","Urban Type":"Major Urban"},{"ID":1316,"Postcode":"4036","State":"QLD","Urban Type":"Major Urban"},{"ID":1317,"Postcode":"4037","State":"QLD","Urban Type":"Major Urban"},{"ID":1318,"Postcode":"4051","State":"QLD","Urban Type":"Major Urban"},{"ID":1319,"Postcode":"4053","State":"QLD","Urban Type":"Major Urban"},{"ID":1320,"Postcode":"4054","State":"QLD","Urban Type":"Major Urban"},{"ID":1321,"Postcode":"4055","State":"QLD","Urban Type":"Major Urban"},{"ID":1322,"Postcode":"4059","State":"QLD","Urban Type":"Major Urban"},{"ID":1323,"Postcode":"4060","State":"QLD","Urban Type":"Major Urban"},{"ID":1324,"Postcode":"4061","State":"QLD","Urban Type":"Major Urban"},{"ID":1325,"Postcode":"4064","State":"QLD","Urban Type":"Major Urban"},{"ID":1326,"Postcode":"4065","State":"QLD","Urban Type":"Major Urban"},{"ID":1327,"Postcode":"4066","State":"QLD","Urban Type":"Major Urban"},{"ID":1328,"Postcode":"4067","State":"QLD","Urban Type":"Major Urban"},{"ID":1329,"Postcode":"4068","State":"QLD","Urban Type":"Major Urban"},{"ID":1330,"Postcode":"4069","State":"QLD","Urban Type":"Major Urban"},{"ID":1331,"Postcode":"4073","State":"QLD","Urban Type":"Major Urban"},{"ID":1332,"Postcode":"4074","State":"QLD","Urban Type":"Major Urban"},{"ID":1333,"Postcode":"4075","State":"QLD","Urban Type":"Major Urban"},{"ID":1334,"Postcode":"4076","State":"QLD","Urban Type":"Major Urban"},{"ID":1335,"Postcode":"4077","State":"QLD","Urban Type":"Major Urban"},{"ID":1336,"Postcode":"4078","State":"QLD","Urban Type":"Major Urban"},{"ID":1337,"Postcode":"4101","State":"QLD","Urban Type":"Major Urban"},{"ID":1338,"Postcode":"4102","State":"QLD","Urban Type":"Major Urban"},{"ID":1339,"Postcode":"4103","State":"QLD","Urban Type":"Major Urban"},{"ID":1340,"Postcode":"4104","State":"QLD","Urban Type":"Major Urban"},{"ID":1341,"Postcode":"4105","State":"QLD","Urban Type":"Major Urban"},{"ID":1342,"Postcode":"4106","State":"QLD","Urban Type":"Major Urban"},{"ID":1343,"Postcode":"4107","State":"QLD","Urban Type":"Major Urban"},{"ID":1344,"Postcode":"4108","State":"QLD","Urban Type":"Major Urban"},{"ID":1345,"Postcode":"4109","State":"QLD","Urban Type":"Major Urban"},{"ID":1346,"Postcode":"4110","State":"QLD","Urban Type":"Major Urban"},{"ID":1347,"Postcode":"4111","State":"QLD","Urban Type":"Major Urban"},{"ID":1348,"Postcode":"4112","State":"QLD","Urban Type":"Major Urban"},{"ID":1349,"Postcode":"4113","State":"QLD","Urban Type":"Major Urban"},{"ID":1350,"Postcode":"4114","State":"QLD","Urban Type":"Major Urban"},{"ID":1351,"Postcode":"4115","State":"QLD","Urban Type":"Major Urban"},{"ID":1352,"Postcode":"4116","State":"QLD","Urban Type":"Major Urban"},{"ID":1353,"Postcode":"4117","State":"QLD","Urban Type":"Major Urban"},{"ID":1354,"Postcode":"4118","State":"QLD","Urban Type":"Major Urban"},{"ID":1355,"Postcode":"4119","State":"QLD","Urban Type":"Major Urban"},{"ID":1356,"Postcode":"4120","State":"QLD","Urban Type":"Major Urban"},{"ID":1357,"Postcode":"4121","State":"QLD","Urban Type":"Major Urban"},{"ID":1358,"Postcode":"4122","State":"QLD","Urban Type":"Major Urban"},{"ID":1359,"Postcode":"4123","State":"QLD","Urban Type":"Major Urban"},{"ID":1360,"Postcode":"4124","State":"QLD","Urban Type":"Major Urban"},{"ID":1361,"Postcode":"4125","State":"QLD","Urban Type":"Major Urban"},{"ID":1362,"Postcode":"4127","State":"QLD","Urban Type":"Major Urban"},{"ID":1363,"Postcode":"4128","State":"QLD","Urban Type":"Major Urban"},{"ID":1364,"Postcode":"4129","State":"QLD","Urban Type":"Major Urban"},{"ID":1365,"Postcode":"4130","State":"QLD","Urban Type":"Major Urban"},{"ID":1366,"Postcode":"4131","State":"QLD","Urban Type":"Major Urban"},{"ID":1367,"Postcode":"4132","State":"QLD","Urban Type":"Major Urban"},{"ID":1368,"Postcode":"4133","State":"QLD","Urban Type":"Major Urban"},{"ID":1369,"Postcode":"4151","State":"QLD","Urban Type":"Major Urban"},{"ID":1370,"Postcode":"4152","State":"QLD","Urban Type":"Major Urban"},{"ID":1371,"Postcode":"4153","State":"QLD","Urban Type":"Major Urban"},{"ID":1372,"Postcode":"4154","State":"QLD","Urban Type":"Major Urban"},{"ID":1373,"Postcode":"4156","State":"QLD","Urban Type":"Major Urban"},{"ID":1374,"Postcode":"4157","State":"QLD","Urban Type":"Major Urban"},{"ID":1375,"Postcode":"4158","State":"QLD","Urban Type":"Major Urban"},{"ID":1376,"Postcode":"4159","State":"QLD","Urban Type":"Major Urban"},{"ID":1377,"Postcode":"4160","State":"QLD","Urban Type":"Major Urban"},{"ID":1378,"Postcode":"4161","State":"QLD","Urban Type":"Major Urban"},{"ID":1379,"Postcode":"4163","State":"QLD","Urban Type":"Major Urban"},{"ID":1380,"Postcode":"4164","State":"QLD","Urban Type":"Major Urban"},{"ID":1381,"Postcode":"4165","State":"QLD","Urban Type":"Major Urban"},{"ID":1382,"Postcode":"4169","State":"QLD","Urban Type":"Major Urban"},{"ID":1383,"Postcode":"4170","State":"QLD","Urban Type":"Major Urban"},{"ID":1384,"Postcode":"4171","State":"QLD","Urban Type":"Major Urban"},{"ID":1385,"Postcode":"4172","State":"QLD","Urban Type":"Major Urban"},{"ID":1386,"Postcode":"4173","State":"QLD","Urban Type":"Major Urban"},{"ID":1387,"Postcode":"4174","State":"QLD","Urban Type":"Major Urban"},{"ID":1388,"Postcode":"4178","State":"QLD","Urban Type":"Major Urban"},{"ID":1389,"Postcode":"4179","State":"QLD","Urban Type":"Major Urban"},{"ID":1390,"Postcode":"4205","State":"QLD","Urban Type":"Major Urban"},{"ID":1391,"Postcode":"4207","State":"QLD","Urban Type":"Major Urban"},{"ID":1392,"Postcode":"4208","State":"QLD","Urban Type":"Major Urban"},{"ID":1393,"Postcode":"4300","State":"QLD","Urban Type":"Major Urban"},{"ID":1394,"Postcode":"4301","State":"QLD","Urban Type":"Major Urban"},{"ID":1395,"Postcode":"4303","State":"QLD","Urban Type":"Major Urban"},{"ID":1396,"Postcode":"4304","State":"QLD","Urban Type":"Major Urban"},{"ID":1397,"Postcode":"4305","State":"QLD","Urban Type":"Major Urban"},{"ID":1398,"Postcode":"4500","State":"QLD","Urban Type":"Major Urban"},{"ID":1399,"Postcode":"4501","State":"QLD","Urban Type":"Major Urban"},{"ID":1400,"Postcode":"4502","State":"QLD","Urban Type":"Major Urban"},{"ID":1401,"Postcode":"4503","State":"QLD","Urban Type":"Major Urban"},{"ID":1402,"Postcode":"4504","State":"QLD","Urban Type":"Major Urban"},{"ID":1403,"Postcode":"4505","State":"QLD","Urban Type":"Major Urban"},{"ID":1404,"Postcode":"4506","State":"QLD","Urban Type":"Major Urban"},{"ID":1405,"Postcode":"4508","State":"QLD","Urban Type":"Major Urban"},{"ID":1406,"Postcode":"4509","State":"QLD","Urban Type":"Major Urban"},{"ID":1407,"Postcode":"4510","State":"QLD","Urban Type":"Major Urban"},{"ID":1408,"Postcode":"4210","State":"QLD","Urban Type":"Minor Urban"},{"ID":1409,"Postcode":"4211","State":"QLD","Urban Type":"Minor Urban"},{"ID":1410,"Postcode":"4212","State":"QLD","Urban Type":"Minor Urban"},{"ID":1411,"Postcode":"4213","State":"QLD","Urban Type":"Minor Urban"},{"ID":1412,"Postcode":"4214","State":"QLD","Urban Type":"Minor Urban"},{"ID":1413,"Postcode":"4215","State":"QLD","Urban Type":"Minor Urban"},{"ID":1414,"Postcode":"4216","State":"QLD","Urban Type":"Minor Urban"},{"ID":1415,"Postcode":"4217","State":"QLD","Urban Type":"Minor Urban"},{"ID":1416,"Postcode":"4218","State":"QLD","Urban Type":"Minor Urban"},{"ID":1417,"Postcode":"4219","State":"QLD","Urban Type":"Minor Urban"},{"ID":1418,"Postcode":"4220","State":"QLD","Urban Type":"Minor Urban"},{"ID":1419,"Postcode":"4221","State":"QLD","Urban Type":"Minor Urban"},{"ID":1420,"Postcode":"4223","State":"QLD","Urban Type":"Minor Urban"},{"ID":1421,"Postcode":"4224","State":"QLD","Urban Type":"Minor Urban"},{"ID":1422,"Postcode":"4225","State":"QLD","Urban Type":"Minor Urban"},{"ID":1423,"Postcode":"4226","State":"QLD","Urban Type":"Minor Urban"},{"ID":1424,"Postcode":"4227","State":"QLD","Urban Type":"Minor Urban"},{"ID":1425,"Postcode":"4228","State":"QLD","Urban Type":"Minor Urban"},{"ID":1426,"Postcode":"4350","State":"QLD","Urban Type":"Minor Urban"},{"ID":1427,"Postcode":"4551","State":"QLD","Urban Type":"Minor Urban"},{"ID":1428,"Postcode":"4556","State":"QLD","Urban Type":"Minor Urban"},{"ID":1429,"Postcode":"4557","State":"QLD","Urban Type":"Minor Urban"},{"ID":1430,"Postcode":"4558","State":"QLD","Urban Type":"Minor Urban"},{"ID":1431,"Postcode":"4564","State":"QLD","Urban Type":"Minor Urban"},{"ID":1432,"Postcode":"4565","State":"QLD","Urban Type":"Minor Urban"},{"ID":1433,"Postcode":"4566","State":"QLD","Urban Type":"Minor Urban"},{"ID":1434,"Postcode":"4567","State":"QLD","Urban Type":"Minor Urban"},{"ID":1435,"Postcode":"4572","State":"QLD","Urban Type":"Minor Urban"},{"ID":1436,"Postcode":"4573","State":"QLD","Urban Type":"Minor Urban"},{"ID":1437,"Postcode":"4575","State":"QLD","Urban Type":"Minor Urban"},{"ID":1438,"Postcode":"4700","State":"QLD","Urban Type":"Minor Urban"},{"ID":1439,"Postcode":"4701","State":"QLD","Urban Type":"Minor Urban"},{"ID":1440,"Postcode":"4740","State":"QLD","Urban Type":"Minor Urban"},{"ID":1441,"Postcode":"4750","State":"QLD","Urban Type":"Minor Urban"},{"ID":1442,"Postcode":"4810","State":"QLD","Urban Type":"Minor Urban"},{"ID":1443,"Postcode":"4811","State":"QLD","Urban Type":"Minor Urban"},{"ID":1444,"Postcode":"4812","State":"QLD","Urban Type":"Minor Urban"},{"ID":1445,"Postcode":"4814","State":"QLD","Urban Type":"Minor Urban"},{"ID":1446,"Postcode":"4815","State":"QLD","Urban Type":"Minor Urban"},{"ID":1447,"Postcode":"4817","State":"QLD","Urban Type":"Minor Urban"},{"ID":1448,"Postcode":"4868","State":"QLD","Urban Type":"Minor Urban"},{"ID":1449,"Postcode":"4869","State":"QLD","Urban Type":"Minor Urban"},{"ID":1450,"Postcode":"4870","State":"QLD","Urban Type":"Minor Urban"},{"ID":1451,"Postcode":"4878","State":"QLD","Urban Type":"Minor Urban"},{"ID":1452,"Postcode":"4363","State":"QLD","Urban Type":"Large Regional"},{"ID":1453,"Postcode":"4364","State":"QLD","Urban Type":"Large Regional"},{"ID":1454,"Postcode":"4365","State":"QLD","Urban Type":"Large Regional"},{"ID":1455,"Postcode":"4370","State":"QLD","Urban Type":"Large Regional"},{"ID":1456,"Postcode":"4507","State":"QLD","Urban Type":"Large Regional"},{"ID":1457,"Postcode":"4560","State":"QLD","Urban Type":"Large Regional"},{"ID":1458,"Postcode":"4650","State":"QLD","Urban Type":"Large Regional"},{"ID":1459,"Postcode":"4655","State":"QLD","Urban Type":"Large Regional"},{"ID":1460,"Postcode":"4670","State":"QLD","Urban Type":"Large Regional"},{"ID":1461,"Postcode":"4680","State":"QLD","Urban Type":"Large Regional"},{"ID":1462,"Postcode":"4703","State":"QLD","Urban Type":"Large Regional"},{"ID":1463,"Postcode":"4720","State":"QLD","Urban Type":"Large Regional"},{"ID":1464,"Postcode":"4825","State":"QLD","Urban Type":"Large Regional"},{"ID":1465,"Postcode":"4879","State":"QLD","Urban Type":"Large Regional"},{"ID":1466,"Postcode":"4070","State":"QLD","Urban Type":"Small Regional"},{"ID":1467,"Postcode":"4184","State":"QLD","Urban Type":"Small Regional"},{"ID":1468,"Postcode":"4343","State":"QLD","Urban Type":"Small Regional"},{"ID":1469,"Postcode":"4378","State":"QLD","Urban Type":"Small Regional"},{"ID":1470,"Postcode":"4380","State":"QLD","Urban Type":"Small Regional"},{"ID":1471,"Postcode":"4390","State":"QLD","Urban Type":"Small Regional"},{"ID":1472,"Postcode":"4401","State":"QLD","Urban Type":"Small Regional"},{"ID":1473,"Postcode":"4405","State":"QLD","Urban Type":"Small Regional"},{"ID":1474,"Postcode":"4413","State":"QLD","Urban Type":"Small Regional"},{"ID":1475,"Postcode":"4455","State":"QLD","Urban Type":"Small Regional"},{"ID":1476,"Postcode":"4470","State":"QLD","Urban Type":"Small Regional"},{"ID":1477,"Postcode":"4471","State":"QLD","Urban Type":"Small Regional"},{"ID":1478,"Postcode":"4610","State":"QLD","Urban Type":"Small Regional"},{"ID":1479,"Postcode":"4715","State":"QLD","Urban Type":"Small Regional"},{"ID":1480,"Postcode":"4717","State":"QLD","Urban Type":"Small Regional"},{"ID":1481,"Postcode":"4730","State":"QLD","Urban Type":"Small Regional"},{"ID":1482,"Postcode":"4744","State":"QLD","Urban Type":"Small Regional"},{"ID":1483,"Postcode":"4802","State":"QLD","Urban Type":"Small Regional"},{"ID":1484,"Postcode":"4805","State":"QLD","Urban Type":"Small Regional"},{"ID":1485,"Postcode":"4807","State":"QLD","Urban Type":"Small Regional"},{"ID":1486,"Postcode":"4820","State":"QLD","Urban Type":"Small Regional"},{"ID":1487,"Postcode":"4860","State":"QLD","Urban Type":"Small Regional"},{"ID":1488,"Postcode":"4865","State":"QLD","Urban Type":"Small Regional"},{"ID":1489,"Postcode":"4880","State":"QLD","Urban Type":"Small Regional"},{"ID":1490,"Postcode":"4883","State":"QLD","Urban Type":"Small Regional"},{"ID":1491,"Postcode":"4025","State":"QLD","Urban Type":"Rural"},{"ID":1492,"Postcode":"4155","State":"QLD","Urban Type":"Rural"},{"ID":1493,"Postcode":"4183","State":"QLD","Urban Type":"Rural"},{"ID":1494,"Postcode":"4209","State":"QLD","Urban Type":"Rural"},{"ID":1495,"Postcode":"4230","State":"QLD","Urban Type":"Rural"},{"ID":1496,"Postcode":"4270","State":"QLD","Urban Type":"Rural"},{"ID":1497,"Postcode":"4271","State":"QLD","Urban Type":"Rural"},{"ID":1498,"Postcode":"4272","State":"QLD","Urban Type":"Rural"},{"ID":1499,"Postcode":"4275","State":"QLD","Urban Type":"Rural"},{"ID":1500,"Postcode":"4280","State":"QLD","Urban Type":"Rural"},{"ID":1501,"Postcode":"4285","State":"QLD","Urban Type":"Rural"},{"ID":1502,"Postcode":"4287","State":"QLD","Urban Type":"Rural"},{"ID":1503,"Postcode":"4306","State":"QLD","Urban Type":"Rural"},{"ID":1504,"Postcode":"4307","State":"QLD","Urban Type":"Rural"},{"ID":1505,"Postcode":"4309","State":"QLD","Urban Type":"Rural"},{"ID":1506,"Postcode":"4310","State":"QLD","Urban Type":"Rural"},{"ID":1507,"Postcode":"4311","State":"QLD","Urban Type":"Rural"},{"ID":1508,"Postcode":"4312","State":"QLD","Urban Type":"Rural"},{"ID":1509,"Postcode":"4313","State":"QLD","Urban Type":"Rural"},{"ID":1510,"Postcode":"4340","State":"QLD","Urban Type":"Rural"},{"ID":1511,"Postcode":"4341","State":"QLD","Urban Type":"Rural"},{"ID":1512,"Postcode":"4342","State":"QLD","Urban Type":"Rural"},{"ID":1513,"Postcode":"4344","State":"QLD","Urban Type":"Rural"},{"ID":1514,"Postcode":"4345","State":"QLD","Urban Type":"Rural"},{"ID":1515,"Postcode":"4346","State":"QLD","Urban Type":"Rural"},{"ID":1516,"Postcode":"4347","State":"QLD","Urban Type":"Rural"},{"ID":1517,"Postcode":"4352","State":"QLD","Urban Type":"Rural"},{"ID":1518,"Postcode":"4353","State":"QLD","Urban Type":"Rural"},{"ID":1519,"Postcode":"4354","State":"QLD","Urban Type":"Rural"},{"ID":1520,"Postcode":"4355","State":"QLD","Urban Type":"Rural"},{"ID":1521,"Postcode":"4356","State":"QLD","Urban Type":"Rural"},{"ID":1522,"Postcode":"4357","State":"QLD","Urban Type":"Rural"},{"ID":1523,"Postcode":"4358","State":"QLD","Urban Type":"Rural"},{"ID":1524,"Postcode":"4359","State":"QLD","Urban Type":"Rural"},{"ID":1525,"Postcode":"4360","State":"QLD","Urban Type":"Rural"},{"ID":1526,"Postcode":"4361","State":"QLD","Urban Type":"Rural"},{"ID":1527,"Postcode":"4362","State":"QLD","Urban Type":"Rural"},{"ID":1528,"Postcode":"4371","State":"QLD","Urban Type":"Rural"},{"ID":1529,"Postcode":"4372","State":"QLD","Urban Type":"Rural"},{"ID":1530,"Postcode":"4373","State":"QLD","Urban Type":"Rural"},{"ID":1531,"Postcode":"4374","State":"QLD","Urban Type":"Rural"},{"ID":1532,"Postcode":"4375","State":"QLD","Urban Type":"Rural"},{"ID":1533,"Postcode":"4376","State":"QLD","Urban Type":"Rural"},{"ID":1534,"Postcode":"4377","State":"QLD","Urban Type":"Rural"},{"ID":1535,"Postcode":"4381","State":"QLD","Urban Type":"Rural"},{"ID":1536,"Postcode":"4382","State":"QLD","Urban Type":"Rural"},{"ID":1537,"Postcode":"4383","State":"QLD","Urban Type":"Rural"},{"ID":1538,"Postcode":"4384","State":"QLD","Urban Type":"Rural"},{"ID":1539,"Postcode":"4385","State":"QLD","Urban Type":"Rural"},{"ID":1540,"Postcode":"4387","State":"QLD","Urban Type":"Rural"},{"ID":1541,"Postcode":"4388","State":"QLD","Urban Type":"Rural"},{"ID":1542,"Postcode":"4400","State":"QLD","Urban Type":"Rural"},{"ID":1543,"Postcode":"4402","State":"QLD","Urban Type":"Rural"},{"ID":1544,"Postcode":"4403","State":"QLD","Urban Type":"Rural"},{"ID":1545,"Postcode":"4404","State":"QLD","Urban Type":"Rural"},{"ID":1546,"Postcode":"4406","State":"QLD","Urban Type":"Rural"},{"ID":1547,"Postcode":"4407","State":"QLD","Urban Type":"Rural"},{"ID":1548,"Postcode":"4408","State":"QLD","Urban Type":"Rural"},{"ID":1549,"Postcode":"4410","State":"QLD","Urban Type":"Rural"},{"ID":1550,"Postcode":"4411","State":"QLD","Urban Type":"Rural"},{"ID":1551,"Postcode":"4412","State":"QLD","Urban Type":"Rural"},{"ID":1552,"Postcode":"4415","State":"QLD","Urban Type":"Rural"},{"ID":1553,"Postcode":"4416","State":"QLD","Urban Type":"Rural"},{"ID":1554,"Postcode":"4417","State":"QLD","Urban Type":"Rural"},{"ID":1555,"Postcode":"4418","State":"QLD","Urban Type":"Rural"},{"ID":1556,"Postcode":"4419","State":"QLD","Urban Type":"Rural"},{"ID":1557,"Postcode":"4420","State":"QLD","Urban Type":"Rural"},{"ID":1558,"Postcode":"4421","State":"QLD","Urban Type":"Rural"},{"ID":1559,"Postcode":"4422","State":"QLD","Urban Type":"Rural"},{"ID":1560,"Postcode":"4423","State":"QLD","Urban Type":"Rural"},{"ID":1561,"Postcode":"4424","State":"QLD","Urban Type":"Rural"},{"ID":1562,"Postcode":"4425","State":"QLD","Urban Type":"Rural"},{"ID":1563,"Postcode":"4426","State":"QLD","Urban Type":"Rural"},{"ID":1564,"Postcode":"4427","State":"QLD","Urban Type":"Rural"},{"ID":1565,"Postcode":"4428","State":"QLD","Urban Type":"Rural"},{"ID":1566,"Postcode":"4454","State":"QLD","Urban Type":"Rural"},{"ID":1567,"Postcode":"4461","State":"QLD","Urban Type":"Rural"},{"ID":1568,"Postcode":"4462","State":"QLD","Urban Type":"Rural"},{"ID":1569,"Postcode":"4465","State":"QLD","Urban Type":"Rural"},{"ID":1570,"Postcode":"4467","State":"QLD","Urban Type":"Rural"},{"ID":1571,"Postcode":"4468","State":"QLD","Urban Type":"Rural"},{"ID":1572,"Postcode":"4472","State":"QLD","Urban Type":"Rural"},{"ID":1573,"Postcode":"4474","State":"QLD","Urban Type":"Rural"},{"ID":1574,"Postcode":"4475","State":"QLD","Urban Type":"Rural"},{"ID":1575,"Postcode":"4477","State":"QLD","Urban Type":"Rural"},{"ID":1576,"Postcode":"4478","State":"QLD","Urban Type":"Rural"},{"ID":1577,"Postcode":"4479","State":"QLD","Urban Type":"Rural"},{"ID":1578,"Postcode":"4480","State":"QLD","Urban Type":"Rural"},{"ID":1579,"Postcode":"4481","State":"QLD","Urban Type":"Rural"},{"ID":1580,"Postcode":"4482","State":"QLD","Urban Type":"Rural"},{"ID":1581,"Postcode":"4486","State":"QLD","Urban Type":"Rural"},{"ID":1582,"Postcode":"4487","State":"QLD","Urban Type":"Rural"},{"ID":1583,"Postcode":"4488","State":"QLD","Urban Type":"Rural"},{"ID":1584,"Postcode":"4489","State":"QLD","Urban Type":"Rural"},{"ID":1585,"Postcode":"4490","State":"QLD","Urban Type":"Rural"},{"ID":1586,"Postcode":"4491","State":"QLD","Urban Type":"Rural"},{"ID":1587,"Postcode":"4492","State":"QLD","Urban Type":"Rural"},{"ID":1588,"Postcode":"4493","State":"QLD","Urban Type":"Rural"},{"ID":1589,"Postcode":"4494","State":"QLD","Urban Type":"Rural"},{"ID":1590,"Postcode":"4496","State":"QLD","Urban Type":"Rural"},{"ID":1591,"Postcode":"4497","State":"QLD","Urban Type":"Rural"},{"ID":1592,"Postcode":"4498","State":"QLD","Urban Type":"Rural"},{"ID":1593,"Postcode":"4511","State":"QLD","Urban Type":"Rural"},{"ID":1594,"Postcode":"4512","State":"QLD","Urban Type":"Rural"},{"ID":1595,"Postcode":"4514","State":"QLD","Urban Type":"Rural"},{"ID":1596,"Postcode":"4515","State":"QLD","Urban Type":"Rural"},{"ID":1597,"Postcode":"4516","State":"QLD","Urban Type":"Rural"},{"ID":1598,"Postcode":"4517","State":"QLD","Urban Type":"Rural"},{"ID":1599,"Postcode":"4518","State":"QLD","Urban Type":"Rural"},{"ID":1600,"Postcode":"4519","State":"QLD","Urban Type":"Rural"},{"ID":1601,"Postcode":"4520","State":"QLD","Urban Type":"Rural"},{"ID":1602,"Postcode":"4521","State":"QLD","Urban Type":"Rural"},{"ID":1603,"Postcode":"4550","State":"QLD","Urban Type":"Rural"},{"ID":1604,"Postcode":"4552","State":"QLD","Urban Type":"Rural"},{"ID":1605,"Postcode":"4553","State":"QLD","Urban Type":"Rural"},{"ID":1606,"Postcode":"4554","State":"QLD","Urban Type":"Rural"},{"ID":1607,"Postcode":"4555","State":"QLD","Urban Type":"Rural"},{"ID":1608,"Postcode":"4559","State":"QLD","Urban Type":"Rural"},{"ID":1609,"Postcode":"4561","State":"QLD","Urban Type":"Rural"},{"ID":1610,"Postcode":"4562","State":"QLD","Urban Type":"Rural"},{"ID":1611,"Postcode":"4563","State":"QLD","Urban Type":"Rural"},{"ID":1612,"Postcode":"4568","State":"QLD","Urban Type":"Rural"},{"ID":1613,"Postcode":"4569","State":"QLD","Urban Type":"Rural"},{"ID":1614,"Postcode":"4570","State":"QLD","Urban Type":"Rural"},{"ID":1615,"Postcode":"4571","State":"QLD","Urban Type":"Rural"},{"ID":1616,"Postcode":"4574","State":"QLD","Urban Type":"Rural"},{"ID":1617,"Postcode":"4580","State":"QLD","Urban Type":"Rural"},{"ID":1618,"Postcode":"4581","State":"QLD","Urban Type":"Rural"},{"ID":1619,"Postcode":"4600","State":"QLD","Urban Type":"Rural"},{"ID":1620,"Postcode":"4601","State":"QLD","Urban Type":"Rural"},{"ID":1621,"Postcode":"4605","State":"QLD","Urban Type":"Rural"},{"ID":1622,"Postcode":"4606","State":"QLD","Urban Type":"Rural"},{"ID":1623,"Postcode":"4608","State":"QLD","Urban Type":"Rural"},{"ID":1624,"Postcode":"4611","State":"QLD","Urban Type":"Rural"},{"ID":1625,"Postcode":"4612","State":"QLD","Urban Type":"Rural"},{"ID":1626,"Postcode":"4613","State":"QLD","Urban Type":"Rural"},{"ID":1627,"Postcode":"4614","State":"QLD","Urban Type":"Rural"},{"ID":1628,"Postcode":"4615","State":"QLD","Urban Type":"Rural"},{"ID":1629,"Postcode":"4620","State":"QLD","Urban Type":"Rural"},{"ID":1630,"Postcode":"4621","State":"QLD","Urban Type":"Rural"},{"ID":1631,"Postcode":"4625","State":"QLD","Urban Type":"Rural"},{"ID":1632,"Postcode":"4626","State":"QLD","Urban Type":"Rural"},{"ID":1633,"Postcode":"4627","State":"QLD","Urban Type":"Rural"},{"ID":1634,"Postcode":"4630","State":"QLD","Urban Type":"Rural"},{"ID":1635,"Postcode":"4659","State":"QLD","Urban Type":"Rural"},{"ID":1636,"Postcode":"4660","State":"QLD","Urban Type":"Rural"},{"ID":1637,"Postcode":"4662","State":"QLD","Urban Type":"Rural"},{"ID":1638,"Postcode":"4671","State":"QLD","Urban Type":"Rural"},{"ID":1639,"Postcode":"4673","State":"QLD","Urban Type":"Rural"},{"ID":1640,"Postcode":"4674","State":"QLD","Urban Type":"Rural"},{"ID":1641,"Postcode":"4676","State":"QLD","Urban Type":"Rural"},{"ID":1642,"Postcode":"4677","State":"QLD","Urban Type":"Rural"},{"ID":1643,"Postcode":"4678","State":"QLD","Urban Type":"Rural"},{"ID":1644,"Postcode":"4694","State":"QLD","Urban Type":"Rural"},{"ID":1645,"Postcode":"4695","State":"QLD","Urban Type":"Rural"},{"ID":1646,"Postcode":"4697","State":"QLD","Urban Type":"Rural"},{"ID":1647,"Postcode":"4699","State":"QLD","Urban Type":"Rural"},{"ID":1648,"Postcode":"4702","State":"QLD","Urban Type":"Rural"},{"ID":1649,"Postcode":"4704","State":"QLD","Urban Type":"Rural"},{"ID":1650,"Postcode":"4705","State":"QLD","Urban Type":"Rural"},{"ID":1651,"Postcode":"4706","State":"QLD","Urban Type":"Rural"},{"ID":1652,"Postcode":"4707","State":"QLD","Urban Type":"Rural"},{"ID":1653,"Postcode":"4709","State":"QLD","Urban Type":"Rural"},{"ID":1654,"Postcode":"4710","State":"QLD","Urban Type":"Rural"},{"ID":1655,"Postcode":"4711","State":"QLD","Urban Type":"Rural"},{"ID":1656,"Postcode":"4712","State":"QLD","Urban Type":"Rural"},{"ID":1657,"Postcode":"4713","State":"QLD","Urban Type":"Rural"},{"ID":1658,"Postcode":"4714","State":"QLD","Urban Type":"Rural"},{"ID":1659,"Postcode":"4716","State":"QLD","Urban Type":"Rural"},{"ID":1660,"Postcode":"4718","State":"QLD","Urban Type":"Rural"},{"ID":1661,"Postcode":"4719","State":"QLD","Urban Type":"Rural"},{"ID":1662,"Postcode":"4721","State":"QLD","Urban Type":"Rural"},{"ID":1663,"Postcode":"4722","State":"QLD","Urban Type":"Rural"},{"ID":1664,"Postcode":"4723","State":"QLD","Urban Type":"Rural"},{"ID":1665,"Postcode":"4724","State":"QLD","Urban Type":"Rural"},{"ID":1666,"Postcode":"4725","State":"QLD","Urban Type":"Rural"},{"ID":1667,"Postcode":"4726","State":"QLD","Urban Type":"Rural"},{"ID":1668,"Postcode":"4727","State":"QLD","Urban Type":"Rural"},{"ID":1669,"Postcode":"4728","State":"QLD","Urban Type":"Rural"},{"ID":1670,"Postcode":"4731","State":"QLD","Urban Type":"Rural"},{"ID":1671,"Postcode":"4732","State":"QLD","Urban Type":"Rural"},{"ID":1672,"Postcode":"4733","State":"QLD","Urban Type":"Rural"},{"ID":1673,"Postcode":"4735","State":"QLD","Urban Type":"Rural"},{"ID":1674,"Postcode":"4736","State":"QLD","Urban Type":"Rural"},{"ID":1675,"Postcode":"4737","State":"QLD","Urban Type":"Rural"},{"ID":1676,"Postcode":"4738","State":"QLD","Urban Type":"Rural"},{"ID":1677,"Postcode":"4739","State":"QLD","Urban Type":"Rural"},{"ID":1678,"Postcode":"4741","State":"QLD","Urban Type":"Rural"},{"ID":1679,"Postcode":"4742","State":"QLD","Urban Type":"Rural"},{"ID":1680,"Postcode":"4743","State":"QLD","Urban Type":"Rural"},{"ID":1681,"Postcode":"4745","State":"QLD","Urban Type":"Rural"},{"ID":1682,"Postcode":"4746","State":"QLD","Urban Type":"Rural"},{"ID":1683,"Postcode":"4751","State":"QLD","Urban Type":"Rural"},{"ID":1684,"Postcode":"4753","State":"QLD","Urban Type":"Rural"},{"ID":1685,"Postcode":"4754","State":"QLD","Urban Type":"Rural"},{"ID":1686,"Postcode":"4756","State":"QLD","Urban Type":"Rural"},{"ID":1687,"Postcode":"4757","State":"QLD","Urban Type":"Rural"},{"ID":1688,"Postcode":"4798","State":"QLD","Urban Type":"Rural"},{"ID":1689,"Postcode":"4799","State":"QLD","Urban Type":"Rural"},{"ID":1690,"Postcode":"4800","State":"QLD","Urban Type":"Rural"},{"ID":1691,"Postcode":"4801","State":"QLD","Urban Type":"Rural"},{"ID":1692,"Postcode":"4803","State":"QLD","Urban Type":"Rural"},{"ID":1693,"Postcode":"4804","State":"QLD","Urban Type":"Rural"},{"ID":1694,"Postcode":"4806","State":"QLD","Urban Type":"Rural"},{"ID":1695,"Postcode":"4808","State":"QLD","Urban Type":"Rural"},{"ID":1696,"Postcode":"4809","State":"QLD","Urban Type":"Rural"},{"ID":1697,"Postcode":"4816","State":"QLD","Urban Type":"Rural"},{"ID":1698,"Postcode":"4818","State":"QLD","Urban Type":"Rural"},{"ID":1699,"Postcode":"4819","State":"QLD","Urban Type":"Rural"},{"ID":1700,"Postcode":"4821","State":"QLD","Urban Type":"Rural"},{"ID":1701,"Postcode":"4822","State":"QLD","Urban Type":"Rural"},{"ID":1702,"Postcode":"4823","State":"QLD","Urban Type":"Rural"},{"ID":1703,"Postcode":"4824","State":"QLD","Urban Type":"Rural"},{"ID":1704,"Postcode":"4828","State":"QLD","Urban Type":"Rural"},{"ID":1705,"Postcode":"4829","State":"QLD","Urban Type":"Rural"},{"ID":1706,"Postcode":"4830","State":"QLD","Urban Type":"Rural"},{"ID":1707,"Postcode":"4849","State":"QLD","Urban Type":"Rural"},{"ID":1708,"Postcode":"4850","State":"QLD","Urban Type":"Rural"},{"ID":1709,"Postcode":"4852","State":"QLD","Urban Type":"Rural"},{"ID":1710,"Postcode":"4854","State":"QLD","Urban Type":"Rural"},{"ID":1711,"Postcode":"4855","State":"QLD","Urban Type":"Rural"},{"ID":1712,"Postcode":"4856","State":"QLD","Urban Type":"Rural"},{"ID":1713,"Postcode":"4857","State":"QLD","Urban Type":"Rural"},{"ID":1714,"Postcode":"4858","State":"QLD","Urban Type":"Rural"},{"ID":1715,"Postcode":"4859","State":"QLD","Urban Type":"Rural"},{"ID":1716,"Postcode":"4861","State":"QLD","Urban Type":"Rural"},{"ID":1717,"Postcode":"4871","State":"QLD","Urban Type":"Rural"},{"ID":1718,"Postcode":"4872","State":"QLD","Urban Type":"Rural"},{"ID":1719,"Postcode":"4873","State":"QLD","Urban Type":"Rural"},{"ID":1720,"Postcode":"4874","State":"QLD","Urban Type":"Rural"},{"ID":1721,"Postcode":"4875","State":"QLD","Urban Type":"Rural"},{"ID":1722,"Postcode":"4876","State":"QLD","Urban Type":"Rural"},{"ID":1723,"Postcode":"4877","State":"QLD","Urban Type":"Rural"},{"ID":1724,"Postcode":"4881","State":"QLD","Urban Type":"Rural"},{"ID":1725,"Postcode":"4882","State":"QLD","Urban Type":"Rural"},{"ID":1726,"Postcode":"4884","State":"QLD","Urban Type":"Rural"},{"ID":1727,"Postcode":"4885","State":"QLD","Urban Type":"Rural"},{"ID":1728,"Postcode":"4886","State":"QLD","Urban Type":"Rural"},{"ID":1729,"Postcode":"4887","State":"QLD","Urban Type":"Rural"},{"ID":1730,"Postcode":"4888","State":"QLD","Urban Type":"Rural"},{"ID":1731,"Postcode":"4890","State":"QLD","Urban Type":"Rural"},{"ID":1732,"Postcode":"4891","State":"QLD","Urban Type":"Rural"},{"ID":1733,"Postcode":"4895","State":"QLD","Urban Type":"Rural"},{"ID":1734,"Postcode":"5000","State":"SA ","Urban Type":"Major Urban"},{"ID":1735,"Postcode":"5006","State":"SA ","Urban Type":"Major Urban"},{"ID":1736,"Postcode":"5007","State":"SA ","Urban Type":"Major Urban"},{"ID":1737,"Postcode":"5008","State":"SA ","Urban Type":"Major Urban"},{"ID":1738,"Postcode":"5009","State":"SA ","Urban Type":"Major Urban"},{"ID":1739,"Postcode":"5010","State":"SA ","Urban Type":"Major Urban"},{"ID":1740,"Postcode":"5011","State":"SA ","Urban Type":"Major Urban"},{"ID":1741,"Postcode":"5012","State":"SA ","Urban Type":"Major Urban"},{"ID":1742,"Postcode":"5013","State":"SA ","Urban Type":"Major Urban"},{"ID":1743,"Postcode":"5014","State":"SA ","Urban Type":"Major Urban"},{"ID":1744,"Postcode":"5015","State":"SA ","Urban Type":"Major Urban"},{"ID":1745,"Postcode":"5016","State":"SA ","Urban Type":"Major Urban"},{"ID":1746,"Postcode":"5017","State":"SA ","Urban Type":"Major Urban"},{"ID":1747,"Postcode":"5018","State":"SA ","Urban Type":"Major Urban"},{"ID":1748,"Postcode":"5019","State":"SA ","Urban Type":"Major Urban"},{"ID":1749,"Postcode":"5020","State":"SA ","Urban Type":"Major Urban"},{"ID":1750,"Postcode":"5021","State":"SA ","Urban Type":"Major Urban"},{"ID":1751,"Postcode":"5022","State":"SA ","Urban Type":"Major Urban"},{"ID":1752,"Postcode":"5023","State":"SA ","Urban Type":"Major Urban"},{"ID":1753,"Postcode":"5024","State":"SA ","Urban Type":"Major Urban"},{"ID":1754,"Postcode":"5025","State":"SA ","Urban Type":"Major Urban"},{"ID":1755,"Postcode":"5031","State":"SA ","Urban Type":"Major Urban"},{"ID":1756,"Postcode":"5032","State":"SA ","Urban Type":"Major Urban"},{"ID":1757,"Postcode":"5033","State":"SA ","Urban Type":"Major Urban"},{"ID":1758,"Postcode":"5034","State":"SA ","Urban Type":"Major Urban"},{"ID":1759,"Postcode":"5035","State":"SA ","Urban Type":"Major Urban"},{"ID":1760,"Postcode":"5037","State":"SA ","Urban Type":"Major Urban"},{"ID":1761,"Postcode":"5038","State":"SA ","Urban Type":"Major Urban"},{"ID":1762,"Postcode":"5039","State":"SA ","Urban Type":"Major Urban"},{"ID":1763,"Postcode":"5040","State":"SA ","Urban Type":"Major Urban"},{"ID":1764,"Postcode":"5041","State":"SA ","Urban Type":"Major Urban"},{"ID":1765,"Postcode":"5042","State":"SA ","Urban Type":"Major Urban"},{"ID":1766,"Postcode":"5043","State":"SA ","Urban Type":"Major Urban"},{"ID":1767,"Postcode":"5044","State":"SA ","Urban Type":"Major Urban"},{"ID":1768,"Postcode":"5045","State":"SA ","Urban Type":"Major Urban"},{"ID":1769,"Postcode":"5046","State":"SA ","Urban Type":"Major Urban"},{"ID":1770,"Postcode":"5047","State":"SA ","Urban Type":"Major Urban"},{"ID":1771,"Postcode":"5048","State":"SA ","Urban Type":"Major Urban"},{"ID":1772,"Postcode":"5049","State":"SA ","Urban Type":"Major Urban"},{"ID":1773,"Postcode":"5050","State":"SA ","Urban Type":"Major Urban"},{"ID":1774,"Postcode":"5051","State":"SA ","Urban Type":"Major Urban"},{"ID":1775,"Postcode":"5052","State":"SA ","Urban Type":"Major Urban"},{"ID":1776,"Postcode":"5061","State":"SA ","Urban Type":"Major Urban"},{"ID":1777,"Postcode":"5062","State":"SA ","Urban Type":"Major Urban"},{"ID":1778,"Postcode":"5063","State":"SA ","Urban Type":"Major Urban"},{"ID":1779,"Postcode":"5064","State":"SA ","Urban Type":"Major Urban"},{"ID":1780,"Postcode":"5065","State":"SA ","Urban Type":"Major Urban"},{"ID":1781,"Postcode":"5066","State":"SA ","Urban Type":"Major Urban"},{"ID":1782,"Postcode":"5067","State":"SA ","Urban Type":"Major Urban"},{"ID":1783,"Postcode":"5068","State":"SA ","Urban Type":"Major Urban"},{"ID":1784,"Postcode":"5069","State":"SA ","Urban Type":"Major Urban"},{"ID":1785,"Postcode":"5070","State":"SA ","Urban Type":"Major Urban"},{"ID":1786,"Postcode":"5072","State":"SA ","Urban Type":"Major Urban"},{"ID":1787,"Postcode":"5073","State":"SA ","Urban Type":"Major Urban"},{"ID":1788,"Postcode":"5074","State":"SA ","Urban Type":"Major Urban"},{"ID":1789,"Postcode":"5075","State":"SA ","Urban Type":"Major Urban"},{"ID":1790,"Postcode":"5076","State":"SA ","Urban Type":"Major Urban"},{"ID":1791,"Postcode":"5081","State":"SA ","Urban Type":"Major Urban"},{"ID":1792,"Postcode":"5082","State":"SA ","Urban Type":"Major Urban"},{"ID":1793,"Postcode":"5083","State":"SA ","Urban Type":"Major Urban"},{"ID":1794,"Postcode":"5084","State":"SA ","Urban Type":"Major Urban"},{"ID":1795,"Postcode":"5085","State":"SA ","Urban Type":"Major Urban"},{"ID":1796,"Postcode":"5086","State":"SA ","Urban Type":"Major Urban"},{"ID":1797,"Postcode":"5087","State":"SA ","Urban Type":"Major Urban"},{"ID":1798,"Postcode":"5088","State":"SA ","Urban Type":"Major Urban"},{"ID":1799,"Postcode":"5089","State":"SA ","Urban Type":"Major Urban"},{"ID":1800,"Postcode":"5090","State":"SA ","Urban Type":"Major Urban"},{"ID":1801,"Postcode":"5091","State":"SA ","Urban Type":"Major Urban"},{"ID":1802,"Postcode":"5092","State":"SA ","Urban Type":"Major Urban"},{"ID":1803,"Postcode":"5093","State":"SA ","Urban Type":"Major Urban"},{"ID":1804,"Postcode":"5094","State":"SA ","Urban Type":"Major Urban"},{"ID":1805,"Postcode":"5095","State":"SA ","Urban Type":"Major Urban"},{"ID":1806,"Postcode":"5096","State":"SA ","Urban Type":"Major Urban"},{"ID":1807,"Postcode":"5097","State":"SA ","Urban Type":"Major Urban"},{"ID":1808,"Postcode":"5098","State":"SA ","Urban Type":"Major Urban"},{"ID":1809,"Postcode":"5106","State":"SA ","Urban Type":"Major Urban"},{"ID":1810,"Postcode":"5107","State":"SA ","Urban Type":"Major Urban"},{"ID":1811,"Postcode":"5108","State":"SA ","Urban Type":"Major Urban"},{"ID":1812,"Postcode":"5109","State":"SA ","Urban Type":"Major Urban"},{"ID":1813,"Postcode":"5110","State":"SA ","Urban Type":"Major Urban"},{"ID":1814,"Postcode":"5111","State":"SA ","Urban Type":"Major Urban"},{"ID":1815,"Postcode":"5112","State":"SA ","Urban Type":"Major Urban"},{"ID":1816,"Postcode":"5113","State":"SA ","Urban Type":"Major Urban"},{"ID":1817,"Postcode":"5114","State":"SA ","Urban Type":"Major Urban"},{"ID":1818,"Postcode":"5115","State":"SA ","Urban Type":"Major Urban"},{"ID":1819,"Postcode":"5125","State":"SA ","Urban Type":"Major Urban"},{"ID":1820,"Postcode":"5126","State":"SA ","Urban Type":"Major Urban"},{"ID":1821,"Postcode":"5127","State":"SA ","Urban Type":"Major Urban"},{"ID":1822,"Postcode":"5158","State":"SA ","Urban Type":"Major Urban"},{"ID":1823,"Postcode":"5159","State":"SA ","Urban Type":"Major Urban"},{"ID":1824,"Postcode":"5160","State":"SA ","Urban Type":"Major Urban"},{"ID":1825,"Postcode":"5161","State":"SA ","Urban Type":"Major Urban"},{"ID":1826,"Postcode":"5162","State":"SA ","Urban Type":"Major Urban"},{"ID":1827,"Postcode":"5163","State":"SA ","Urban Type":"Major Urban"},{"ID":1828,"Postcode":"5164","State":"SA ","Urban Type":"Major Urban"},{"ID":1829,"Postcode":"5165","State":"SA ","Urban Type":"Major Urban"},{"ID":1830,"Postcode":"5166","State":"SA ","Urban Type":"Major Urban"},{"ID":1831,"Postcode":"5167","State":"SA ","Urban Type":"Major Urban"},{"ID":1832,"Postcode":"5168","State":"SA ","Urban Type":"Major Urban"},{"ID":1833,"Postcode":"5169","State":"SA ","Urban Type":"Major Urban"},{"ID":1834,"Postcode":"5950","State":"SA ","Urban Type":"Major Urban"},{"ID":1835,"Postcode":"5116","State":"SA ","Urban Type":"Large Regional"},{"ID":1836,"Postcode":"5118","State":"SA ","Urban Type":"Large Regional"},{"ID":1837,"Postcode":"5152","State":"SA ","Urban Type":"Large Regional"},{"ID":1838,"Postcode":"5154","State":"SA ","Urban Type":"Large Regional"},{"ID":1839,"Postcode":"5155","State":"SA ","Urban Type":"Large Regional"},{"ID":1840,"Postcode":"5156","State":"SA ","Urban Type":"Large Regional"},{"ID":1841,"Postcode":"5253","State":"SA ","Urban Type":"Large Regional"},{"ID":1842,"Postcode":"5290","State":"SA ","Urban Type":"Large Regional"},{"ID":1843,"Postcode":"5540","State":"SA ","Urban Type":"Large Regional"},{"ID":1844,"Postcode":"5600","State":"SA ","Urban Type":"Large Regional"},{"ID":1845,"Postcode":"5606","State":"SA ","Urban Type":"Large Regional"},{"ID":1846,"Postcode":"5608","State":"SA ","Urban Type":"Large Regional"},{"ID":1847,"Postcode":"5609","State":"SA ","Urban Type":"Large Regional"},{"ID":1848,"Postcode":"5700","State":"SA ","Urban Type":"Large Regional"},{"ID":1849,"Postcode":"5710","State":"SA ","Urban Type":"Large Regional"},{"ID":1850,"Postcode":"5173","State":"SA ","Urban Type":"Small Regional"},{"ID":1851,"Postcode":"5211","State":"SA ","Urban Type":"Small Regional"},{"ID":1852,"Postcode":"5214","State":"SA ","Urban Type":"Small Regional"},{"ID":1853,"Postcode":"5250","State":"SA ","Urban Type":"Small Regional"},{"ID":1854,"Postcode":"5251","State":"SA ","Urban Type":"Small Regional"},{"ID":1855,"Postcode":"5255","State":"SA ","Urban Type":"Small Regional"},{"ID":1856,"Postcode":"5271","State":"SA ","Urban Type":"Small Regional"},{"ID":1857,"Postcode":"5280","State":"SA ","Urban Type":"Small Regional"},{"ID":1858,"Postcode":"5333","State":"SA ","Urban Type":"Small Regional"},{"ID":1859,"Postcode":"5341","State":"SA ","Urban Type":"Small Regional"},{"ID":1860,"Postcode":"5343","State":"SA ","Urban Type":"Small Regional"},{"ID":1861,"Postcode":"5352","State":"SA ","Urban Type":"Small Regional"},{"ID":1862,"Postcode":"5355","State":"SA ","Urban Type":"Small Regional"},{"ID":1863,"Postcode":"5552","State":"SA ","Urban Type":"Small Regional"},{"ID":1864,"Postcode":"5554","State":"SA ","Urban Type":"Small Regional"},{"ID":1865,"Postcode":"5558","State":"SA ","Urban Type":"Small Regional"},{"ID":1866,"Postcode":"5725","State":"SA ","Urban Type":"Small Regional"},{"ID":1867,"Postcode":"5117","State":"SA ","Urban Type":"Rural"},{"ID":1868,"Postcode":"5120","State":"SA ","Urban Type":"Rural"},{"ID":1869,"Postcode":"5121","State":"SA ","Urban Type":"Rural"},{"ID":1870,"Postcode":"5131","State":"SA ","Urban Type":"Rural"},{"ID":1871,"Postcode":"5132","State":"SA ","Urban Type":"Rural"},{"ID":1872,"Postcode":"5133","State":"SA ","Urban Type":"Rural"},{"ID":1873,"Postcode":"5134","State":"SA ","Urban Type":"Rural"},{"ID":1874,"Postcode":"5136","State":"SA ","Urban Type":"Rural"},{"ID":1875,"Postcode":"5137","State":"SA ","Urban Type":"Rural"},{"ID":1876,"Postcode":"5138","State":"SA ","Urban Type":"Rural"},{"ID":1877,"Postcode":"5139","State":"SA ","Urban Type":"Rural"},{"ID":1878,"Postcode":"5140","State":"SA ","Urban Type":"Rural"},{"ID":1879,"Postcode":"5141","State":"SA ","Urban Type":"Rural"},{"ID":1880,"Postcode":"5142","State":"SA ","Urban Type":"Rural"},{"ID":1881,"Postcode":"5144","State":"SA ","Urban Type":"Rural"},{"ID":1882,"Postcode":"5150","State":"SA ","Urban Type":"Rural"},{"ID":1883,"Postcode":"5151","State":"SA ","Urban Type":"Rural"},{"ID":1884,"Postcode":"5153","State":"SA ","Urban Type":"Rural"},{"ID":1885,"Postcode":"5157","State":"SA ","Urban Type":"Rural"},{"ID":1886,"Postcode":"5170","State":"SA ","Urban Type":"Rural"},{"ID":1887,"Postcode":"5171","State":"SA ","Urban Type":"Rural"},{"ID":1888,"Postcode":"5172","State":"SA ","Urban Type":"Rural"},{"ID":1889,"Postcode":"5174","State":"SA ","Urban Type":"Rural"},{"ID":1890,"Postcode":"5201","State":"SA ","Urban Type":"Rural"},{"ID":1891,"Postcode":"5202","State":"SA ","Urban Type":"Rural"},{"ID":1892,"Postcode":"5203","State":"SA ","Urban Type":"Rural"},{"ID":1893,"Postcode":"5204","State":"SA ","Urban Type":"Rural"},{"ID":1894,"Postcode":"5210","State":"SA ","Urban Type":"Rural"},{"ID":1895,"Postcode":"5212","State":"SA ","Urban Type":"Rural"},{"ID":1896,"Postcode":"5213","State":"SA ","Urban Type":"Rural"},{"ID":1897,"Postcode":"5220","State":"SA ","Urban Type":"Rural"},{"ID":1898,"Postcode":"5221","State":"SA ","Urban Type":"Rural"},{"ID":1899,"Postcode":"5222","State":"SA ","Urban Type":"Rural"},{"ID":1900,"Postcode":"5223","State":"SA ","Urban Type":"Rural"},{"ID":1901,"Postcode":"5231","State":"SA ","Urban Type":"Rural"},{"ID":1902,"Postcode":"5232","State":"SA ","Urban Type":"Rural"},{"ID":1903,"Postcode":"5233","State":"SA ","Urban Type":"Rural"},{"ID":1904,"Postcode":"5234","State":"SA ","Urban Type":"Rural"},{"ID":1905,"Postcode":"5235","State":"SA ","Urban Type":"Rural"},{"ID":1906,"Postcode":"5236","State":"SA ","Urban Type":"Rural"},{"ID":1907,"Postcode":"5237","State":"SA ","Urban Type":"Rural"},{"ID":1908,"Postcode":"5238","State":"SA ","Urban Type":"Rural"},{"ID":1909,"Postcode":"5240","State":"SA ","Urban Type":"Rural"},{"ID":1910,"Postcode":"5241","State":"SA ","Urban Type":"Rural"},{"ID":1911,"Postcode":"5242","State":"SA ","Urban Type":"Rural"},{"ID":1912,"Postcode":"5243","State":"SA ","Urban Type":"Rural"},{"ID":1913,"Postcode":"5244","State":"SA ","Urban Type":"Rural"},{"ID":1914,"Postcode":"5245","State":"SA ","Urban Type":"Rural"},{"ID":1915,"Postcode":"5252","State":"SA ","Urban Type":"Rural"},{"ID":1916,"Postcode":"5254","State":"SA ","Urban Type":"Rural"},{"ID":1917,"Postcode":"5256","State":"SA ","Urban Type":"Rural"},{"ID":1918,"Postcode":"5259","State":"SA ","Urban Type":"Rural"},{"ID":1919,"Postcode":"5260","State":"SA ","Urban Type":"Rural"},{"ID":1920,"Postcode":"5261","State":"SA ","Urban Type":"Rural"},{"ID":1921,"Postcode":"5262","State":"SA ","Urban Type":"Rural"},{"ID":1922,"Postcode":"5263","State":"SA ","Urban Type":"Rural"},{"ID":1923,"Postcode":"5264","State":"SA ","Urban Type":"Rural"},{"ID":1924,"Postcode":"5265","State":"SA ","Urban Type":"Rural"},{"ID":1925,"Postcode":"5266","State":"SA ","Urban Type":"Rural"},{"ID":1926,"Postcode":"5267","State":"SA ","Urban Type":"Rural"},{"ID":1927,"Postcode":"5268","State":"SA ","Urban Type":"Rural"},{"ID":1928,"Postcode":"5269","State":"SA ","Urban Type":"Rural"},{"ID":1929,"Postcode":"5270","State":"SA ","Urban Type":"Rural"},{"ID":1930,"Postcode":"5272","State":"SA ","Urban Type":"Rural"},{"ID":1931,"Postcode":"5273","State":"SA ","Urban Type":"Rural"},{"ID":1932,"Postcode":"5275","State":"SA ","Urban Type":"Rural"},{"ID":1933,"Postcode":"5276","State":"SA ","Urban Type":"Rural"},{"ID":1934,"Postcode":"5277","State":"SA ","Urban Type":"Rural"},{"ID":1935,"Postcode":"5278","State":"SA ","Urban Type":"Rural"},{"ID":1936,"Postcode":"5279","State":"SA ","Urban Type":"Rural"},{"ID":1937,"Postcode":"5291","State":"SA ","Urban Type":"Rural"},{"ID":1938,"Postcode":"5301","State":"SA ","Urban Type":"Rural"},{"ID":1939,"Postcode":"5302","State":"SA ","Urban Type":"Rural"},{"ID":1940,"Postcode":"5303","State":"SA ","Urban Type":"Rural"},{"ID":1941,"Postcode":"5304","State":"SA ","Urban Type":"Rural"},{"ID":1942,"Postcode":"5306","State":"SA ","Urban Type":"Rural"},{"ID":1943,"Postcode":"5307","State":"SA ","Urban Type":"Rural"},{"ID":1944,"Postcode":"5308","State":"SA ","Urban Type":"Rural"},{"ID":1945,"Postcode":"5309","State":"SA ","Urban Type":"Rural"},{"ID":1946,"Postcode":"5310","State":"SA ","Urban Type":"Rural"},{"ID":1947,"Postcode":"5311","State":"SA ","Urban Type":"Rural"},{"ID":1948,"Postcode":"5312","State":"SA ","Urban Type":"Rural"},{"ID":1949,"Postcode":"5320","State":"SA ","Urban Type":"Rural"},{"ID":1950,"Postcode":"5321","State":"SA ","Urban Type":"Rural"},{"ID":1951,"Postcode":"5322","State":"SA ","Urban Type":"Rural"},{"ID":1952,"Postcode":"5330","State":"SA ","Urban Type":"Rural"},{"ID":1953,"Postcode":"5331","State":"SA ","Urban Type":"Rural"},{"ID":1954,"Postcode":"5332","State":"SA ","Urban Type":"Rural"},{"ID":1955,"Postcode":"5340","State":"SA ","Urban Type":"Rural"},{"ID":1956,"Postcode":"5342","State":"SA ","Urban Type":"Rural"},{"ID":1957,"Postcode":"5344","State":"SA ","Urban Type":"Rural"},{"ID":1958,"Postcode":"5345","State":"SA ","Urban Type":"Rural"},{"ID":1959,"Postcode":"5346","State":"SA ","Urban Type":"Rural"},{"ID":1960,"Postcode":"5350","State":"SA ","Urban Type":"Rural"},{"ID":1961,"Postcode":"5351","State":"SA ","Urban Type":"Rural"},{"ID":1962,"Postcode":"5353","State":"SA ","Urban Type":"Rural"},{"ID":1963,"Postcode":"5354","State":"SA ","Urban Type":"Rural"},{"ID":1964,"Postcode":"5356","State":"SA ","Urban Type":"Rural"},{"ID":1965,"Postcode":"5357","State":"SA ","Urban Type":"Rural"},{"ID":1966,"Postcode":"5360","State":"SA ","Urban Type":"Rural"},{"ID":1967,"Postcode":"5371","State":"SA ","Urban Type":"Rural"},{"ID":1968,"Postcode":"5372","State":"SA ","Urban Type":"Rural"},{"ID":1969,"Postcode":"5373","State":"SA ","Urban Type":"Rural"},{"ID":1970,"Postcode":"5374","State":"SA ","Urban Type":"Rural"},{"ID":1971,"Postcode":"5381","State":"SA ","Urban Type":"Rural"},{"ID":1972,"Postcode":"5400","State":"SA ","Urban Type":"Rural"},{"ID":1973,"Postcode":"5401","State":"SA ","Urban Type":"Rural"},{"ID":1974,"Postcode":"5410","State":"SA ","Urban Type":"Rural"},{"ID":1975,"Postcode":"5411","State":"SA ","Urban Type":"Rural"},{"ID":1976,"Postcode":"5412","State":"SA ","Urban Type":"Rural"},{"ID":1977,"Postcode":"5413","State":"SA ","Urban Type":"Rural"},{"ID":1978,"Postcode":"5414","State":"SA ","Urban Type":"Rural"},{"ID":1979,"Postcode":"5415","State":"SA ","Urban Type":"Rural"},{"ID":1980,"Postcode":"5416","State":"SA ","Urban Type":"Rural"},{"ID":1981,"Postcode":"5417","State":"SA ","Urban Type":"Rural"},{"ID":1982,"Postcode":"5418","State":"SA ","Urban Type":"Rural"},{"ID":1983,"Postcode":"5419","State":"SA ","Urban Type":"Rural"},{"ID":1984,"Postcode":"5420","State":"SA ","Urban Type":"Rural"},{"ID":1985,"Postcode":"5421","State":"SA ","Urban Type":"Rural"},{"ID":1986,"Postcode":"5422","State":"SA ","Urban Type":"Rural"},{"ID":1987,"Postcode":"5431","State":"SA ","Urban Type":"Rural"},{"ID":1988,"Postcode":"5432","State":"SA ","Urban Type":"Rural"},{"ID":1989,"Postcode":"5433","State":"SA ","Urban Type":"Rural"},{"ID":1990,"Postcode":"5434","State":"SA ","Urban Type":"Rural"},{"ID":1991,"Postcode":"5440","State":"SA ","Urban Type":"Rural"},{"ID":1992,"Postcode":"5451","State":"SA ","Urban Type":"Rural"},{"ID":1993,"Postcode":"5452","State":"SA ","Urban Type":"Rural"},{"ID":1994,"Postcode":"5453","State":"SA ","Urban Type":"Rural"},{"ID":1995,"Postcode":"5454","State":"SA ","Urban Type":"Rural"},{"ID":1996,"Postcode":"5455","State":"SA ","Urban Type":"Rural"},{"ID":1997,"Postcode":"5460","State":"SA ","Urban Type":"Rural"},{"ID":1998,"Postcode":"5461","State":"SA ","Urban Type":"Rural"},{"ID":1999,"Postcode":"5462","State":"SA ","Urban Type":"Rural"},{"ID":2000,"Postcode":"5464","State":"SA ","Urban Type":"Rural"},{"ID":2001,"Postcode":"5470","State":"SA ","Urban Type":"Rural"},{"ID":2002,"Postcode":"5471","State":"SA ","Urban Type":"Rural"},{"ID":2003,"Postcode":"5472","State":"SA ","Urban Type":"Rural"},{"ID":2004,"Postcode":"5473","State":"SA ","Urban Type":"Rural"},{"ID":2005,"Postcode":"5480","State":"SA ","Urban Type":"Rural"},{"ID":2006,"Postcode":"5481","State":"SA ","Urban Type":"Rural"},{"ID":2007,"Postcode":"5482","State":"SA ","Urban Type":"Rural"},{"ID":2008,"Postcode":"5483","State":"SA ","Urban Type":"Rural"},{"ID":2009,"Postcode":"5485","State":"SA ","Urban Type":"Rural"},{"ID":2010,"Postcode":"5490","State":"SA ","Urban Type":"Rural"},{"ID":2011,"Postcode":"5491","State":"SA ","Urban Type":"Rural"},{"ID":2012,"Postcode":"5493","State":"SA ","Urban Type":"Rural"},{"ID":2013,"Postcode":"5495","State":"SA ","Urban Type":"Rural"},{"ID":2014,"Postcode":"5501","State":"SA ","Urban Type":"Rural"},{"ID":2015,"Postcode":"5502","State":"SA ","Urban Type":"Rural"},{"ID":2016,"Postcode":"5510","State":"SA ","Urban Type":"Rural"},{"ID":2017,"Postcode":"5520","State":"SA ","Urban Type":"Rural"},{"ID":2018,"Postcode":"5521","State":"SA ","Urban Type":"Rural"},{"ID":2019,"Postcode":"5522","State":"SA ","Urban Type":"Rural"},{"ID":2020,"Postcode":"5523","State":"SA ","Urban Type":"Rural"},{"ID":2021,"Postcode":"5550","State":"SA ","Urban Type":"Rural"},{"ID":2022,"Postcode":"5555","State":"SA ","Urban Type":"Rural"},{"ID":2023,"Postcode":"5556","State":"SA ","Urban Type":"Rural"},{"ID":2024,"Postcode":"5560","State":"SA ","Urban Type":"Rural"},{"ID":2025,"Postcode":"5570","State":"SA ","Urban Type":"Rural"},{"ID":2026,"Postcode":"5571","State":"SA ","Urban Type":"Rural"},{"ID":2027,"Postcode":"5572","State":"SA ","Urban Type":"Rural"},{"ID":2028,"Postcode":"5573","State":"SA ","Urban Type":"Rural"},{"ID":2029,"Postcode":"5575","State":"SA ","Urban Type":"Rural"},{"ID":2030,"Postcode":"5576","State":"SA ","Urban Type":"Rural"},{"ID":2031,"Postcode":"5577","State":"SA ","Urban Type":"Rural"},{"ID":2032,"Postcode":"5580","State":"SA ","Urban Type":"Rural"},{"ID":2033,"Postcode":"5581","State":"SA ","Urban Type":"Rural"},{"ID":2034,"Postcode":"5582","State":"SA ","Urban Type":"Rural"},{"ID":2035,"Postcode":"5583","State":"SA ","Urban Type":"Rural"},{"ID":2036,"Postcode":"5601","State":"SA ","Urban Type":"Rural"},{"ID":2037,"Postcode":"5602","State":"SA ","Urban Type":"Rural"},{"ID":2038,"Postcode":"5603","State":"SA ","Urban Type":"Rural"},{"ID":2039,"Postcode":"5604","State":"SA ","Urban Type":"Rural"},{"ID":2040,"Postcode":"5605","State":"SA ","Urban Type":"Rural"},{"ID":2041,"Postcode":"5607","State":"SA ","Urban Type":"Rural"},{"ID":2042,"Postcode":"5630","State":"SA ","Urban Type":"Rural"},{"ID":2043,"Postcode":"5631","State":"SA ","Urban Type":"Rural"},{"ID":2044,"Postcode":"5632","State":"SA ","Urban Type":"Rural"},{"ID":2045,"Postcode":"5633","State":"SA ","Urban Type":"Rural"},{"ID":2046,"Postcode":"5640","State":"SA ","Urban Type":"Rural"},{"ID":2047,"Postcode":"5641","State":"SA ","Urban Type":"Rural"},{"ID":2048,"Postcode":"5642","State":"SA ","Urban Type":"Rural"},{"ID":2049,"Postcode":"5650","State":"SA ","Urban Type":"Rural"},{"ID":2050,"Postcode":"5651","State":"SA ","Urban Type":"Rural"},{"ID":2051,"Postcode":"5652","State":"SA ","Urban Type":"Rural"},{"ID":2052,"Postcode":"5653","State":"SA ","Urban Type":"Rural"},{"ID":2053,"Postcode":"5654","State":"SA ","Urban Type":"Rural"},{"ID":2054,"Postcode":"5655","State":"SA ","Urban Type":"Rural"},{"ID":2055,"Postcode":"5660","State":"SA ","Urban Type":"Rural"},{"ID":2056,"Postcode":"5661","State":"SA ","Urban Type":"Rural"},{"ID":2057,"Postcode":"5670","State":"SA ","Urban Type":"Rural"},{"ID":2058,"Postcode":"5671","State":"SA ","Urban Type":"Rural"},{"ID":2059,"Postcode":"5680","State":"SA ","Urban Type":"Rural"},{"ID":2060,"Postcode":"5690","State":"SA ","Urban Type":"Rural"},{"ID":2061,"Postcode":"5720","State":"SA ","Urban Type":"Rural"},{"ID":2062,"Postcode":"5722","State":"SA ","Urban Type":"Rural"},{"ID":2063,"Postcode":"5723","State":"SA ","Urban Type":"Rural"},{"ID":2064,"Postcode":"5724","State":"SA ","Urban Type":"Rural"},{"ID":2065,"Postcode":"5730","State":"SA ","Urban Type":"Rural"},{"ID":2066,"Postcode":"5731","State":"SA ","Urban Type":"Rural"},{"ID":2067,"Postcode":"5732","State":"SA ","Urban Type":"Rural"},{"ID":2068,"Postcode":"5733","State":"SA ","Urban Type":"Rural"},{"ID":2069,"Postcode":"5734","State":"SA ","Urban Type":"Rural"},{"ID":2070,"Postcode":"6000","State":"WA ","Urban Type":"Major Urban"},{"ID":2071,"Postcode":"6003","State":"WA ","Urban Type":"Major Urban"},{"ID":2072,"Postcode":"6004","State":"WA ","Urban Type":"Major Urban"},{"ID":2073,"Postcode":"6005","State":"WA ","Urban Type":"Major Urban"},{"ID":2074,"Postcode":"6006","State":"WA ","Urban Type":"Major Urban"},{"ID":2075,"Postcode":"6007","State":"WA ","Urban Type":"Major Urban"},{"ID":2076,"Postcode":"6008","State":"WA ","Urban Type":"Major Urban"},{"ID":2077,"Postcode":"6009","State":"WA ","Urban Type":"Major Urban"},{"ID":2078,"Postcode":"6010","State":"WA ","Urban Type":"Major Urban"},{"ID":2079,"Postcode":"6011","State":"WA ","Urban Type":"Major Urban"},{"ID":2080,"Postcode":"6012","State":"WA ","Urban Type":"Major Urban"},{"ID":2081,"Postcode":"6014","State":"WA ","Urban Type":"Major Urban"},{"ID":2082,"Postcode":"6015","State":"WA ","Urban Type":"Major Urban"},{"ID":2083,"Postcode":"6016","State":"WA ","Urban Type":"Major Urban"},{"ID":2084,"Postcode":"6017","State":"WA ","Urban Type":"Major Urban"},{"ID":2085,"Postcode":"6018","State":"WA ","Urban Type":"Major Urban"},{"ID":2086,"Postcode":"6019","State":"WA ","Urban Type":"Major Urban"},{"ID":2087,"Postcode":"6020","State":"WA ","Urban Type":"Major Urban"},{"ID":2088,"Postcode":"6021","State":"WA ","Urban Type":"Major Urban"},{"ID":2089,"Postcode":"6022","State":"WA ","Urban Type":"Major Urban"},{"ID":2090,"Postcode":"6023","State":"WA ","Urban Type":"Major Urban"},{"ID":2091,"Postcode":"6024","State":"WA ","Urban Type":"Major Urban"},{"ID":2092,"Postcode":"6025","State":"WA ","Urban Type":"Major Urban"},{"ID":2093,"Postcode":"6026","State":"WA ","Urban Type":"Major Urban"},{"ID":2094,"Postcode":"6027","State":"WA ","Urban Type":"Major Urban"},{"ID":2095,"Postcode":"6028","State":"WA ","Urban Type":"Major Urban"},{"ID":2096,"Postcode":"6029","State":"WA ","Urban Type":"Major Urban"},{"ID":2097,"Postcode":"6030","State":"WA ","Urban Type":"Major Urban"},{"ID":2098,"Postcode":"6031","State":"WA ","Urban Type":"Major Urban"},{"ID":2099,"Postcode":"6050","State":"WA ","Urban Type":"Major Urban"},{"ID":2100,"Postcode":"6051","State":"WA ","Urban Type":"Major Urban"},{"ID":2101,"Postcode":"6052","State":"WA ","Urban Type":"Major Urban"},{"ID":2102,"Postcode":"6053","State":"WA ","Urban Type":"Major Urban"},{"ID":2103,"Postcode":"6054","State":"WA ","Urban Type":"Major Urban"},{"ID":2104,"Postcode":"6055","State":"WA ","Urban Type":"Major Urban"},{"ID":2105,"Postcode":"6056","State":"WA ","Urban Type":"Major Urban"},{"ID":2106,"Postcode":"6057","State":"WA ","Urban Type":"Major Urban"},{"ID":2107,"Postcode":"6058","State":"WA ","Urban Type":"Major Urban"},{"ID":2108,"Postcode":"6059","State":"WA ","Urban Type":"Major Urban"},{"ID":2109,"Postcode":"6060","State":"WA ","Urban Type":"Major Urban"},{"ID":2110,"Postcode":"6061","State":"WA ","Urban Type":"Major Urban"},{"ID":2111,"Postcode":"6062","State":"WA ","Urban Type":"Major Urban"},{"ID":2112,"Postcode":"6063","State":"WA ","Urban Type":"Major Urban"},{"ID":2113,"Postcode":"6064","State":"WA ","Urban Type":"Major Urban"},{"ID":2114,"Postcode":"6065","State":"WA ","Urban Type":"Major Urban"},{"ID":2115,"Postcode":"6066","State":"WA ","Urban Type":"Major Urban"},{"ID":2116,"Postcode":"6070","State":"WA ","Urban Type":"Major Urban"},{"ID":2117,"Postcode":"6071","State":"WA ","Urban Type":"Major Urban"},{"ID":2118,"Postcode":"6076","State":"WA ","Urban Type":"Major Urban"},{"ID":2119,"Postcode":"6100","State":"WA ","Urban Type":"Major Urban"},{"ID":2120,"Postcode":"6101","State":"WA ","Urban Type":"Major Urban"},{"ID":2121,"Postcode":"6102","State":"WA ","Urban Type":"Major Urban"},{"ID":2122,"Postcode":"6103","State":"WA ","Urban Type":"Major Urban"},{"ID":2123,"Postcode":"6104","State":"WA ","Urban Type":"Major Urban"},{"ID":2124,"Postcode":"6105","State":"WA ","Urban Type":"Major Urban"},{"ID":2125,"Postcode":"6106","State":"WA ","Urban Type":"Major Urban"},{"ID":2126,"Postcode":"6107","State":"WA ","Urban Type":"Major Urban"},{"ID":2127,"Postcode":"6108","State":"WA ","Urban Type":"Major Urban"},{"ID":2128,"Postcode":"6109","State":"WA ","Urban Type":"Major Urban"},{"ID":2129,"Postcode":"6110","State":"WA ","Urban Type":"Major Urban"},{"ID":2130,"Postcode":"6111","State":"WA ","Urban Type":"Major Urban"},{"ID":2131,"Postcode":"6112","State":"WA ","Urban Type":"Major Urban"},{"ID":2132,"Postcode":"6147","State":"WA ","Urban Type":"Major Urban"},{"ID":2133,"Postcode":"6148","State":"WA ","Urban Type":"Major Urban"},{"ID":2134,"Postcode":"6149","State":"WA ","Urban Type":"Major Urban"},{"ID":2135,"Postcode":"6150","State":"WA ","Urban Type":"Major Urban"},{"ID":2136,"Postcode":"6151","State":"WA ","Urban Type":"Major Urban"},{"ID":2137,"Postcode":"6152","State":"WA ","Urban Type":"Major Urban"},{"ID":2138,"Postcode":"6153","State":"WA ","Urban Type":"Major Urban"},{"ID":2139,"Postcode":"6154","State":"WA ","Urban Type":"Major Urban"},{"ID":2140,"Postcode":"6155","State":"WA ","Urban Type":"Major Urban"},{"ID":2141,"Postcode":"6156","State":"WA ","Urban Type":"Major Urban"},{"ID":2142,"Postcode":"6157","State":"WA ","Urban Type":"Major Urban"},{"ID":2143,"Postcode":"6158","State":"WA ","Urban Type":"Major Urban"},{"ID":2144,"Postcode":"6159","State":"WA ","Urban Type":"Major Urban"},{"ID":2145,"Postcode":"6160","State":"WA ","Urban Type":"Major Urban"},{"ID":2146,"Postcode":"6162","State":"WA ","Urban Type":"Major Urban"},{"ID":2147,"Postcode":"6163","State":"WA ","Urban Type":"Major Urban"},{"ID":2148,"Postcode":"6164","State":"WA ","Urban Type":"Major Urban"},{"ID":2149,"Postcode":"6166","State":"WA ","Urban Type":"Major Urban"},{"ID":2150,"Postcode":"6168","State":"WA ","Urban Type":"Minor Urban"},{"ID":2151,"Postcode":"6169","State":"WA ","Urban Type":"Minor Urban"},{"ID":2152,"Postcode":"6172","State":"WA ","Urban Type":"Minor Urban"},{"ID":2153,"Postcode":"6167","State":"WA ","Urban Type":"Large Regional"},{"ID":2154,"Postcode":"6170","State":"WA ","Urban Type":"Large Regional"},{"ID":2155,"Postcode":"6180","State":"WA ","Urban Type":"Large Regional"},{"ID":2156,"Postcode":"6210","State":"WA ","Urban Type":"Large Regional"},{"ID":2157,"Postcode":"6230","State":"WA ","Urban Type":"Large Regional"},{"ID":2158,"Postcode":"6232","State":"WA ","Urban Type":"Large Regional"},{"ID":2159,"Postcode":"6233","State":"WA ","Urban Type":"Large Regional"},{"ID":2160,"Postcode":"6280","State":"WA ","Urban Type":"Large Regional"},{"ID":2161,"Postcode":"6330","State":"WA ","Urban Type":"Large Regional"},{"ID":2162,"Postcode":"6430","State":"WA ","Urban Type":"Large Regional"},{"ID":2163,"Postcode":"6432","State":"WA ","Urban Type":"Large Regional"},{"ID":2164,"Postcode":"6530","State":"WA ","Urban Type":"Large Regional"},{"ID":2165,"Postcode":"6714","State":"WA ","Urban Type":"Large Regional"},{"ID":2166,"Postcode":"6721","State":"WA ","Urban Type":"Large Regional"},{"ID":2167,"Postcode":"6722","State":"WA ","Urban Type":"Large Regional"},{"ID":2168,"Postcode":"6723","State":"WA ","Urban Type":"Large Regional"},{"ID":2169,"Postcode":"6725","State":"WA ","Urban Type":"Large Regional"},{"ID":2170,"Postcode":"6726","State":"WA ","Urban Type":"Large Regional"},{"ID":2171,"Postcode":"6069","State":"WA ","Urban Type":"Small Regional"},{"ID":2172,"Postcode":"6173","State":"WA ","Urban Type":"Small Regional"},{"ID":2173,"Postcode":"6174","State":"WA ","Urban Type":"Small Regional"},{"ID":2174,"Postcode":"6175","State":"WA ","Urban Type":"Small Regional"},{"ID":2175,"Postcode":"6225","State":"WA ","Urban Type":"Small Regional"},{"ID":2176,"Postcode":"6258","State":"WA ","Urban Type":"Small Regional"},{"ID":2177,"Postcode":"6285","State":"WA ","Urban Type":"Small Regional"},{"ID":2178,"Postcode":"6312","State":"WA ","Urban Type":"Small Regional"},{"ID":2179,"Postcode":"6313","State":"WA ","Urban Type":"Small Regional"},{"ID":2180,"Postcode":"6317","State":"WA ","Urban Type":"Small Regional"},{"ID":2181,"Postcode":"6401","State":"WA ","Urban Type":"Small Regional"},{"ID":2182,"Postcode":"6403","State":"WA ","Urban Type":"Small Regional"},{"ID":2183,"Postcode":"6450","State":"WA ","Urban Type":"Small Regional"},{"ID":2184,"Postcode":"6452","State":"WA ","Urban Type":"Small Regional"},{"ID":2185,"Postcode":"6701","State":"WA ","Urban Type":"Small Regional"},{"ID":2186,"Postcode":"6707","State":"WA ","Urban Type":"Small Regional"},{"ID":2187,"Postcode":"6728","State":"WA ","Urban Type":"Small Regional"},{"ID":2188,"Postcode":"6731","State":"WA ","Urban Type":"Small Regional"},{"ID":2189,"Postcode":"6733","State":"WA ","Urban Type":"Small Regional"},{"ID":2190,"Postcode":"6743","State":"WA ","Urban Type":"Small Regional"},{"ID":2191,"Postcode":"6751","State":"WA ","Urban Type":"Small Regional"},{"ID":2192,"Postcode":"6753","State":"WA ","Urban Type":"Small Regional"},{"ID":2193,"Postcode":"6032","State":"WA ","Urban Type":"Rural"},{"ID":2194,"Postcode":"6033","State":"WA ","Urban Type":"Rural"},{"ID":2195,"Postcode":"6034","State":"WA ","Urban Type":"Rural"},{"ID":2196,"Postcode":"6035","State":"WA ","Urban Type":"Rural"},{"ID":2197,"Postcode":"6036","State":"WA ","Urban Type":"Rural"},{"ID":2198,"Postcode":"6037","State":"WA ","Urban Type":"Rural"},{"ID":2199,"Postcode":"6038","State":"WA ","Urban Type":"Rural"},{"ID":2200,"Postcode":"6041","State":"WA ","Urban Type":"Rural"},{"ID":2201,"Postcode":"6042","State":"WA ","Urban Type":"Rural"},{"ID":2202,"Postcode":"6043","State":"WA ","Urban Type":"Rural"},{"ID":2203,"Postcode":"6044","State":"WA ","Urban Type":"Rural"},{"ID":2204,"Postcode":"6067","State":"WA ","Urban Type":"Rural"},{"ID":2205,"Postcode":"6068","State":"WA ","Urban Type":"Rural"},{"ID":2206,"Postcode":"6072","State":"WA ","Urban Type":"Rural"},{"ID":2207,"Postcode":"6073","State":"WA ","Urban Type":"Rural"},{"ID":2208,"Postcode":"6074","State":"WA ","Urban Type":"Rural"},{"ID":2209,"Postcode":"6081","State":"WA ","Urban Type":"Rural"},{"ID":2210,"Postcode":"6082","State":"WA ","Urban Type":"Rural"},{"ID":2211,"Postcode":"6083","State":"WA ","Urban Type":"Rural"},{"ID":2212,"Postcode":"6084","State":"WA ","Urban Type":"Rural"},{"ID":2213,"Postcode":"6090","State":"WA ","Urban Type":"Rural"},{"ID":2214,"Postcode":"6121","State":"WA ","Urban Type":"Rural"},{"ID":2215,"Postcode":"6122","State":"WA ","Urban Type":"Rural"},{"ID":2216,"Postcode":"6123","State":"WA ","Urban Type":"Rural"},{"ID":2217,"Postcode":"6124","State":"WA ","Urban Type":"Rural"},{"ID":2218,"Postcode":"6125","State":"WA ","Urban Type":"Rural"},{"ID":2219,"Postcode":"6126","State":"WA ","Urban Type":"Rural"},{"ID":2220,"Postcode":"6161","State":"WA ","Urban Type":"Rural"},{"ID":2221,"Postcode":"6165","State":"WA ","Urban Type":"Rural"},{"ID":2222,"Postcode":"6171","State":"WA ","Urban Type":"Rural"},{"ID":2223,"Postcode":"6176","State":"WA ","Urban Type":"Rural"},{"ID":2224,"Postcode":"6207","State":"WA ","Urban Type":"Rural"},{"ID":2225,"Postcode":"6208","State":"WA ","Urban Type":"Rural"},{"ID":2226,"Postcode":"6213","State":"WA ","Urban Type":"Rural"},{"ID":2227,"Postcode":"6214","State":"WA ","Urban Type":"Rural"},{"ID":2228,"Postcode":"6215","State":"WA ","Urban Type":"Rural"},{"ID":2229,"Postcode":"6218","State":"WA ","Urban Type":"Rural"},{"ID":2230,"Postcode":"6220","State":"WA ","Urban Type":"Rural"},{"ID":2231,"Postcode":"6221","State":"WA ","Urban Type":"Rural"},{"ID":2232,"Postcode":"6223","State":"WA ","Urban Type":"Rural"},{"ID":2233,"Postcode":"6224","State":"WA ","Urban Type":"Rural"},{"ID":2234,"Postcode":"6226","State":"WA ","Urban Type":"Rural"},{"ID":2235,"Postcode":"6227","State":"WA ","Urban Type":"Rural"},{"ID":2236,"Postcode":"6228","State":"WA ","Urban Type":"Rural"},{"ID":2237,"Postcode":"6229","State":"WA ","Urban Type":"Rural"},{"ID":2238,"Postcode":"6236","State":"WA ","Urban Type":"Rural"},{"ID":2239,"Postcode":"6237","State":"WA ","Urban Type":"Rural"},{"ID":2240,"Postcode":"6239","State":"WA ","Urban Type":"Rural"},{"ID":2241,"Postcode":"6240","State":"WA ","Urban Type":"Rural"},{"ID":2242,"Postcode":"6243","State":"WA ","Urban Type":"Rural"},{"ID":2243,"Postcode":"6244","State":"WA ","Urban Type":"Rural"},{"ID":2244,"Postcode":"6251","State":"WA ","Urban Type":"Rural"},{"ID":2245,"Postcode":"6252","State":"WA ","Urban Type":"Rural"},{"ID":2246,"Postcode":"6253","State":"WA ","Urban Type":"Rural"},{"ID":2247,"Postcode":"6254","State":"WA ","Urban Type":"Rural"},{"ID":2248,"Postcode":"6255","State":"WA ","Urban Type":"Rural"},{"ID":2249,"Postcode":"6256","State":"WA ","Urban Type":"Rural"},{"ID":2250,"Postcode":"6260","State":"WA ","Urban Type":"Rural"},{"ID":2251,"Postcode":"6262","State":"WA ","Urban Type":"Rural"},{"ID":2252,"Postcode":"6271","State":"WA ","Urban Type":"Rural"},{"ID":2253,"Postcode":"6275","State":"WA ","Urban Type":"Rural"},{"ID":2254,"Postcode":"6281","State":"WA ","Urban Type":"Rural"},{"ID":2255,"Postcode":"6282","State":"WA ","Urban Type":"Rural"},{"ID":2256,"Postcode":"6284","State":"WA ","Urban Type":"Rural"},{"ID":2257,"Postcode":"6286","State":"WA ","Urban Type":"Rural"},{"ID":2258,"Postcode":"6288","State":"WA ","Urban Type":"Rural"},{"ID":2259,"Postcode":"6290","State":"WA ","Urban Type":"Rural"},{"ID":2260,"Postcode":"6302","State":"WA ","Urban Type":"Rural"},{"ID":2261,"Postcode":"6304","State":"WA ","Urban Type":"Rural"},{"ID":2262,"Postcode":"6306","State":"WA ","Urban Type":"Rural"},{"ID":2263,"Postcode":"6308","State":"WA ","Urban Type":"Rural"},{"ID":2264,"Postcode":"6309","State":"WA ","Urban Type":"Rural"},{"ID":2265,"Postcode":"6311","State":"WA ","Urban Type":"Rural"},{"ID":2266,"Postcode":"6315","State":"WA ","Urban Type":"Rural"},{"ID":2267,"Postcode":"6316","State":"WA ","Urban Type":"Rural"},{"ID":2268,"Postcode":"6318","State":"WA ","Urban Type":"Rural"},{"ID":2269,"Postcode":"6320","State":"WA ","Urban Type":"Rural"},{"ID":2270,"Postcode":"6321","State":"WA ","Urban Type":"Rural"},{"ID":2271,"Postcode":"6322","State":"WA ","Urban Type":"Rural"},{"ID":2272,"Postcode":"6323","State":"WA ","Urban Type":"Rural"},{"ID":2273,"Postcode":"6324","State":"WA ","Urban Type":"Rural"},{"ID":2274,"Postcode":"6326","State":"WA ","Urban Type":"Rural"},{"ID":2275,"Postcode":"6327","State":"WA ","Urban Type":"Rural"},{"ID":2276,"Postcode":"6328","State":"WA ","Urban Type":"Rural"},{"ID":2277,"Postcode":"6333","State":"WA ","Urban Type":"Rural"},{"ID":2278,"Postcode":"6335","State":"WA ","Urban Type":"Rural"},{"ID":2279,"Postcode":"6336","State":"WA ","Urban Type":"Rural"},{"ID":2280,"Postcode":"6337","State":"WA ","Urban Type":"Rural"},{"ID":2281,"Postcode":"6338","State":"WA ","Urban Type":"Rural"},{"ID":2282,"Postcode":"6341","State":"WA ","Urban Type":"Rural"},{"ID":2283,"Postcode":"6343","State":"WA ","Urban Type":"Rural"},{"ID":2284,"Postcode":"6346","State":"WA ","Urban Type":"Rural"},{"ID":2285,"Postcode":"6348","State":"WA ","Urban Type":"Rural"},{"ID":2286,"Postcode":"6350","State":"WA ","Urban Type":"Rural"},{"ID":2287,"Postcode":"6351","State":"WA ","Urban Type":"Rural"},{"ID":2288,"Postcode":"6352","State":"WA ","Urban Type":"Rural"},{"ID":2289,"Postcode":"6353","State":"WA ","Urban Type":"Rural"},{"ID":2290,"Postcode":"6355","State":"WA ","Urban Type":"Rural"},{"ID":2291,"Postcode":"6356","State":"WA ","Urban Type":"Rural"},{"ID":2292,"Postcode":"6357","State":"WA ","Urban Type":"Rural"},{"ID":2293,"Postcode":"6358","State":"WA ","Urban Type":"Rural"},{"ID":2294,"Postcode":"6359","State":"WA ","Urban Type":"Rural"},{"ID":2295,"Postcode":"6361","State":"WA ","Urban Type":"Rural"},{"ID":2296,"Postcode":"6363","State":"WA ","Urban Type":"Rural"},{"ID":2297,"Postcode":"6365","State":"WA ","Urban Type":"Rural"},{"ID":2298,"Postcode":"6367","State":"WA ","Urban Type":"Rural"},{"ID":2299,"Postcode":"6368","State":"WA ","Urban Type":"Rural"},{"ID":2300,"Postcode":"6369","State":"WA ","Urban Type":"Rural"},{"ID":2301,"Postcode":"6370","State":"WA ","Urban Type":"Rural"},{"ID":2302,"Postcode":"6372","State":"WA ","Urban Type":"Rural"},{"ID":2303,"Postcode":"6373","State":"WA ","Urban Type":"Rural"},{"ID":2304,"Postcode":"6375","State":"WA ","Urban Type":"Rural"},{"ID":2305,"Postcode":"6383","State":"WA ","Urban Type":"Rural"},{"ID":2306,"Postcode":"6384","State":"WA ","Urban Type":"Rural"},{"ID":2307,"Postcode":"6385","State":"WA ","Urban Type":"Rural"},{"ID":2308,"Postcode":"6386","State":"WA ","Urban Type":"Rural"},{"ID":2309,"Postcode":"6390","State":"WA ","Urban Type":"Rural"},{"ID":2310,"Postcode":"6391","State":"WA ","Urban Type":"Rural"},{"ID":2311,"Postcode":"6392","State":"WA ","Urban Type":"Rural"},{"ID":2312,"Postcode":"6393","State":"WA ","Urban Type":"Rural"},{"ID":2313,"Postcode":"6394","State":"WA ","Urban Type":"Rural"},{"ID":2314,"Postcode":"6395","State":"WA ","Urban Type":"Rural"},{"ID":2315,"Postcode":"6396","State":"WA ","Urban Type":"Rural"},{"ID":2316,"Postcode":"6397","State":"WA ","Urban Type":"Rural"},{"ID":2317,"Postcode":"6398","State":"WA ","Urban Type":"Rural"},{"ID":2318,"Postcode":"6405","State":"WA ","Urban Type":"Rural"},{"ID":2319,"Postcode":"6407","State":"WA ","Urban Type":"Rural"},{"ID":2320,"Postcode":"6409","State":"WA ","Urban Type":"Rural"},{"ID":2321,"Postcode":"6410","State":"WA ","Urban Type":"Rural"},{"ID":2322,"Postcode":"6411","State":"WA ","Urban Type":"Rural"},{"ID":2323,"Postcode":"6412","State":"WA ","Urban Type":"Rural"},{"ID":2324,"Postcode":"6413","State":"WA ","Urban Type":"Rural"},{"ID":2325,"Postcode":"6414","State":"WA ","Urban Type":"Rural"},{"ID":2326,"Postcode":"6415","State":"WA ","Urban Type":"Rural"},{"ID":2327,"Postcode":"6418","State":"WA ","Urban Type":"Rural"},{"ID":2328,"Postcode":"6419","State":"WA ","Urban Type":"Rural"},{"ID":2329,"Postcode":"6420","State":"WA ","Urban Type":"Rural"},{"ID":2330,"Postcode":"6421","State":"WA ","Urban Type":"Rural"},{"ID":2331,"Postcode":"6422","State":"WA ","Urban Type":"Rural"},{"ID":2332,"Postcode":"6423","State":"WA ","Urban Type":"Rural"},{"ID":2333,"Postcode":"6424","State":"WA ","Urban Type":"Rural"},{"ID":2334,"Postcode":"6425","State":"WA ","Urban Type":"Rural"},{"ID":2335,"Postcode":"6426","State":"WA ","Urban Type":"Rural"},{"ID":2336,"Postcode":"6427","State":"WA ","Urban Type":"Rural"},{"ID":2337,"Postcode":"6428","State":"WA ","Urban Type":"Rural"},{"ID":2338,"Postcode":"6429","State":"WA ","Urban Type":"Rural"},{"ID":2339,"Postcode":"6431","State":"WA ","Urban Type":"Rural"},{"ID":2340,"Postcode":"6434","State":"WA ","Urban Type":"Rural"},{"ID":2341,"Postcode":"6435","State":"WA ","Urban Type":"Rural"},{"ID":2342,"Postcode":"6436","State":"WA ","Urban Type":"Rural"},{"ID":2343,"Postcode":"6437","State":"WA ","Urban Type":"Rural"},{"ID":2344,"Postcode":"6438","State":"WA ","Urban Type":"Rural"},{"ID":2345,"Postcode":"6440","State":"WA ","Urban Type":"Rural"},{"ID":2346,"Postcode":"6442","State":"WA ","Urban Type":"Rural"},{"ID":2347,"Postcode":"6443","State":"WA ","Urban Type":"Rural"},{"ID":2348,"Postcode":"6445","State":"WA ","Urban Type":"Rural"},{"ID":2349,"Postcode":"6446","State":"WA ","Urban Type":"Rural"},{"ID":2350,"Postcode":"6447","State":"WA ","Urban Type":"Rural"},{"ID":2351,"Postcode":"6448","State":"WA ","Urban Type":"Rural"},{"ID":2352,"Postcode":"6460","State":"WA ","Urban Type":"Rural"},{"ID":2353,"Postcode":"6461","State":"WA ","Urban Type":"Rural"},{"ID":2354,"Postcode":"6462","State":"WA ","Urban Type":"Rural"},{"ID":2355,"Postcode":"6463","State":"WA ","Urban Type":"Rural"},{"ID":2356,"Postcode":"6465","State":"WA ","Urban Type":"Rural"},{"ID":2357,"Postcode":"6466","State":"WA ","Urban Type":"Rural"},{"ID":2358,"Postcode":"6467","State":"WA ","Urban Type":"Rural"},{"ID":2359,"Postcode":"6468","State":"WA ","Urban Type":"Rural"},{"ID":2360,"Postcode":"6470","State":"WA ","Urban Type":"Rural"},{"ID":2361,"Postcode":"6472","State":"WA ","Urban Type":"Rural"},{"ID":2362,"Postcode":"6473","State":"WA ","Urban Type":"Rural"},{"ID":2363,"Postcode":"6475","State":"WA ","Urban Type":"Rural"},{"ID":2364,"Postcode":"6476","State":"WA ","Urban Type":"Rural"},{"ID":2365,"Postcode":"6477","State":"WA ","Urban Type":"Rural"},{"ID":2366,"Postcode":"6479","State":"WA ","Urban Type":"Rural"},{"ID":2367,"Postcode":"6480","State":"WA ","Urban Type":"Rural"},{"ID":2368,"Postcode":"6484","State":"WA ","Urban Type":"Rural"},{"ID":2369,"Postcode":"6485","State":"WA ","Urban Type":"Rural"},{"ID":2370,"Postcode":"6487","State":"WA ","Urban Type":"Rural"},{"ID":2371,"Postcode":"6488","State":"WA ","Urban Type":"Rural"},{"ID":2372,"Postcode":"6489","State":"WA ","Urban Type":"Rural"},{"ID":2373,"Postcode":"6490","State":"WA ","Urban Type":"Rural"},{"ID":2374,"Postcode":"6501","State":"WA ","Urban Type":"Rural"},{"ID":2375,"Postcode":"6502","State":"WA ","Urban Type":"Rural"},{"ID":2376,"Postcode":"6503","State":"WA ","Urban Type":"Rural"},{"ID":2377,"Postcode":"6504","State":"WA ","Urban Type":"Rural"},{"ID":2378,"Postcode":"6505","State":"WA ","Urban Type":"Rural"},{"ID":2379,"Postcode":"6506","State":"WA ","Urban Type":"Rural"},{"ID":2380,"Postcode":"6507","State":"WA ","Urban Type":"Rural"},{"ID":2381,"Postcode":"6509","State":"WA ","Urban Type":"Rural"},{"ID":2382,"Postcode":"6510","State":"WA ","Urban Type":"Rural"},{"ID":2383,"Postcode":"6511","State":"WA ","Urban Type":"Rural"},{"ID":2384,"Postcode":"6512","State":"WA ","Urban Type":"Rural"},{"ID":2385,"Postcode":"6513","State":"WA ","Urban Type":"Rural"},{"ID":2386,"Postcode":"6514","State":"WA ","Urban Type":"Rural"},{"ID":2387,"Postcode":"6515","State":"WA ","Urban Type":"Rural"},{"ID":2388,"Postcode":"6516","State":"WA ","Urban Type":"Rural"},{"ID":2389,"Postcode":"6517","State":"WA ","Urban Type":"Rural"},{"ID":2390,"Postcode":"6518","State":"WA ","Urban Type":"Rural"},{"ID":2391,"Postcode":"6519","State":"WA ","Urban Type":"Rural"},{"ID":2392,"Postcode":"6521","State":"WA ","Urban Type":"Rural"},{"ID":2393,"Postcode":"6522","State":"WA ","Urban Type":"Rural"},{"ID":2394,"Postcode":"6525","State":"WA ","Urban Type":"Rural"},{"ID":2395,"Postcode":"6528","State":"WA ","Urban Type":"Rural"},{"ID":2396,"Postcode":"6532","State":"WA ","Urban Type":"Rural"},{"ID":2397,"Postcode":"6535","State":"WA ","Urban Type":"Rural"},{"ID":2398,"Postcode":"6536","State":"WA ","Urban Type":"Rural"},{"ID":2399,"Postcode":"6537","State":"WA ","Urban Type":"Rural"},{"ID":2400,"Postcode":"6556","State":"WA ","Urban Type":"Rural"},{"ID":2401,"Postcode":"6558","State":"WA ","Urban Type":"Rural"},{"ID":2402,"Postcode":"6560","State":"WA ","Urban Type":"Rural"},{"ID":2403,"Postcode":"6562","State":"WA ","Urban Type":"Rural"},{"ID":2404,"Postcode":"6564","State":"WA ","Urban Type":"Rural"},{"ID":2405,"Postcode":"6566","State":"WA ","Urban Type":"Rural"},{"ID":2406,"Postcode":"6567","State":"WA ","Urban Type":"Rural"},{"ID":2407,"Postcode":"6568","State":"WA ","Urban Type":"Rural"},{"ID":2408,"Postcode":"6569","State":"WA ","Urban Type":"Rural"},{"ID":2409,"Postcode":"6571","State":"WA ","Urban Type":"Rural"},{"ID":2410,"Postcode":"6572","State":"WA ","Urban Type":"Rural"},{"ID":2411,"Postcode":"6574","State":"WA ","Urban Type":"Rural"},{"ID":2412,"Postcode":"6575","State":"WA ","Urban Type":"Rural"},{"ID":2413,"Postcode":"6603","State":"WA ","Urban Type":"Rural"},{"ID":2414,"Postcode":"6605","State":"WA ","Urban Type":"Rural"},{"ID":2415,"Postcode":"6606","State":"WA ","Urban Type":"Rural"},{"ID":2416,"Postcode":"6608","State":"WA ","Urban Type":"Rural"},{"ID":2417,"Postcode":"6609","State":"WA ","Urban Type":"Rural"},{"ID":2418,"Postcode":"6612","State":"WA ","Urban Type":"Rural"},{"ID":2419,"Postcode":"6613","State":"WA ","Urban Type":"Rural"},{"ID":2420,"Postcode":"6614","State":"WA ","Urban Type":"Rural"},{"ID":2421,"Postcode":"6616","State":"WA ","Urban Type":"Rural"},{"ID":2422,"Postcode":"6620","State":"WA ","Urban Type":"Rural"},{"ID":2423,"Postcode":"6623","State":"WA ","Urban Type":"Rural"},{"ID":2424,"Postcode":"6625","State":"WA ","Urban Type":"Rural"},{"ID":2425,"Postcode":"6627","State":"WA ","Urban Type":"Rural"},{"ID":2426,"Postcode":"6628","State":"WA ","Urban Type":"Rural"},{"ID":2427,"Postcode":"6630","State":"WA ","Urban Type":"Rural"},{"ID":2428,"Postcode":"6631","State":"WA ","Urban Type":"Rural"},{"ID":2429,"Postcode":"6632","State":"WA ","Urban Type":"Rural"},{"ID":2430,"Postcode":"6635","State":"WA ","Urban Type":"Rural"},{"ID":2431,"Postcode":"6638","State":"WA ","Urban Type":"Rural"},{"ID":2432,"Postcode":"6639","State":"WA ","Urban Type":"Rural"},{"ID":2433,"Postcode":"6640","State":"WA ","Urban Type":"Rural"},{"ID":2434,"Postcode":"6642","State":"WA ","Urban Type":"Rural"},{"ID":2435,"Postcode":"6646","State":"WA ","Urban Type":"Rural"},{"ID":2436,"Postcode":"6705","State":"WA ","Urban Type":"Rural"},{"ID":2437,"Postcode":"6710","State":"WA ","Urban Type":"Rural"},{"ID":2438,"Postcode":"6711","State":"WA ","Urban Type":"Rural"},{"ID":2439,"Postcode":"6712","State":"WA ","Urban Type":"Rural"},{"ID":2440,"Postcode":"6713","State":"WA ","Urban Type":"Rural"},{"ID":2441,"Postcode":"6716","State":"WA ","Urban Type":"Rural"},{"ID":2442,"Postcode":"6718","State":"WA ","Urban Type":"Rural"},{"ID":2443,"Postcode":"6720","State":"WA ","Urban Type":"Rural"},{"ID":2444,"Postcode":"6740","State":"WA ","Urban Type":"Rural"},{"ID":2445,"Postcode":"6754","State":"WA ","Urban Type":"Rural"},{"ID":2446,"Postcode":"6758","State":"WA ","Urban Type":"Rural"},{"ID":2447,"Postcode":"6760","State":"WA ","Urban Type":"Rural"},{"ID":2448,"Postcode":"6761","State":"WA ","Urban Type":"Rural"},{"ID":2449,"Postcode":"6762","State":"WA ","Urban Type":"Rural"},{"ID":2450,"Postcode":"6765","State":"WA ","Urban Type":"Rural"},{"ID":2451,"Postcode":"6770","State":"WA ","Urban Type":"Rural"},{"ID":2452,"Postcode":"6798","State":"WA ","Urban Type":"Rural"},{"ID":2453,"Postcode":"6799","State":"WA ","Urban Type":"Rural"},{"ID":2454,"Postcode":"7000","State":"TAS","Urban Type":"Major Urban"},{"ID":2455,"Postcode":"7001","State":"TAS","Urban Type":"Major Urban"},{"ID":2456,"Postcode":"7004","State":"TAS","Urban Type":"Major Urban"},{"ID":2457,"Postcode":"7005","State":"TAS","Urban Type":"Major Urban"},{"ID":2458,"Postcode":"7007","State":"TAS","Urban Type":"Major Urban"},{"ID":2459,"Postcode":"7008","State":"TAS","Urban Type":"Major Urban"},{"ID":2460,"Postcode":"7009","State":"TAS","Urban Type":"Major Urban"},{"ID":2461,"Postcode":"7010","State":"TAS","Urban Type":"Major Urban"},{"ID":2462,"Postcode":"7011","State":"TAS","Urban Type":"Major Urban"},{"ID":2463,"Postcode":"7015","State":"TAS","Urban Type":"Major Urban"},{"ID":2464,"Postcode":"7016","State":"TAS","Urban Type":"Major Urban"},{"ID":2465,"Postcode":"7018","State":"TAS","Urban Type":"Major Urban"},{"ID":2466,"Postcode":"7019","State":"TAS","Urban Type":"Major Urban"},{"ID":2467,"Postcode":"7053","State":"TAS","Urban Type":"Major Urban"},{"ID":2468,"Postcode":"7248","State":"TAS","Urban Type":"Minor Urban"},{"ID":2469,"Postcode":"7249","State":"TAS","Urban Type":"Minor Urban"},{"ID":2470,"Postcode":"7250","State":"TAS","Urban Type":"Minor Urban"},{"ID":2471,"Postcode":"7050","State":"TAS","Urban Type":"Large Regional"},{"ID":2472,"Postcode":"7052","State":"TAS","Urban Type":"Large Regional"},{"ID":2473,"Postcode":"7055","State":"TAS","Urban Type":"Large Regional"},{"ID":2474,"Postcode":"7310","State":"TAS","Urban Type":"Large Regional"},{"ID":2475,"Postcode":"7320","State":"TAS","Urban Type":"Large Regional"},{"ID":2476,"Postcode":"7322","State":"TAS","Urban Type":"Large Regional"},{"ID":2477,"Postcode":"7030","State":"TAS","Urban Type":"Small Regional"},{"ID":2478,"Postcode":"7171","State":"TAS","Urban Type":"Small Regional"},{"ID":2479,"Postcode":"7253","State":"TAS","Urban Type":"Small Regional"},{"ID":2480,"Postcode":"7315","State":"TAS","Urban Type":"Small Regional"},{"ID":2481,"Postcode":"7325","State":"TAS","Urban Type":"Small Regional"},{"ID":2482,"Postcode":"7012","State":"TAS","Urban Type":"Rural"},{"ID":2483,"Postcode":"7017","State":"TAS","Urban Type":"Rural"},{"ID":2484,"Postcode":"7020","State":"TAS","Urban Type":"Rural"},{"ID":2485,"Postcode":"7021","State":"TAS","Urban Type":"Rural"},{"ID":2486,"Postcode":"7022","State":"TAS","Urban Type":"Rural"},{"ID":2487,"Postcode":"7023","State":"TAS","Urban Type":"Rural"},{"ID":2488,"Postcode":"7024","State":"TAS","Urban Type":"Rural"},{"ID":2489,"Postcode":"7025","State":"TAS","Urban Type":"Rural"},{"ID":2490,"Postcode":"7026","State":"TAS","Urban Type":"Rural"},{"ID":2491,"Postcode":"7027","State":"TAS","Urban Type":"Rural"},{"ID":2492,"Postcode":"7054","State":"TAS","Urban Type":"Rural"},{"ID":2493,"Postcode":"7109","State":"TAS","Urban Type":"Rural"},{"ID":2494,"Postcode":"7112","State":"TAS","Urban Type":"Rural"},{"ID":2495,"Postcode":"7113","State":"TAS","Urban Type":"Rural"},{"ID":2496,"Postcode":"7116","State":"TAS","Urban Type":"Rural"},{"ID":2497,"Postcode":"7117","State":"TAS","Urban Type":"Rural"},{"ID":2498,"Postcode":"7119","State":"TAS","Urban Type":"Rural"},{"ID":2499,"Postcode":"7120","State":"TAS","Urban Type":"Rural"},{"ID":2500,"Postcode":"7139","State":"TAS","Urban Type":"Rural"},{"ID":2501,"Postcode":"7140","State":"TAS","Urban Type":"Rural"},{"ID":2502,"Postcode":"7150","State":"TAS","Urban Type":"Rural"},{"ID":2503,"Postcode":"7151","State":"TAS","Urban Type":"Rural"},{"ID":2504,"Postcode":"7155","State":"TAS","Urban Type":"Rural"},{"ID":2505,"Postcode":"7162","State":"TAS","Urban Type":"Rural"},{"ID":2506,"Postcode":"7163","State":"TAS","Urban Type":"Rural"},{"ID":2507,"Postcode":"7170","State":"TAS","Urban Type":"Rural"},{"ID":2508,"Postcode":"7172","State":"TAS","Urban Type":"Rural"},{"ID":2509,"Postcode":"7173","State":"TAS","Urban Type":"Rural"},{"ID":2510,"Postcode":"7174","State":"TAS","Urban Type":"Rural"},{"ID":2511,"Postcode":"7175","State":"TAS","Urban Type":"Rural"},{"ID":2512,"Postcode":"7176","State":"TAS","Urban Type":"Rural"},{"ID":2513,"Postcode":"7177","State":"TAS","Urban Type":"Rural"},{"ID":2514,"Postcode":"7178","State":"TAS","Urban Type":"Rural"},{"ID":2515,"Postcode":"7179","State":"TAS","Urban Type":"Rural"},{"ID":2516,"Postcode":"7180","State":"TAS","Urban Type":"Rural"},{"ID":2517,"Postcode":"7182","State":"TAS","Urban Type":"Rural"},{"ID":2518,"Postcode":"7183","State":"TAS","Urban Type":"Rural"},{"ID":2519,"Postcode":"7184","State":"TAS","Urban Type":"Rural"},{"ID":2520,"Postcode":"7185","State":"TAS","Urban Type":"Rural"},{"ID":2521,"Postcode":"7186","State":"TAS","Urban Type":"Rural"},{"ID":2522,"Postcode":"7187","State":"TAS","Urban Type":"Rural"},{"ID":2523,"Postcode":"7190","State":"TAS","Urban Type":"Rural"},{"ID":2524,"Postcode":"7209","State":"TAS","Urban Type":"Rural"},{"ID":2525,"Postcode":"7210","State":"TAS","Urban Type":"Rural"},{"ID":2526,"Postcode":"7211","State":"TAS","Urban Type":"Rural"},{"ID":2527,"Postcode":"7212","State":"TAS","Urban Type":"Rural"},{"ID":2528,"Postcode":"7213","State":"TAS","Urban Type":"Rural"},{"ID":2529,"Postcode":"7214","State":"TAS","Urban Type":"Rural"},{"ID":2530,"Postcode":"7215","State":"TAS","Urban Type":"Rural"},{"ID":2531,"Postcode":"7216","State":"TAS","Urban Type":"Rural"},{"ID":2532,"Postcode":"7252","State":"TAS","Urban Type":"Rural"},{"ID":2533,"Postcode":"7254","State":"TAS","Urban Type":"Rural"},{"ID":2534,"Postcode":"7255","State":"TAS","Urban Type":"Rural"},{"ID":2535,"Postcode":"7256","State":"TAS","Urban Type":"Rural"},{"ID":2536,"Postcode":"7257","State":"TAS","Urban Type":"Rural"},{"ID":2537,"Postcode":"7258","State":"TAS","Urban Type":"Rural"},{"ID":2538,"Postcode":"7259","State":"TAS","Urban Type":"Rural"},{"ID":2539,"Postcode":"7260","State":"TAS","Urban Type":"Rural"},{"ID":2540,"Postcode":"7261","State":"TAS","Urban Type":"Rural"},{"ID":2541,"Postcode":"7262","State":"TAS","Urban Type":"Rural"},{"ID":2542,"Postcode":"7263","State":"TAS","Urban Type":"Rural"},{"ID":2543,"Postcode":"7264","State":"TAS","Urban Type":"Rural"},{"ID":2544,"Postcode":"7265","State":"TAS","Urban Type":"Rural"},{"ID":2545,"Postcode":"7267","State":"TAS","Urban Type":"Rural"},{"ID":2546,"Postcode":"7268","State":"TAS","Urban Type":"Rural"},{"ID":2547,"Postcode":"7270","State":"TAS","Urban Type":"Rural"},{"ID":2548,"Postcode":"7275","State":"TAS","Urban Type":"Rural"},{"ID":2549,"Postcode":"7276","State":"TAS","Urban Type":"Rural"},{"ID":2550,"Postcode":"7277","State":"TAS","Urban Type":"Rural"},{"ID":2551,"Postcode":"7290","State":"TAS","Urban Type":"Rural"},{"ID":2552,"Postcode":"7291","State":"TAS","Urban Type":"Rural"},{"ID":2553,"Postcode":"7292","State":"TAS","Urban Type":"Rural"},{"ID":2554,"Postcode":"7300","State":"TAS","Urban Type":"Rural"},{"ID":2555,"Postcode":"7301","State":"TAS","Urban Type":"Rural"},{"ID":2556,"Postcode":"7302","State":"TAS","Urban Type":"Rural"},{"ID":2557,"Postcode":"7303","State":"TAS","Urban Type":"Rural"},{"ID":2558,"Postcode":"7304","State":"TAS","Urban Type":"Rural"},{"ID":2559,"Postcode":"7305","State":"TAS","Urban Type":"Rural"},{"ID":2560,"Postcode":"7306","State":"TAS","Urban Type":"Rural"},{"ID":2561,"Postcode":"7307","State":"TAS","Urban Type":"Rural"},{"ID":2562,"Postcode":"7316","State":"TAS","Urban Type":"Rural"},{"ID":2563,"Postcode":"7321","State":"TAS","Urban Type":"Rural"},{"ID":2564,"Postcode":"7330","State":"TAS","Urban Type":"Rural"},{"ID":2565,"Postcode":"7331","State":"TAS","Urban Type":"Rural"},{"ID":2566,"Postcode":"7466","State":"TAS","Urban Type":"Rural"},{"ID":2567,"Postcode":"7467","State":"TAS","Urban Type":"Rural"},{"ID":2568,"Postcode":"7468","State":"TAS","Urban Type":"Rural"},{"ID":2569,"Postcode":"7469","State":"TAS","Urban Type":"Rural"},{"ID":2570,"Postcode":"7470","State":"TAS","Urban Type":"Rural"},{"ID":2571,"Postcode":"0800","State":"NT ","Urban Type":"Major Urban"},{"ID":2572,"Postcode":"0810","State":"NT ","Urban Type":"Major Urban"},{"ID":2573,"Postcode":"0812","State":"NT ","Urban Type":"Major Urban"},{"ID":2574,"Postcode":"0820","State":"NT ","Urban Type":"Major Urban"},{"ID":2575,"Postcode":"0830","State":"NT ","Urban Type":"Large Regional"},{"ID":2576,"Postcode":"0832","State":"NT ","Urban Type":"Large Regional"},{"ID":2577,"Postcode":"0870","State":"NT ","Urban Type":"Large Regional"},{"ID":2578,"Postcode":"0835","State":"NT ","Urban Type":"Small Regional"},{"ID":2579,"Postcode":"0836","State":"NT ","Urban Type":"Small Regional"},{"ID":2580,"Postcode":"0850","State":"NT ","Urban Type":"Small Regional"},{"ID":2581,"Postcode":"0860","State":"NT ","Urban Type":"Small Regional"},{"ID":2582,"Postcode":"0880","State":"NT ","Urban Type":"Small Regional"},{"ID":2583,"Postcode":"0822","State":"NT ","Urban Type":"Rural"},{"ID":2584,"Postcode":"0828","State":"NT ","Urban Type":"Rural"},{"ID":2585,"Postcode":"0829","State":"NT ","Urban Type":"Rural"},{"ID":2586,"Postcode":"0837","State":"NT ","Urban Type":"Rural"},{"ID":2587,"Postcode":"0838","State":"NT ","Urban Type":"Rural"},{"ID":2588,"Postcode":"0840","State":"NT ","Urban Type":"Rural"},{"ID":2589,"Postcode":"0841","State":"NT ","Urban Type":"Rural"},{"ID":2590,"Postcode":"0845","State":"NT ","Urban Type":"Rural"},{"ID":2591,"Postcode":"0846","State":"NT ","Urban Type":"Rural"},{"ID":2592,"Postcode":"0847","State":"NT ","Urban Type":"Rural"},{"ID":2593,"Postcode":"0852","State":"NT ","Urban Type":"Rural"},{"ID":2594,"Postcode":"0853","State":"NT ","Urban Type":"Rural"},{"ID":2595,"Postcode":"0854","State":"NT ","Urban Type":"Rural"},{"ID":2596,"Postcode":"0862","State":"NT ","Urban Type":"Rural"},{"ID":2597,"Postcode":"0872","State":"NT ","Urban Type":"Rural"},{"ID":2598,"Postcode":"0885","State":"NT ","Urban Type":"Rural"},{"ID":2599,"Postcode":"0886","State":"NT ","Urban Type":"Rural"},{"ID":2600,"Postcode":"2600","State":"ACT","Urban Type":"Major Urban"},{"ID":2601,"Postcode":"2601","State":"ACT","Urban Type":"Major Urban"},{"ID":2602,"Postcode":"2602","State":"ACT","Urban Type":"Major Urban"},{"ID":2603,"Postcode":"2603","State":"ACT","Urban Type":"Major Urban"},{"ID":2604,"Postcode":"2604","State":"ACT","Urban Type":"Major Urban"},{"ID":2605,"Postcode":"2605","State":"ACT","Urban Type":"Major Urban"},{"ID":2606,"Postcode":"2606","State":"ACT","Urban Type":"Major Urban"},{"ID":2607,"Postcode":"2607","State":"ACT","Urban Type":"Major Urban"},{"ID":2608,"Postcode":"2611","State":"ACT","Urban Type":"Major Urban"},{"ID":2609,"Postcode":"2612","State":"ACT","Urban Type":"Major Urban"},{"ID":2610,"Postcode":"2614","State":"ACT","Urban Type":"Major Urban"},{"ID":2611,"Postcode":"2615","State":"ACT","Urban Type":"Major Urban"},{"ID":2612,"Postcode":"2617","State":"ACT","Urban Type":"Major Urban"},{"ID":2613,"Postcode":"2900","State":"ACT","Urban Type":"Major Urban"},{"ID":2614,"Postcode":"2902","State":"ACT","Urban Type":"Major Urban"},{"ID":2615,"Postcode":"2903","State":"ACT","Urban Type":"Major Urban"},{"ID":2616,"Postcode":"2904","State":"ACT","Urban Type":"Major Urban"},{"ID":2617,"Postcode":"2905","State":"ACT","Urban Type":"Major Urban"},{"ID":2618,"Postcode":"2906","State":"ACT","Urban Type":"Major Urban"},{"ID":2619,"Postcode":"2911","State":"ACT","Urban Type":"Major Urban"},{"ID":2620,"Postcode":"2912","State":"ACT","Urban Type":"Major Urban"},{"ID":2621,"Postcode":"2913","State":"ACT","Urban Type":"Major Urban"},{"ID":2622,"Postcode":"2914","State":"ACT","Urban Type":"Major Urban"},{"ID":2623,"Postcode":"2609","State":"ACT","Urban Type":"Rural"},{"ID":2624,"Postcode":"2618","State":"ACT","Urban Type":"Rural"}]